version;stopid;stopname;placename;stopshortname;stopifopt;areaid;areaname;areaifopt;posid;posname;posifopt;X;Y;farezones
9;111;Dortmund Dahmsfeldstraße;Dortmund;Dahmsfe;de:05913:111;1;Dahmsfeld;de:05913:111:1;1;01;;7.468602;51.461095;372
9;111;Dortmund Dahmsfeldstraße;Dortmund;Dahmsfe;de:05913:111;1;Dahmsfeld;de:05913:111:1;2;02;;7.466536;51.461241;372
9;218;Dortmund Hellerstraße;Dortmund;DOHE;de:05913:218;1;Hellerstr.;de:05913:218:1;1;01;;7.454795;51.444189;372
9;218;Dortmund Hellerstraße;Dortmund;DOHE;de:05913:218;1;Hellerstr.;de:05913:218:1;2;02;;7.454759;51.444150;372
9;232;Dortmund Hohle Eiche;Dortmund;DOHO;de:05913:232;1;HohleEiche;de:05913:232:1;1;01;;7.456107;51.459517;372
9;232;Dortmund Hohle Eiche;Dortmund;DOHO;de:05913:232;1;HohleEiche;de:05913:232:1;2;02;;7.456107;51.459226;372
9;276;Dortmund Kirchhörde;Dortmund;DOKI;de:05913:276;1;Kirchhörde;de:05913:276:1;1;01;de:05913:276:1:01;7.456897;51.453891;372
9;276;Dortmund Kirchhörde;Dortmund;DOKI;de:05913:276;1;Kirchhörde;de:05913:276:1;2;02;de:05913:276:1:02;7.456771;51.454558;372
9;277;Dortmund Kirchhörde Bf;Dortmund;DOKB;de:05913:277;1;Kirchörde Bf;de:05913:277:1;1;01;;7.457679;51.463278;372
9;277;Dortmund Kirchhörde Bf;Dortmund;DOKB;de:05913:277;1;Kirchörde Bf;de:05913:277:1;2;02;;7.457742;51.463423;372
9;277;Dortmund Kirchhörde Bf;Dortmund;DOKB;de:05913:277;60;Eingang;de:05913:277:60;3;;de:05913:277:60;7.457993;51.464073;372
9;277;Dortmund Kirchhörde Bf;Dortmund;DOKB;de:05913:277;89;Schienenersatzv.;de:05913:277:89;4;;de:05913:277:89;7.457706;51.463356;372
9;277;Dortmund Kirchhörde Bf;Dortmund;DOKB;de:05913:277;90;Bahn;de:05913:277:90;5;90;;7.457724;51.464207;372
9;277;Dortmund Kirchhörde Bf;Dortmund;DOKB;de:05913:277;90;Bahn;de:05913:277:90;6;;de:05913:277:90;7.457724;51.464140;372
9;278;Dortmund Kirchhörder Straße;Dortmund;DOKS;de:05913:278;1;Kirchhörder Str;de:05913:278:1;1;01;;7.457760;51.448909;372
9;278;Dortmund Kirchhörder Straße;Dortmund;DOKS;de:05913:278;1;Kirchhörder Str;de:05913:278:1;2;02;;7.457670;51.449200;372
9;278;Dortmund Kirchhörder Straße;Dortmund;DOKS;de:05913:278;3;Umleitung;de:05913:278:3;3;03;;7.458442;51.448825;372
9;372;Dortmund Wohnstift Augustinum;Dortmund;WoAugus;de:05913:372;1;Wohnstift Augusti;de:05913:372:1;1;01;;7.473911;51.457295;372
9;372;Dortmund Wohnstift Augustinum;Dortmund;WoAugus;de:05913:372;1;Wohnstift Augusti;de:05913:372:1;2;02;;7.473768;51.457519;372
9;423;Dortmund Schanzenweg;Dortmund;DOSC;de:05913:423;1;Schanzenweg;de:05913:423:1;1;01;;7.451022;51.439800;372
9;423;Dortmund Schanzenweg;Dortmund;DOSC;de:05913:423;1;Schanzenweg;de:05913:423:1;2;02;;7.451040;51.440046;372
9;460;Dortmund Syburg;Dortmund;DOSY;de:05913:460;1;Syburg;de:05913:460:1;1;01;de:05913:460:1:01;7.487584;51.424667;389,582
9;460;Dortmund Syburg;Dortmund;DOSY;de:05913:460;1;Syburg;de:05913:460:1;2;02;de:05913:460:1:02;7.487682;51.424510;389,582
9;586;Dortmund Spissenagelstraße;Dortmund;DOSP;de:05913:586;1;Spiessenagel;de:05913:586:1;1;01;;7.456304;51.445466;372
9;586;Dortmund Spissenagelstraße;Dortmund;DOSP;de:05913:586;1;Spiessenagel;de:05913:586:1;2;02;;7.456798;51.445947;372
9;761;Dortmund Osthoffweg;Dortmund;Osthowg;de:05913:761;0;;;1;01;;7.464021;51.451680;372
9;761;Dortmund Osthoffweg;Dortmund;Osthowg;de:05913:761;0;;;2;02;de:05913:761:0:02;7.464021;51.451680;372
9;2001;Hagen Marktbrücke;Hagen;MABR;de:05914:2001;0;;;1;1;de:05914:2001:0:1;7.479319;51.356201;580
9;2001;Hagen Marktbrücke;Hagen;MABR;de:05914:2001;0;;;2;2;de:05914:2001:02;7.479346;51.356391;580
9;2002;Hagen Markt;Hagen;MARK;de:05914:2002;1;Ri Oberhagen;de:05914:2002:1;1;1;de:05914:2002:0:1;7.476948;51.355527;580
9;2002;Hagen Markt;Hagen;MARK;de:05914:2002;1;Ri Oberhagen;de:05914:2002:1;2;3;de:05914:2002:0:3;7.476858;51.355780;580
9;2002;Hagen Markt;Hagen;MARK;de:05914:2002;1;Ri Oberhagen;de:05914:2002:1;3;4;de:05914:2002:0:4;7.476858;51.355780;580
9;2002;Hagen Markt;Hagen;MARK;de:05914:2002;1;Ri Oberhagen;de:05914:2002:1;4;5;de:05914:2002:0:5;7.476858;51.355780;580
9;2002;Hagen Markt;Hagen;MARK;de:05914:2002;1;Ri Oberhagen;de:05914:2002:1;5;6;de:05914:2002:0:6;7.476858;51.355780;580
9;2002;Hagen Markt;Hagen;MARK;de:05914:2002;1;Ri Oberhagen;de:05914:2002:1;6;7;de:05914:2002:0:7;7.476858;51.355780;580
9;2002;Hagen Markt;Hagen;MARK;de:05914:2002;1;Ri Oberhagen;de:05914:2002:1;7;8;de:05914:2002:0:8;7.476858;51.355780;580
9;2002;Hagen Markt;Hagen;MARK;de:05914:2002;1;Ri Oberhagen;de:05914:2002:1;8;9;de:05914:2002:0:9;7.476858;51.355780;580
9;2002;Hagen Markt;Hagen;MARK;de:05914:2002;2;Ri Stadtmitte;de:05914:2002:2;9;2;de:05914:2002:0:2;7.476894;51.355875;580
9;2003;Hagen Stadtmitte/Volme Galerie;Hagen;STAMI;de:05914:2003;1;Körner Str. Ri H;de:05914:2003:1;10;1;de:05914:2003:1:1;7.472016;51.359437;580
9;2003;Hagen Stadtmitte/Volme Galerie;Hagen;STAMI;de:05914:2003;1;Körner Str. Ri H;de:05914:2003:1;11;2;de:05914:2003:1:2;7.472348;51.359247;580
9;2003;Hagen Stadtmitte/Volme Galerie;Hagen;STAMI;de:05914:2003;2;Körner Str. VVK;de:05914:2003:2;12;7;de:05914:2003:2:7;7.472600;51.359078;580
9;2003;Hagen Stadtmitte/Volme Galerie;Hagen;STAMI;de:05914:2003;2;Körner Str. VVK;de:05914:2003:2;13;8;de:05914:2003:2:8;7.472204;51.359303;580
9;2003;Hagen Stadtmitte/Volme Galerie;Hagen;STAMI;de:05914:2003;3;Badstr. ausw;de:05914:2003:3;14;5;de:05914:2003:3:5;7.473732;51.359449;580
9;2003;Hagen Stadtmitte/Volme Galerie;Hagen;STAMI;de:05914:2003;3;Badstr. ausw;de:05914:2003:3;15;6;de:05914:2003:3:6;7.473247;51.359101;580
9;2003;Hagen Stadtmitte/Volme Galerie;Hagen;STAMI;de:05914:2003;4;Badstr. Spk;de:05914:2003:4;16;3;de:05914:2003:4:3;7.473273;51.359168;580
9;2003;Hagen Stadtmitte/Volme Galerie;Hagen;STAMI;de:05914:2003;4;Badstr. Spk;de:05914:2003:4;17;4;de:05914:2003:4:4;7.473561;51.359398;580
9;2004;Hagen Volkspark;Hagen;VOLK;de:05914:2004;1;Ri City;de:05914:2004:1;1;1;de:05914:2004:0:1;7.469510;51.359493;580
9;2004;Hagen Volkspark;Hagen;VOLK;de:05914:2004;2;Ri Hbf;de:05914:2004:2;2;2;de:05914:2004:0:2;7.469141;51.359118;580
9;2005;Hagen Theater;Hagen;THEA;de:05914:2005;1;Ri City;de:05914:2005:1;1;1;de:05914:2005:0:1;7.466662;51.359174;580
9;2005;Hagen Theater;Hagen;THEA;de:05914:2005;2;Ri Hbf;de:05914:2005:2;2;2;de:05914:2005:0:2;7.465844;51.359387;580
9;2006;Hagen Schwenke;Hagen;SCHW;de:05914:2006;1;CitynachHbf;de:05914:2006:1;1;1;de:05914:2006:0:1;7.461820;51.359707;580
9;2006;Hagen Schwenke;Hagen;SCHW;de:05914:2006;2;HbfCity;de:05914:2006:2;2;2;de:05914:2006:0:2;7.462323;51.359516;580
9;2006;Hagen Schwenke;Hagen;SCHW;de:05914:2006;3;HbfvHaspe;de:05914:2006:3;3;3;de:05914:2006:0:3;7.460607;51.359505;580
9;2006;Hagen Schwenke;Hagen;SCHW;de:05914:2006;3;HbfvHaspe;de:05914:2006:3;4;4;de:05914:2006:0:4;7.460814;51.359600;580
9;2006;Hagen Schwenke;Hagen;SCHW;de:05914:2006;4;HaspevHbf;de:05914:2006:4;5;;de:05914:2006:4;7.460437;51.359415;580
9;2006;Hagen Schwenke;Hagen;SCHW;de:05914:2006;5;Bergstr;de:05914:2006:5;6;5;de:05914:2006:0:5;7.463257;51.359308;580
9;2007;Hagen Hauptbahnhof;Hagen;HBF;de:05914:2007;50;HST;de:05914:2007:50;1;1;de:05914:2007:50:1;7.462242;51.361541;580
9;2007;Hagen Hauptbahnhof;Hagen;HBF;de:05914:2007;50;HST;de:05914:2007:50;2;2;de:05914:2007:50:2;7.462413;51.361703;580
9;2007;Hagen Hauptbahnhof;Hagen;HBF;de:05914:2007;50;HST;de:05914:2007:50;3;20;de:05914:2007:50:20;7.462036;51.361877;580
9;2007;Hagen Hauptbahnhof;Hagen;HBF;de:05914:2007;50;HST;de:05914:2007:50;4;21;de:05914:2007:50:21;7.462242;51.362298;580
9;2007;Hagen Hauptbahnhof;Hagen;HBF;de:05914:2007;50;HST;de:05914:2007:50;5;3;de:05914:2007:50:3;7.462682;51.362130;580
9;2007;Hagen Hauptbahnhof;Hagen;HBF;de:05914:2007;50;HST;de:05914:2007:50;6;4;de:05914:2007:50:4;7.462467;51.362225;580
9;2007;Hagen Hauptbahnhof;Hagen;HBF;de:05914:2007;50;HST;de:05914:2007:50;7;5;de:05914:2007:50:5;7.462170;51.361816;580
9;2007;Hagen Hauptbahnhof;Hagen;HBF;de:05914:2007;50;HST;de:05914:2007:50;8;6;de:05914:2007:50:6;7.462036;51.361502;580
9;2007;Hagen Hauptbahnhof;Hagen;HBF;de:05914:2007;50;HST;de:05914:2007:50;9;7;de:05914:2007:50:7;7.461802;51.361967;580
9;2007;Hagen Hauptbahnhof;Hagen;HBF;de:05914:2007;70;Zwischengeschoss;de:05914:2007:70;10;;de:05914:2007:70;7.460221;51.362780;580
9;2007;Hagen Hauptbahnhof;Hagen;HBF;de:05914:2007;71;EingangBerlinerPlatz;de:05914:2007:71;11;;de:05914:2007:71;7.461533;51.362248;580
9;2007;Hagen Hauptbahnhof;Hagen;HBF;de:05914:2007;90;GL 4+6;de:05914:2007:90;12;3;de:05914:2007:90:3;7.460607;51.361760;580
9;2007;Hagen Hauptbahnhof;Hagen;HBF;de:05914:2007;90;GL 4+6;de:05914:2007:90;13;4;de:05914:2007:90:4;7.460877;51.363897;580
9;2007;Hagen Hauptbahnhof;Hagen;HBF;de:05914:2007;90;GL 4+6;de:05914:2007:90;14;5;de:05914:2007:90:5;7.460464;51.361771;580
9;2007;Hagen Hauptbahnhof;Hagen;HBF;de:05914:2007;90;GL 4+6;de:05914:2007:90;15;6;de:05914:2007:90:6;7.460697;51.363897;580
9;2007;Hagen Hauptbahnhof;Hagen;HBF;de:05914:2007;91;GL 1+2;de:05914:2007:91;16;1;de:05914:2007:90:1;7.461173;51.363027;580
9;2007;Hagen Hauptbahnhof;Hagen;HBF;de:05914:2007;91;GL 1+2;de:05914:2007:91;17;2;de:05914:2007:90:2;7.461020;51.363033;580
9;2007;Hagen Hauptbahnhof;Hagen;HBF;de:05914:2007;92;GL15;de:05914:2007:92;18;13;de:05914:2007:90:13;7.459745;51.361827;580
9;2007;Hagen Hauptbahnhof;Hagen;HBF;de:05914:2007;92;GL15;de:05914:2007:92;19;14;de:05914:2007:90:14;7.459978;51.363577;580
9;2007;Hagen Hauptbahnhof;Hagen;HBF;de:05914:2007;92;GL15;de:05914:2007:92;20;15;de:05914:2007:90:15;7.459583;51.361832;580
9;2007;Hagen Hauptbahnhof;Hagen;HBF;de:05914:2007;92;GL15;de:05914:2007:92;21;18;de:05914:2007:90:18;7.459817;51.363588;580
9;2007;Hagen Hauptbahnhof;Hagen;HBF;de:05914:2007;93;GL09;de:05914:2007:93;22;09;de:05914:2007:90:9;7.460158;51.361799;580
9;2007;Hagen Hauptbahnhof;Hagen;HBF;de:05914:2007;93;GL09;de:05914:2007:93;23;10;de:05914:2007:90:10;7.460347;51.363891;580
9;2007;Hagen Hauptbahnhof;Hagen;HBF;de:05914:2007;93;GL09;de:05914:2007:93;24;7;de:05914:2007:90:7;7.460302;51.361788;580
9;2007;Hagen Hauptbahnhof;Hagen;HBF;de:05914:2007;93;GL09;de:05914:2007:93;25;8;de:05914:2007:90:8;7.460526;51.363897;580
9;2007;Hagen Hauptbahnhof;Hagen;HBF;de:05914:2007;98;GL 11+12;de:05914:2007:98;26;1;de:05914:2007:98:1;7.461802;51.361967;580
9;2007;Hagen Hauptbahnhof;Hagen;HBF;de:05914:2007;98;GL 11+12;de:05914:2007:98;27;11;de:05914:2007:90:11;7.460095;51.362455;580
9;2007;Hagen Hauptbahnhof;Hagen;HBF;de:05914:2007;98;GL 11+12;de:05914:2007:98;28;12;de:05914:2007:90:12;7.459951;51.362461;580
9;2007;Hagen Hauptbahnhof;Hagen;HBF;de:05914:2007;98;GL 11+12;de:05914:2007:98;29;2;de:05914:2007:98:2;7.461802;51.361967;580
9;2007;Hagen Hauptbahnhof;Hagen;HBF;de:05914:2007;98;GL 11+12;de:05914:2007:98;30;3;de:05914:2007:98:3;7.461802;51.361967;580
9;2007;Hagen Hauptbahnhof;Hagen;HBF;de:05914:2007;98;GL 11+12;de:05914:2007:98;31;4;de:05914:2007:98:4;7.461802;51.361967;580
9;2007;Hagen Hauptbahnhof;Hagen;HBF;de:05914:2007;98;GL 11+12;de:05914:2007:98;32;5;de:05914:2007:98:5;7.461802;51.361967;580
9;2007;Hagen Hauptbahnhof;Hagen;HBF;de:05914:2007;98;GL 11+12;de:05914:2007:98;33;6;de:05914:2007:98:6;7.461802;51.361967;580
9;2008;Hagen Altenhg. Brücke;Hagen;ALBR;de:05914:2008;1;Hbf von Eckesey;de:05914:2008:1;1;2;de:05914:2008:0:2;7.463275;51.364143;580
9;2008;Hagen Altenhg. Brücke;Hagen;ALBR;de:05914:2008;2;EckvonHbf;de:05914:2008:2;2;1;de:05914:2008:0:1;7.463635;51.364244;580
9;2008;Hagen Altenhg. Brücke;Hagen;ALBR;de:05914:2008;3;HbfvonCity;de:05914:2008:3;3;3;de:05914:2008:0:3;7.464614;51.363347;580
9;2008;Hagen Altenhg. Brücke;Hagen;ALBR;de:05914:2008;4;CityvonHbf;de:05914:2008:4;4;4;de:05914:2008:0:4;7.464236;51.363313;580
9;2009;Hagen St-Josefs-Kirche;Hagen;STJK;de:05914:2009;0;;;1;1;de:05914:2009:0:1;7.463536;51.368400;580
9;2009;Hagen St-Josefs-Kirche;Hagen;STJK;de:05914:2009;0;;;2;2;de:05914:2009:0:2;7.463688;51.368423;580
9;2010;Hagen Brüderstr.;Hagen;BRÜD;de:05914:2010;0;;;1;1;de:05914:2010:0:1;7.462988;51.370722;580
9;2010;Hagen Brüderstr.;Hagen;BRÜD;de:05914:2010;0;;;2;2;de:05914:2010:0:2;7.463087;51.370817;580
9;2011;Hagen Friedensstr.;Hagen;FRIE;de:05914:2011;0;;;1;1;de:05914:2011:0:1;7.462817;51.373520;580
9;2011;Hagen Friedensstr.;Hagen;FRIE;de:05914:2011;0;;;2;2;de:05914:2011:0:2;7.462862;51.373447;580
9;2011;Hagen Friedensstr.;Hagen;FRIE;de:05914:2011;0;;;3;3;de:05914:2011:0:3;7.462853;51.373487;580
9;2011;Hagen Friedensstr.;Hagen;FRIE;de:05914:2011;0;;;4;4;de:05914:2011:0:4;7.462853;51.373487;580
9;2012;Hagen Alleestr.;Hagen;ALLE;de:05914:2012;1;RiCity;de:05914:2012:1;1;1;de:05914:2012:0:1;7.466159;51.374384;580
9;2012;Hagen Alleestr.;Hagen;ALLE;de:05914:2012;1;RiCity;de:05914:2012:1;2;3;de:05914:2012:0:3;7.466572;51.374446;580
9;2012;Hagen Alleestr.;Hagen;ALLE;de:05914:2012;1;RiCity;de:05914:2012:1;3;4;de:05914:2012:0:4;7.466572;51.374446;580
9;2012;Hagen Alleestr.;Hagen;ALLE;de:05914:2012;2;RiBoele;de:05914:2012:2;4;2;de:05914:2012:0:2;7.467048;51.374524;580
9;2013;Hagen Boeler Str.;Hagen;BOST;de:05914:2013;1;RiCity;de:05914:2013:1;1;1;de:05914:2013:0:1;7.469923;51.374911;580
9;2013;Hagen Boeler Str.;Hagen;BOST;de:05914:2013;2;RiBoele;de:05914:2013:2;2;2;de:05914:2013:0:2;7.470686;51.375208;580
9;2013;Hagen Boeler Str.;Hagen;BOST;de:05914:2013;3;RiHöing;de:05914:2013:3;3;3;de:05914:2013:0:3;7.470408;51.376554;580
9;2013;Hagen Boeler Str.;Hagen;BOST;de:05914:2013;4;RiBoelerheide;de:05914:2013:4;4;4;de:05914:2013:0:4;7.470812;51.376330;580
9;2014;Hagen Siedlerstr. HVG;Hagen;SIED;de:05914:2014;1;Ri City;de:05914:2014:1;1;1;de:05914:2014:0:1;7.475106;51.378287;580
9;2014;Hagen Siedlerstr. HVG;Hagen;SIED;de:05914:2014;2;Ri Loxbaum;de:05914:2014:2;2;2;de:05914:2014:0:2;7.474747;51.377883;580
9;2015;Hagen Ginsterheide;Hagen;GINS;de:05914:2015;0;;;1;1;de:05914:2015:0:1;7.477487;51.380199;580
9;2015;Hagen Ginsterheide;Hagen;GINS;de:05914:2015;0;;;2;2;de:05914:2015:0:2;7.477478;51.380114;580
9;2016;Hagen Loxbaum;Hagen;LOX;de:05914:2016;1;Hagener einwärts;de:05914:2016:1;1;1;de:05914:2016:1:1;7.480056;51.383546;580,582
9;2016;Hagen Loxbaum;Hagen;LOX;de:05914:2016;1;Hagener einwärts;de:05914:2016:1;2;10;de:05914:2016:1:10;7.479993;51.383714;580,582
9;2016;Hagen Loxbaum;Hagen;LOX;de:05914:2016;2;Hagner auswärts;de:05914:2016:2;3;2;de:05914:2016:2:2;7.479885;51.384039;580,582
9;2016;Hagen Loxbaum;Hagen;LOX;de:05914:2016;3;Overbergstr;de:05914:2016:3;4;3;de:05914:2016:3:3;7.477927;51.384017;580,582
9;2016;Hagen Loxbaum;Hagen;LOX;de:05914:2016;3;Overbergstr;de:05914:2016:3;5;4;de:05914:2016:3:4;7.478106;51.384028;580,582
9;2016;Hagen Loxbaum;Hagen;LOX;de:05914:2016;4;Knipschild;de:05914:2016:4;6;5;de:05914:2016:4:5;7.480810;51.383781;580,582
9;2016;Hagen Loxbaum;Hagen;LOX;de:05914:2016;5;Feithstr. Ri. hoh;de:05914:2016:5;7;8;de:05914:2016:5:8;7.481538;51.382761;580,582
9;2016;Hagen Loxbaum;Hagen;LOX;de:05914:2016;6;Boeler Str. einw;de:05914:2016:6;8;7;de:05914:2016:6:7;7.480074;51.382581;580,582
9;2016;Hagen Loxbaum;Hagen;LOX;de:05914:2016;7;Endstelle;de:05914:2016:7;9;9;de:05914:2016:2:9;7.480882;51.384342;580,582
9;2016;Hagen Loxbaum;Hagen;LOX;de:05914:2016;8;KnippRiHald;de:05914:2016:8;10;6;de:05914:2016:4:6;7.481170;51.383910;580,582
9;2017;Hagen Kapellenstr.;Hagen;KAPE;de:05914:2017;1;Ri City;de:05914:2017:1;1;A.1;de:05914:2017:0:A.1;7.477630;51.385827;582
9;2017;Hagen Kapellenstr.;Hagen;KAPE;de:05914:2017;2;Ri Boele;de:05914:2017:2;2;A.2;de:05914:2017:0:A.2;7.477163;51.387044;582
9;2017;Hagen Kapellenstr.;Hagen;KAPE;de:05914:2017;3;Ri Helfe;de:05914:2017:3;3;A.3;de:05914:2017:0:A.3;7.478062;51.386764;582
9;2017;Hagen Kapellenstr.;Hagen;KAPE;de:05914:2017;4;Von Helfe;de:05914:2017:4;4;A.4;de:05914:2017:0:A.4;7.477999;51.386808;582
9;2018;Hagen Stennesufer;Hagen;STEN;de:05914:2018;1;Ri City;de:05914:2018:1;1;1;de:05914:2018:0:1;7.475825;51.388664;582
9;2018;Hagen Stennesufer;Hagen;STEN;de:05914:2018;2;Ri Boele;de:05914:2018:2;2;2;de:05914:2018:0:2;7.475420;51.389667;582
9;2018;Hagen Stennesufer;Hagen;STEN;de:05914:2018;2;Ri Boele;de:05914:2018:2;3;4;de:05914:2018:0:4;7.475915;51.389034;582
9;2019;Hagen Helfer Str.;Hagen;HEST;de:05914:2019;1;Ri City;de:5914:2019:1;1;1;de:05914:2019:0:1;7.471719;51.394085;582
9;2019;Hagen Helfer Str.;Hagen;HEST;de:05914:2019;2;Ri Boele;de:5914:2019:2;2;2;de:05914:2019:0:2;7.472699;51.393776;582
9;2019;Hagen Helfer Str.;Hagen;HEST;de:05914:2019;3;Von Helfe;de:5914:2019:3;3;3;de:05914:2019:0:3;7.472815;51.394202;582
9;2020;Hagen Boele Markt;Hagen;BOMA;de:05914:2020;1;Ri City;de:05914:2020:1;1;6;de:05914:2020:0:6;7.468791;51.397083;582
9;2020;Hagen Boele Markt;Hagen;BOMA;de:05914:2020;3;Pausenplatz;de:05914:2020:3;6;5;de:05914:2020:0:5;7.469456;51.396562;582
9;2020;Hagen Boele Markt;Hagen;BOMA;de:05914:2020;1;Ri City;de:05914:2020:1;7;1;de:05914:2020:0:A.1;7.469132;51.395447;582
9;2020;Hagen Boele Markt;Hagen;BOMA;de:05914:2020;1;Ri City;de:05914:2020:1;8;2;de:05914:2020:0:A.2;7.469357;51.395693;582
9;2020;Hagen Boele Markt;Hagen;BOMA;de:05914:2020;2;Ri Kabel;de:05914:2020:2;9;3;de:05914:2020:0:A.3;7.469537;51.395738;582
9;2020;Hagen Boele Markt;Hagen;BOMA;de:05914:2020;2;Ri Kabel;de:05914:2020:2;10;4;de:05914:2020:0:A.4;7.469312;51.395469;582
9;2021;Hagen Boloh;Hagen;BOLO;de:05914:2021;0;;;1;1;de:05914:2021:0:1;7.510356;51.366045;580
9;2022;Hagen Bolohstr.;Hagen;BOLS;de:05914:2022;0;;;1;1;de:05914:2022:0:1;7.508613;51.364166;580
9;2022;Hagen Bolohstr.;Hagen;BOLS;de:05914:2022;0;;;2;2;de:05914:2022:0:2;7.508595;51.364216;580
9;2023;Hagen Haferkamp;Hagen;HAFE;de:05914:2023;0;;;1;1;de:05914:2023:0:1;7.506035;51.363050;580
9;2023;Hagen Haferkamp;Hagen;HAFE;de:05914:2023;0;;;2;2;de:05914:2023:0:2;7.506152;51.363167;580
9;2024;Hagen Haßleyer Str.;Hagen;HAST;de:05914:2024;1;Feithstr.;de:05914:2024:1;1;1;de:05914:2024:0:1;7.505999;51.361507;580
9;2024;Hagen Haßleyer Str.;Hagen;HAST;de:05914:2024;1;Feithstr.;de:05914:2024:1;2;2;de:05914:2024:0:2;7.505739;51.361659;580
9;2024;Hagen Haßleyer Str.;Hagen;HAST;de:05914:2024;2;Eppenhausener;de:05914:2024:2;3;3;de:05914:2024:0:3;7.505810;51.360997;580
9;2024;Hagen Haßleyer Str.;Hagen;HAST;de:05914:2024;3;Hohenl;de:05914:2024:3;4;4;de:05914:2024:0:4;7.506888;51.361249;580
9;2025;Hagen Emster Str.;Hagen;EMER;de:05914:2025;0;;;1;1;de:05914:2025:0:1;7.499477;51.361316;580
9;2025;Hagen Emster Str.;Hagen;EMER;de:05914:2025;0;;;2;2;de:05914:2025:0:2;7.499774;51.361350;580
9;2026;Hagen Eppenhauser Brunnen;Hagen;EPBR;de:05914:2026;0;;;1;1;de:05914:2026:0:1;7.494608;51.361440;580
9;2026;Hagen Eppenhauser Brunnen;Hagen;EPBR;de:05914:2026;0;;;2;2;de:05914:2026:0:2;7.494959;51.361546;580
9;2027;Hagen Brunnenstr.;Hagen;BUNN;de:05914:2027;0;;;1;1;de:05914:2027:0:1;7.491150;51.360834;580
9;2027;Hagen Brunnenstr.;Hagen;BUNN;de:05914:2027;0;;;2;2;de:05914:2027:0:2;7.490746;51.360845;580
9;2028;Hagen Totenhofweg;Hagen;TOTE;de:05914:2028;1;Ri Emst;de:05914:2028:1;1;1;de:05914:2028:0:1;7.484790;51.360492;580
9;2028;Hagen Totenhofweg;Hagen;TOTE;de:05914:2028;2;Ri City;de:05914:2028:2;2;2;de:05914:2028:0:2;7.485338;51.360582;580
9;2029;Hagen Eickertstr.;Hagen;EICK;de:05914:2029;0;;;1;1;de:05914:2029:0:1;7.480541;51.359785;580
9;2029;Hagen Eickertstr.;Hagen;EICK;de:05914:2029;0;;;2;2;de:05914:2029:0:2;7.480424;51.359796;580
9;2030;Hagen Neumarktstr.;Hagen;NEUM;de:05914:2030;1;Ri City;de:05914:2030:1;1;1;de:05914:2030:0:1;7.468755;51.360985;580
9;2030;Hagen Neumarktstr.;Hagen;NEUM;de:05914:2030;2;Ri Hbf;de:05914:2030:2;2;2;de:05914:2030:0:2;7.468198;51.361328;580
9;2032;Hagen Akku Hawker;Hagen;AKHA;de:05914:2032;1;RiCity;de:05914:2032:1;1;1;de:05914:2032:0:1;7.452415;51.354338;580
9;2032;Hagen Akku Hawker;Hagen;AKHA;de:05914:2032;2;RiHaspe;de:05914:2032:2;2;2;de:05914:2032:0:2;7.453232;51.354591;580
9;2033;Hagen Wehringhauser Str.;Hagen;WEHRS;de:05914:2033;0;;;1;1;de:05914:2033:0:1;7.448157;51.353396;580
9;2033;Hagen Wehringhauser Str.;Hagen;WEHRS;de:05914:2033;0;;;2;2;de:05914:2033:0:2;7.447645;51.353396;580
9;2035;Hagen Isenbergstr.;Hagen;ISBG;de:05914:2035;0;;;1;1;de:05914:2035:0:1;7.569537;51.348739;584
9;2035;Hagen Isenbergstr.;Hagen;ISBG;de:05914:2035;0;;;2;2;de:05914:2035:0:2;7.569465;51.348773;584
9;2036;Hagen Henrichsiepen;Hagen;HENS;de:05914:2036;0;;;1;1;de:05914:2036:0:1;7.498579;51.387986;582
9;2036;Hagen Henrichsiepen;Hagen;HENS;de:05914:2036;0;;;2;2;de:05914:2036:0:2;7.498678;51.387963;582
9;2037;Hagen Haspe Zentrum;Hagen;HASP;de:05914:2037;0;;;1;1;de:05914:2037:0:1;7.421818;51.347420;587
9;2037;Hagen Haspe Zentrum;Hagen;HASP;de:05914:2037;0;;;2;2;de:05914:2037:0:2;7.421306;51.347331;587
9;2037;Hagen Haspe Zentrum;Hagen;HASP;de:05914:2037;0;;;3;3;de:05914:2037:0:3;7.421584;51.347387;587
9;2038;Hagen Niederhaspe;Hagen;NIHA;de:05914:2038;1;RiCity;de:05914:2038:1;1;1;de:05914:2038:0:1;7.418728;51.346209;587
9;2038;Hagen Niederhaspe;Hagen;NIHA;de:05914:2038;2;RiGev;de:05914:2038:2;2;2;de:05914:2038:0:2;7.417398;51.345799;587
9;2039;Hagen Kölner Str.;Hagen;KÖLN;de:05914:2039;0;;;1;1;de:05914:2039:0:1;7.411928;51.344132;587
9;2039;Hagen Kölner Str.;Hagen;KÖLN;de:05914:2039;0;;;2;2;de:05914:2039:0:2;7.411856;51.344228;587
9;2040;Hagen Grundschötteler Str.;Hagen;GRST;de:05914:2040;0;;;1;1;de:05914:2040:0:1;7.407867;51.342662;587
9;2040;Hagen Grundschötteler Str.;Hagen;GRST;de:05914:2040;0;;;2;2;de:05914:2040:0:2;7.407984;51.342831;587
9;2040;Hagen Grundschötteler Str.;Hagen;GRST;de:05914:2040;0;;;3;3;de:05914:2040:0:3;7.408002;51.342758;587
9;2041;Hagen Oedenburgstr.;Hagen;OEDE;de:05914:2041;0;;;1;1;de:05914:2041:0:1;7.409044;51.348885;587
9;2041;Hagen Oedenburgstr.;Hagen;OEDE;de:05914:2041;0;;;2;2;de:05914:2041:0:2;7.408837;51.348745;587
9;2042;Hagen Büddingstr.;Hagen;BÜDD;de:05914:2042;0;;;1;A.1;de:05914:2042:0:A.1;7.412467;51.351314;587
9;2042;Hagen Büddingstr.;Hagen;BÜDD;de:05914:2042;0;;;2;A.2;de:05914:2042:0:A.2;7.412395;51.351258;587
9;2042;Hagen Büddingstr.;Hagen;BÜDD;de:05914:2042;0;;;3;A.3;de:05914:2042:0:A.3;7.412476;51.351382;587
9;2043;Hagen Spielbrinkstr.;Hagen;SPST;de:05914:2043;1;RiHaspe;de:05914:2043:1;1;A.2;de:05914:2043:0:A.2;7.411721;51.353154;587
9;2043;Hagen Spielbrinkstr.;Hagen;SPST;de:05914:2043;2;RiSpiel;de:05914:2043:2;2;A.3;de:05914:2043:0:A.3;7.410939;51.353676;587
9;2044;Hagen Spielbrink;Hagen;SPIE;de:05914:2044;0;;;1;1;de:05914:2044:0:1;7.405891;51.351673;587
9;2044;Hagen Spielbrink;Hagen;SPIE;de:05914:2044;0;;;2;2;de:05914:2044:0:2;7.406223;51.351410;587
9;2044;Hagen Spielbrink;Hagen;SPIE;de:05914:2044;0;;;3;3;de:05914:2044:0:3;7.406205;51.351370;587
9;2045;Hagen Bissingheim;Hagen;BISS;de:05914:2045;1;Köhlerweg;de:05914:2045:1;1;1;de:05914:2045:0:1;7.519043;51.352307;580
9;2045;Hagen Bissingheim;Hagen;BISS;de:05914:2045;1;Köhlerweg;de:05914:2045:1;2;2;de:05914:2045:0:2;7.518971;51.352268;580
9;2045;Hagen Bissingheim;Hagen;BISS;de:05914:2045;2;Pausenplatz;de:05914:2045:2;3;3;de:05914:2045:0:3;7.519806;51.351763;580
9;2045;Hagen Bissingheim;Hagen;BISS;de:05914:2045;3;Elmenhorststr.;de:05914:2045:3;4;4;de:05914:2045:3:4;7.518594;51.352431;580
9;2045;Hagen Bissingheim;Hagen;BISS;de:05914:2045;3;Elmenhorststr.;de:05914:2045:3;5;5;de:05914:2045:3:5;7.518674;51.352414;580
9;2046;Hagen Köhlerweg;Hagen;KÖHL;de:05914:2046;0;;;1;1;de:05914:2046:0:1;7.517417;51.353682;580
9;2046;Hagen Köhlerweg;Hagen;KÖHL;de:05914:2046;0;;;2;2;de:05914:2046:0:2;7.517444;51.353631;580
9;2047;Hagen Max-Planck-Str.;Hagen;MAX;de:05914:2047;1;RiCity;de:05914:2047:1;1;1;de:05914:2047:0:1;7.513958;51.352924;580
9;2047;Hagen Max-Planck-Str.;Hagen;MAX;de:05914:2047;2;RiBissingheim;de:05914:2047:2;2;2;de:05914:2047:0:2;7.514560;51.352964;580
9;2048;Hagen Cunostr.;Hagen;CUNO;de:05914:2048;1;Cunostr. 541;de:05914:2048:1;3;1;de:05914:2048:0:1;7.509512;51.351931;580
9;2048;Hagen Cunostr.;Hagen;CUNO;de:05914:2048;1;Cunostr. 541;de:05914:2048:1;4;2;de:05914:2048:0:2;7.509538;51.351847;580
9;2048;Hagen Cunostr.;Hagen;CUNO;de:05914:2048;2;Cunostr. 535;de:05914:2048:2;5;3;de:05914:2048:2:3;7.511263;51.352257;580
9;2048;Hagen Cunostr.;Hagen;CUNO;de:05914:2048;2;Cunostr. 535;de:05914:2048:2;6;4;de:05914:2048:2:4;7.511182;51.352318;580
9;2049;Hagen Emst Kirche;Hagen;EMKI;de:05914:2049;0;;;1;1;de:05914:2049:0:1;7.504427;51.351567;580
9;2049;Hagen Emst Kirche;Hagen;EMKI;de:05914:2049;0;;;2;2;de:05914:2049:0:2;7.504436;51.351499;580
9;2050;Hagen K.-E.-Osthaus-Str.;Hagen;KEOS;de:05914:2050;1;Emster Str.;de:05914:2050:1;1;1;de:05914:2050:0:1;7.502837;51.354826;580
9;2050;Hagen K.-E.-Osthaus-Str.;Hagen;KEOS;de:05914:2050;1;Emster Str.;de:05914:2050:1;2;2;de:05914:2050:0:2;7.502765;51.354793;580
9;2050;Hagen K.-E.-Osthaus-Str.;Hagen;KEOS;de:05914:2050;2;KEO-Str.;de:05914:2050:2;3;3;de:05914:2050:0:3;7.503089;51.355107;580
9;2050;Hagen K.-E.-Osthaus-Str.;Hagen;KEOS;de:05914:2050;2;KEO-Str.;de:05914:2050:2;4;4;de:05914:2050:0:4;7.503053;51.355168;580
9;2051;Hagen In der Luke;Hagen;INDL;de:05914:2051;0;;;1;1;de:05914:2051:0:1;7.500996;51.357059;580
9;2051;Hagen In der Luke;Hagen;INDL;de:05914:2051;0;;;2;2;de:05914:2051:0:2;7.500789;51.357233;580
9;2052;Hagen Harkortstr.;Hagen;HARK;de:05914:2052;0;;;1;1;de:05914:2052:0:1;7.406583;51.345389;587
9;2052;Hagen Harkortstr.;Hagen;HARK;de:05914:2052;0;;;2;2;de:05914:2052:0:2;7.406619;51.345457;587
9;2053;Hagen Jungfernbruch;Hagen;JUNG;de:05914:2053;0;;;1;1;de:05914:2053:0:1;7.404247;51.345524;587
9;2053;Hagen Jungfernbruch;Hagen;JUNG;de:05914:2053;0;;;2;2;de:05914:2053:0:2;7.404346;51.345603;587
9;2054;Hagen Twittingstr.;Hagen;TWIT;de:05914:2054;0;;;1;1;de:05914:2054:0:1;7.402378;51.347095;587
9;2054;Hagen Twittingstr.;Hagen;TWIT;de:05914:2054;0;;;2;2;de:05914:2054:0:2;7.402495;51.347129;587
9;2055;Hagen Ährenstr.;Hagen;ÄHRE;de:05914:2055;0;;;1;1;de:05914:2055:0:1;7.398623;51.347437;587
9;2055;Hagen Ährenstr.;Hagen;ÄHRE;de:05914:2055;0;;;2;2;de:05914:2055:0:2;7.398632;51.347544;587
9;2056;Hagen Kornstr.;Hagen;KORN;de:05914:2056;1;RiHaspe;de:05914:2056:1;1;1;de:05914:2056:0:1;7.399342;51.345485;587
9;2056;Hagen Kornstr.;Hagen;KORN;de:05914:2056;2;RiWester;de:05914:2056:2;2;2;de:05914:2056:0:2;7.398489;51.345950;587
9;2057;Hagen Louise-Märcker-Str.;Hagen;LOMÄ;de:05914:2057;0;;;1;1;de:05914:2057:0:1;7.400240;51.344452;587
9;2057;Hagen Louise-Märcker-Str.;Hagen;LOMÄ;de:05914:2057;0;;;2;2;de:05914:2057:0:2;7.400061;51.344744;587
9;2058;Hagen Quambusch;Hagen;QUAM;de:05914:2058;0;;;1;1;de:05914:2058:0:1;7.397572;51.343571;587
9;2058;Hagen Quambusch;Hagen;QUAM;de:05914:2058;0;;;2;2;de:05914:2058:0:2;7.397303;51.343481;587
9;2059;Hagen Hohenlimburg Bf;Hagen;HOBF;de:05914:2059;50;Bahnstr. Ri. MitteW;de:05914:2059:50;1;1;de:05914:2059:50:1;7.569447;51.349395;584
9;2059;Hagen Hohenlimburg Bf;Hagen;HOBF;de:05914:2059;50;Bahnstr. Ri. MitteW;de:05914:2059:50;2;2;de:05914:2059:50:2;7.569932;51.349339;584
9;2059;Hagen Hohenlimburg Bf;Hagen;HOBF;de:05914:2059;51;Bahnstr. Ri Mitte O;de:05914:2059:51;3;3;de:05914:2059:50:3;7.570786;51.349222;584
9;2059;Hagen Hohenlimburg Bf;Hagen;HOBF;de:05914:2059;52;Bahnstr. End W;de:05914:2059:52;4;6;de:05914:2059:50:6;7.569986;51.349233;584
9;2059;Hagen Hohenlimburg Bf;Hagen;HOBF;de:05914:2059;52;Bahnstr. End W;de:05914:2059:52;5;7;de:05914:2059:50:7;7.569465;51.349294;584
9;2059;Hagen Hohenlimburg Bf;Hagen;HOBF;de:05914:2059;53;Bahnstr. End O;de:05914:2059:53;6;4;de:05914:2059:50:4;7.571217;51.349076;584
9;2059;Hagen Hohenlimburg Bf;Hagen;HOBF;de:05914:2059;53;Bahnstr. End O;de:05914:2059:53;7;5;de:05914:2059:50:5;7.570660;51.349149;584
9;2059;Hagen Hohenlimburg Bf;Hagen;HOBF;de:05914:2059;60;Eing Unterführung;de:05914:2059:60;8;;de:05914:2059:60;7.572142;51.348947;584
9;2059;Hagen Hohenlimburg Bf;Hagen;HOBF;de:05914:2059;70;Unterführung Gl 2;de:05914:2059:70;9;;de:05914:2059:70;7.572187;51.348829;584
9;2059;Hagen Hohenlimburg Bf;Hagen;HOBF;de:05914:2059;90;DB Ri Hagen Hbf;de:05914:2059:90;10;1;de:05914:2059:90:1;7.572232;51.348823;584
9;2059;Hagen Hohenlimburg Bf;Hagen;HOBF;de:05914:2059;90;DB Ri Hagen Hbf;de:05914:2059:90;11;6;de:05914:2059:90:6;7.570983;51.348919;584
9;2059;Hagen Hohenlimburg Bf;Hagen;HOBF;de:05914:2059;90;DB Ri Hagen Hbf;de:05914:2059:90;12;;de:05914:2059:90;7.571756;51.348947;584
9;2059;Hagen Hohenlimburg Bf;Hagen;HOBF;de:05914:2059;91;DB Ri Iserlohn;de:05914:2059:91;13;2;de:05914:2059:91:2;7.572196;51.348750;584
9;2059;Hagen Hohenlimburg Bf;Hagen;HOBF;de:05914:2059;91;DB Ri Iserlohn;de:05914:2059:91;14;;de:05914:2059:91;7.571729;51.348868;584
9;2059;Hagen Hohenlimburg Bf;Hagen;HOBF;de:05914:2059;98;DB;de:05914:2059:98;15;;de:05914:2059:98;7.571154;51.349059;584
9;2060;Hagen Hohenlimburg Mitte;Hagen;HOMI;de:05914:2060;1;Stennertstr.;de:05914:2060:1;5;4;de:05914:2060:0:A.3;7.565827;51.351157;584
9;2060;Hagen Hohenlimburg Mitte;Hagen;HOMI;de:05914:2060;2;Preinstr.;de:05914:2060:2;6;1;de:05914:2060:0:A.1;7.566752;51.350411;584
9;2060;Hagen Hohenlimburg Mitte;Hagen;HOMI;de:05914:2060;2;Preinstr.;de:05914:2060:2;7;11;de:05914:2060:2:11;7.566968;51.350489;584
9;2060;Hagen Hohenlimburg Mitte;Hagen;HOMI;de:05914:2060;2;Preinstr.;de:05914:2060:2;8;2;de:05914:2060:0:4;7.566393;51.350338;584
9;2060;Hagen Hohenlimburg Mitte;Hagen;HOMI;de:05914:2060;3;Grünrockstr.;de:05914:2060:3;9;3;de:05914:2060:0:A.2;7.565827;51.350428;584
9;2061;Hagen Lennebad;Hagen;LENN;de:05914:2061;1;RiHoh;de:05914:2061:1;1;1;de:05914:2061:0:1;7.565495;51.354389;584
9;2061;Hagen Lennebad;Hagen;LENN;de:05914:2061;1;RiHoh;de:05914:2061:1;2;3;de:05914:2061:0:3;7.565243;51.354832;584
9;2061;Hagen Lennebad;Hagen;LENN;de:05914:2061;1;RiHoh;de:05914:2061:1;3;4;de:05914:2061:0:4;7.565243;51.354832;584
9;2061;Hagen Lennebad;Hagen;LENN;de:05914:2061;2;RiCity;de:05914:2061:2;4;2;de:05914:2061:0:2;7.565063;51.355191;584
9;2062;Hagen Elsey Krankenhaus;Hagen;ELKR;de:05914:2062;1;RiHoh;de:05914:2062:1;1;1;de:05914:2062:0:1;7.565162;51.357906;584
9;2062;Hagen Elsey Krankenhaus;Hagen;ELKR;de:05914:2062;2;Iserlohn;de:05914:2062:2;2;2;de:05914:2062:0:2;7.566132;51.358332;584
9;2063;Hagen Elsey Post;Hagen;ELPO;de:05914:2063;0;;;1;1;de:05914:2063:0:1;7.566914;51.361227;584
9;2063;Hagen Elsey Post;Hagen;ELPO;de:05914:2063;0;;;2;2;de:05914:2063:0:2;7.567013;51.361199;584
9;2064;Hagen Rundturnhalle;Hagen;RUND;de:05914:2064;0;;;1;1;de:05914:2064:0:1;7.566384;51.363100;584
9;2064;Hagen Rundturnhalle;Hagen;RUND;de:05914:2064;0;;;2;2;de:05914:2064:0:2;7.566447;51.363212;584
9;2065;Hagen Schwalbenweg;Hagen;SWEG;de:05914:2065;1;Ri Rundturnhalle;de:05914:2065:1;1;1;de:05914:2065:0:1;7.562288;51.364317;584
9;2065;Hagen Schwalbenweg;Hagen;SWEG;de:05914:2065;2;Ri Hasselbach;de:05914:2065:2;2;2;de:05914:2065:0:2;7.563141;51.364480;584
9;2066;Hagen Im Stockhof;Hagen;IMST;de:05914:2066;1;Henkhauser;de:05914:2066:1;1;2;de:05914:2066:0:2;7.562306;51.369281;584
9;2066;Hagen Im Stockhof;Hagen;IMST;de:05914:2066;2;ImStockhof;de:05914:2066:2;2;1;de:05914:2066:0:1;7.563087;51.368210;584
9;2066;Hagen Im Stockhof;Hagen;IMST;de:05914:2066;3;Alte Heerstr.;de:05914:2066:3;3;3;de:05914:2066:0:3;7.563419;51.369101;584
9;2066;Hagen Im Stockhof;Hagen;IMST;de:05914:2066;3;Alte Heerstr.;de:05914:2066:3;4;4;de:05914:2066:0:4;7.563401;51.369219;584
9;2067;Hagen Dachsweg;Hagen;DACH;de:05914:2067;0;;;1;1;de:05914:2067:0:1;7.561192;51.370599;584
9;2067;Hagen Dachsweg;Hagen;DACH;de:05914:2067;0;;;2;2;de:05914:2067:0:2;7.561183;51.370705;584
9;2068;Hagen Fasanenweg;Hagen;FASA;de:05914:2068;0;;;1;1;de:05914:2068:0:1;7.557733;51.371098;584
9;2068;Hagen Fasanenweg;Hagen;FASA;de:05914:2068;0;;;2;2;de:05914:2068:0:2;7.557059;51.371126;584
9;2069;Hagen Reh/Lenne Arena;Hagen;REH;de:05914:2069;0;;;1;1;de:05914:2069:0:1;7.551705;51.366387;584
9;2069;Hagen Reh/Lenne Arena;Hagen;REH;de:05914:2069;0;;;2;2;de:05914:2069:0:2;7.551660;51.366566;584
9;2070;Hagen Alter Reher Weg;Hagen;ALRW;de:05914:2070;0;;;1;1;de:05914:2070:0:1;7.548732;51.370391;584
9;2070;Hagen Alter Reher Weg;Hagen;ALRW;de:05914:2070;0;;;2;2;de:05914:2070:0:2;7.548750;51.370206;584
9;2073;Hagen Grote;Hagen;GROT;de:05914:2073;0;;;1;1;de:05914:2073:0:1;7.581610;51.347572;584
9;2073;Hagen Grote;Hagen;GROT;de:05914:2073;0;;;2;2;de:05914:2073:0:2;7.581808;51.347437;584
9;2074;Hagen Landgericht;Hagen;LAND;de:05914:2074;1;RiCity;de:05914:2074:1;1;2;de:05914:2074:0:2;7.480182;51.363925;580
9;2074;Hagen Landgericht;Hagen;LAND;de:05914:2074;2;Halden;de:05914:2074:2;2;1;de:05914:2074:0:1;7.480730;51.363930;580
9;2074;Hagen Landgericht;Hagen;LAND;de:05914:2074;3;Hohenlimburg;de:05914:2074:3;3;3;de:05914:2074:0:3;7.481718;51.364732;580
9;2075;Hagen Emilienplatz;Hagen;EMIL;de:05914:2075;1;Ri City;de:05914:2075:1;1;2;de:05914:2075:0:2;7.474935;51.360632;580
9;2075;Hagen Emilienplatz;Hagen;EMIL;de:05914:2075;2;Ri Land;de:05914:2075:2;2;1;de:05914:2075:0:1;7.476732;51.361434;580
9;2076;Hagen Eilperfeld;Hagen;EIFE;de:05914:2076;0;;;1;1;de:05914:2076:0:1;7.491159;51.339862;580
9;2077;Hagen Metzer Str.;Hagen;MEST;de:05914:2077;1;Ri Eilperfeld;de:05914:2077:1;1;1;de:05914:2077:0:1;7.491222;51.342640;580
9;2077;Hagen Metzer Str.;Hagen;MEST;de:05914:2077;2;Ri City;de:05914:2077:2;2;2;de:05914:2077:0:2;7.491348;51.342297;580
9;2077;Hagen Metzer Str.;Hagen;MEST;de:05914:2077;3;NE8;de:05914:2077:3;3;3;de:05914:2077:0:3;7.490746;51.342769;580
9;2078;Hagen Riegerbusch;Hagen;RIEG;de:05914:2078;0;;;1;1;de:05914:2078:0:1;7.495246;51.343246;580
9;2078;Hagen Riegerbusch;Hagen;RIEG;de:05914:2078;0;;;2;2;de:05914:2078:0:2;7.495579;51.343246;580
9;2079;Hagen Elsässer Str.;Hagen;ELSA;de:05914:2079;0;;;1;1;de:05914:2079:0:1;7.496971;51.342477;580
9;2079;Hagen Elsässer Str.;Hagen;ELSA;de:05914:2079;0;;;2;2;de:05914:2079:0:2;7.496872;51.342477;580
9;2080;Hagen Hohle Str.;Hagen;HOST;de:05914:2080;0;;;1;1;de:05914:2080:0:1;7.497411;51.340440;580
9;2080;Hagen Hohle Str.;Hagen;HOST;de:05914:2080;0;;;2;2;de:05914:2080:0:2;7.497348;51.340283;580
9;2081;Hagen Mühlhauser Str.;Hagen;MÜST;de:05914:2081;1;Ri Eilperfeld;de:05914:2081:1;1;1;de:05914:2081:0:1;7.500340;51.342067;580
9;2081;Hagen Mühlhauser Str.;Hagen;MÜST;de:05914:2081;2;Ri Eilpe;de:05914:2081:2;2;2;de:05914:2081:0:2;7.500160;51.341456;580
9;2082;Hagen Hüsteystr.;Hagen;HÜST;de:05914:2082;0;;;1;1;de:05914:2082:0:1;7.500717;51.344312;580
9;2082;Hagen Hüsteystr.;Hagen;HÜST;de:05914:2082;0;;;2;2;de:05914:2082:0:2;7.500816;51.344340;580
9;2083;Hagen Eilpe Physiomed;Hagen;EILP;de:05914:2083;1;RiDahl;de:05914:2083:1;1;1;de:05914:2083:0:1;7.494860;51.346803;580
9;2083;Hagen Eilpe Physiomed;Hagen;EILP;de:05914:2083;1;RiDahl;de:05914:2083:1;2;3;de:05914:2083:0:3;7.494564;51.346915;580
9;2083;Hagen Eilpe Physiomed;Hagen;EILP;de:05914:2083;2;Ri City;de:05914:2083:2;3;2;de:05914:2083:0:2;7.494366;51.347039;580
9;2084;Hagen Luisenstr.;Hagen;LUIS;de:05914:2084;0;;;1;1;de:05914:2084:0:1;7.486766;51.346988;580
9;2084;Hagen Luisenstr.;Hagen;LUIS;de:05914:2084;0;;;2;2;de:05914:2084:0:2;7.486784;51.347045;580
9;2085;Hagen Franzstr.;Hagen;FRAZ;de:05914:2085;0;;;1;1;de:05914:2085:0:1;7.482823;51.347353;580
9;2085;Hagen Franzstr.;Hagen;FRAZ;de:05914:2085;0;;;2;2;de:05914:2085:0:2;7.482320;51.347555;580
9;2086;Hagen Buntebachstr.;Hagen;BUNT;de:05914:2086;0;;;1;1;de:05914:2086:0:1;7.479454;51.349755;580
9;2086;Hagen Buntebachstr.;Hagen;BUNT;de:05914:2086;0;;;2;2;de:05914:2086:0:2;7.479822;51.349536;580
9;2087;Hagen Oberhagen;Hagen;OBER;de:05914:2087;1;P&R;de:05914:2087:1;1;;de:05914:2087:1;7.479490;51.351460;580
9;2087;Hagen Oberhagen;Hagen;OBER;de:05914:2087;50;HST;de:05914:2087:50;2;;de:05914:2087:50;7.479813;51.351774;580
9;2087;Hagen Oberhagen;Hagen;OBER;de:05914:2087;89;SEV;de:05914:2087:89;3;;de:05914:2087:89;7.479490;51.351460;580
9;2087;Hagen Oberhagen;Hagen;OBER;de:05914:2087;90;DB;de:05914:2087:90;4;1;de:05914:2087:90:1;7.479148;51.351028;580
9;2087;Hagen Oberhagen;Hagen;OBER;de:05914:2087;90;DB;de:05914:2087:90;5;2;de:05914:2087:90:2;7.479041;51.350927;580
9;2087;Hagen Oberhagen;Hagen;OBER;de:05914:2087;91;Ri Eilpe;de:05914:2087:91;6;1;de:05914:2087:50:1;7.479813;51.351948;580
9;2087;Hagen Oberhagen;Hagen;OBER;de:05914:2087;92;Ri City;de:05914:2087:92;7;2;de:05914:2087:50:2;7.480550;51.351645;580
9;2087;Hagen Oberhagen;Hagen;OBER;de:05914:2087;93;Von Oberhagen;de:05914:2087:93;8;3;de:05914:2087:50:3;7.479562;51.351348;580
9;2088;Hagen Eckeseyer Brücke;Hagen;ECBR;de:05914:2088;0;;;1;1;de:05914:2088:0:1;7.459547;51.367307;580
9;2088;Hagen Eckeseyer Brücke;Hagen;ECBR;de:05914:2088;0;;;2;2;de:05914:2088:0:2;7.459098;51.368580;580
9;2089;Hagen Eicken;Hagen;EIEN;de:05914:2089;0;;;1;1;de:05914:2089:0:1;7.457319;51.372045;580
9;2089;Hagen Eicken;Hagen;EIEN;de:05914:2089;0;;;2;2;de:05914:2089:0:2;7.457589;51.371776;580
9;2091;Hagen Fuhrparkstr.;Hagen;FUHR;de:05914:2091;1;RiCity;de:05914:2091:1;1;1;de:05914:2091:0:1;7.453618;51.379060;580
9;2091;Hagen Fuhrparkstr.;Hagen;FUHR;de:05914:2091;2;RiEck;de:05914:2091:2;2;2;de:05914:2091:0:2;7.453852;51.378606;580
9;2091;Hagen Fuhrparkstr.;Hagen;FUHR;de:05914:2091;3;End;de:05914:2091:3;3;3;de:05914:2091:0:3;7.452639;51.379733;580
9;2092;Hagen Eichendorffstr.;Hagen;EICH;de:05914:2092;1;RiCity;de:05914:2092:1;1;1;de:05914:2092:0:1;7.453124;51.380372;580
9;2092;Hagen Eichendorffstr.;Hagen;EICH;de:05914:2092;2;RiVorhalle;de:05914:2092:2;2;2;de:05914:2092:0:2;7.452873;51.380782;580
9;2093;Hagen Klopstockstr.;Hagen;KLOP;de:05914:2093;0;;;1;1;de:05914:2093:0:1;7.451337;51.382520;588,582
9;2093;Hagen Klopstockstr.;Hagen;KLOP;de:05914:2093;0;;;2;2;de:05914:2093:0:2;7.451247;51.382822;588,582
9;2094;Hagen Geitebrücke;Hagen;GEIT;de:05914:2094;1;RiCity;de:05914:2094:1;1;1;de:05914:2094:0:1;7.447213;51.385485;588
9;2094;Hagen Geitebrücke;Hagen;GEIT;de:05914:2094;2;RiVorhalle;de:05914:2094:2;2;2;de:05914:2094:0:2;7.448076;51.385272;588
9;2095;Hagen Weststr.;Hagen;WEST;de:05914:2095;1;RiCity;de:05914:2095:1;1;1;de:05914:2095:0:1;7.443935;51.387767;588
9;2095;Hagen Weststr.;Hagen;WEST;de:05914:2095;2;RiVorhalle;de:05914:2095:2;2;2;de:05914:2095:0:2;7.443845;51.388154;588
9;2096;Hagen Hartmannstr.;Hagen;HART;de:05914:2096;0;;;1;1;de:05914:2096:0:1;7.433891;51.383843;588
9;2096;Hagen Hartmannstr.;Hagen;HART;de:05914:2096;0;;;2;2;de:05914:2096:0:2;7.433927;51.384045;588
9;2097;Hagen Wittekindstr.;Hagen;WITT;de:05914:2097;0;;;1;1;de:05914:2097:0:1;7.467812;51.364542;580
9;2098;HA-Vorhalle Mitte;Hagen;VOMI;de:05914:2098;1;RiVorhalleBf;de:05914:2098:1;7;1;de:05914:2098:0:A.1;7.429885;51.383265;588
9;2098;HA-Vorhalle Mitte;Hagen;VOMI;de:05914:2098;1;RiVorhalleBf;de:05914:2098:1;8;5;de:05914:2098:0:A.5;7.430217;51.382699;588
9;2098;HA-Vorhalle Mitte;Hagen;VOMI;de:05914:2098;2;RiSporbecker;de:05914:2098:2;9;2;de:05914:2098:0:A.2;7.430029;51.383002;588
9;2098;HA-Vorhalle Mitte;Hagen;VOMI;de:05914:2098;3;RiWetter;de:05914:2098:3;10;3;de:05914:2098:0:A.3;7.429490;51.382441;588
9;2098;HA-Vorhalle Mitte;Hagen;VOMI;de:05914:2098;4;RiCity;de:05914:2098:4;11;4;de:05914:2098:0:A.4;7.431017;51.382834;588
9;2098;HA-Vorhalle Mitte;Hagen;VOMI;de:05914:2098;6;Pausenplatz;;12;6;de:05914:2098:0:6;7.426049;51.381522;588
9;2099;Hagen In der Imke;Hagen;INDI;de:05914:2099;1;Nöhstr.;de:05914:2099:1;1;1;de:05914:2099:0:1;7.431825;51.380440;588
9;2099;Hagen In der Imke;Hagen;INDI;de:05914:2099;1;Nöhstr.;de:05914:2099:1;2;3;de:05914:2099:0:3;7.432256;51.380417;588
9;2099;Hagen In der Imke;Hagen;INDI;de:05914:2099;2;Lindenstr.;de:05914:2099:2;3;2;de:05914:2099:0:2;7.433101;51.380686;588
9;2100;Hagen Untere Lindenstr.;Hagen;UNLI;de:05914:2100;0;;;1;1;de:05914:2100:0:1;7.435059;51.381247;588
9;2100;Hagen Untere Lindenstr.;Hagen;UNLI;de:05914:2100;0;;;2;2;de:05914:2100:0:2;7.435014;51.381320;588
9;2101;Hagen Sporbecker Weg;Hagen;SPOR;de:05914:2101;0;;;1;1;de:05914:2101:0:1;7.438473;51.379671;588
9;2101;Hagen Sporbecker Weg;Hagen;SPOR;de:05914:2101;0;;;2;2;de:05914:2101:0:2;7.438616;51.379845;588
9;2103;Hagen Ulmenstr.;Hagen;ULME;de:05914:2103;1;RiEck;de:05914:2103:1;1;1;de:05914:2103:0:1;7.440889;51.381527;588
9;2103;Hagen Ulmenstr.;Hagen;ULME;de:05914:2103;2;Vorhalle;de:05914:2103:2;2;2;de:05914:2103:0:2;7.441347;51.382189;588
9;2104;Hagen Selbecke;Hagen;SELB;de:05914:2104;1;Ri Breckerfeld;de:05914:2104:1;4;1;de:05914:2104:0:A.1;7.466419;51.327065;580
9;2104;Hagen Selbecke;Hagen;SELB;de:05914:2104;2;Ri City;de:05914:2104:2;5;2;de:05914:2104:0:A.2;7.466536;51.327032;580
9;2104;Hagen Selbecke;Hagen;SELB;de:05914:2104;3;Endstelle;de:05914:2104:3;6;3;de:05914:2104:0:A.3;7.466410;51.327397;580
9;2105;Hagen Zur Höhe;Hagen;ZUHÖ;de:05914:2105;0;;;1;1;de:05914:2105:0:1;7.471549;51.333498;580
9;2105;Hagen Zur Höhe;Hagen;ZUHÖ;de:05914:2105;0;;;2;2;de:05914:2105:0:2;7.472115;51.333565;580
9;2106;Hagen Freilichtmuseum;Hagen;FREI;de:05914:2106;1;Ri Breckerfeld;de:05914:2106:1;1;1;de:05914:2106:0:1;7.476022;51.335064;580
9;2106;Hagen Freilichtmuseum;Hagen;FREI;de:05914:2106;1;Ri Breckerfeld;de:05914:2106:1;2;3;de:05914:2106:0:3;7.476364;51.335288;580
9;2106;Hagen Freilichtmuseum;Hagen;FREI;de:05914:2106;1;Ri Breckerfeld;de:05914:2106:1;3;4;de:05914:2106:0:4;7.476364;51.335288;580
9;2106;Hagen Freilichtmuseum;Hagen;FREI;de:05914:2106;2;Ri City;de:05914:2106:2;4;2;de:05914:2106:0:2;7.476669;51.335513;580
9;2108;Hagen Krähnocken;Hagen;KRÄH;de:05914:2108;1;Ri Breckerfeld;de:05914:2108:1;1;1;de:05914:2108:0:1;7.482894;51.340255;580
9;2108;Hagen Krähnocken;Hagen;KRÄH;de:05914:2108;2;Ri City;de:05914:2108:2;2;2;de:05914:2108:0:2;7.482185;51.339638;580
9;2109;Hagen Felsenstr.;Hagen;FELS;de:05914:2109;1;Ri Breckerfeld;de:05914:2109:1;1;1;de:05914:2109:0:1;7.488437;51.343038;580
9;2109;Hagen Felsenstr.;Hagen;FELS;de:05914:2109;2;Ri City;de:05914:2109:2;2;2;de:05914:2109:0:2;7.489093;51.343134;580
9;2111;Hagen Elisabethstr.;Hagen;ELIS;de:05914:2111;1;Ri Eilpe;de:05914:2111:1;1;1;de:05914:2111:0:1;7.482337;51.350574;580
9;2111;Hagen Elisabethstr.;Hagen;ELIS;de:05914:2111;2;Ri City;de:05914:2111:2;2;2;de:05914:2111:0:2;7.482903;51.350405;580
9;2112;Hagen Boele Amtshaus;Hagen;BOAH;de:05914:2112;0;;;1;1;de:05914:2112:0:1;7.472869;51.398411;582
9;2112;Hagen Boele Amtshaus;Hagen;BOAH;de:05914:2112;0;;;2;2;de:05914:2112:0:2;7.472860;51.398305;582
9;2113;Hagen Külpestr.;Hagen;KÜLP;de:05914:2113;0;;;1;1;de:05914:2113:0:1;7.478520;51.401533;582
9;2113;Hagen Külpestr.;Hagen;KÜLP;de:05914:2113;0;;;2;2;de:05914:2113:0:2;7.478726;51.401567;582
9;2114;Hagen Borgenfeldstr.;Hagen;BORG;de:05914:2114;1;Ri Boele;de:05914:2114:1;1;1;de:05914:2114:0:1;7.481933;51.403455;582
9;2114;Hagen Borgenfeldstr.;Hagen;BORG;de:05914:2114;1;Ri Boele;de:05914:2114:1;2;3;de:05914:2114:0:3;7.482212;51.403556;582
9;2114;Hagen Borgenfeldstr.;Hagen;BORG;de:05914:2114;2;Ri Kabel;de:05914:2114:2;3;2;de:05914:2114:0:2;7.482463;51.403623;582
9;2115;Hagen Kabel;Hagen;KABE;de:05914:2115;0;;;1;1;de:05914:2115:0:1;7.484377;51.403864;582
9;2115;Hagen Kabel;Hagen;KABE;de:05914:2115;0;;;2;2;de:05914:2115:0:2;7.484377;51.403864;582
9;2116;Hagen Am Stuckenhagen;Hagen;AMST;de:05914:2116;0;;;1;1;de:05914:2116:0:1;7.528915;51.294541;586
9;2116;Hagen Am Stuckenhagen;Hagen;AMST;de:05914:2116;0;;;2;2;de:05914:2116:0:2;7.528933;51.294463;586
9;2117;Hagen Kattwinkel;Hagen;KATT;de:05914:2117;0;;;1;1;de:05914:2117:0:1;7.525421;51.293884;586
9;2117;Hagen Kattwinkel;Hagen;KATT;de:05914:2117;0;;;2;2;de:05914:2117:0:2;7.525502;51.293811;586
9;2118;Hagen Priorei;Hagen;PRIO;de:05914:2118;0;;;1;1;de:05914:2118:0:1;7.520408;51.288559;586
9;2118;Hagen Priorei;Hagen;PRIO;de:05914:2118;0;;;2;2;de:05914:2118:0:2;7.520597;51.288834;586
9;2122;Hagen Kirchplatz;Hagen;KIRC;de:05914:2122;0;;;1;1;de:05914:2122:0:1;7.536452;51.384880;584
9;2123;Hagen Ergster Weg;Hagen;ERWG;de:05914:2123;0;;;1;1;de:05914:2123:0:1;7.538563;51.388619;584
9;2124;Hagen Garenfelder Weg;Hagen;GAWE;de:05914:2124;0;;;1;1;de:05914:2124:0:1;7.536686;51.386063;584
9;2124;Hagen Garenfelder Weg;Hagen;GAWE;de:05914:2124;0;;;2;2;de:05914:2124:0:2;7.536659;51.386007;584
9;2125;Hagen Berchum;Hagen;BERC;de:05914:2125;0;;;1;1;de:05914:2125:0:1;7.538509;51.391484;584
9;2126;Hagen Linnufer;Hagen;LINN;de:05914:2126;1;Linnufer Bergab;de:05914:2126:1;4;1;de:05914:2126:0:A.1;7.533443;51.383748;584
9;2126;Hagen Linnufer;Hagen;LINN;de:05914:2126;2;Ri Halden;de:05914:2126:2;5;2;de:05914:2126:0:A.2;7.533389;51.383265;584
9;2126;Hagen Linnufer;Hagen;LINN;de:05914:2126;3;Ri Hohenlimburg;de:05914:2126:3;6;3;de:05914:2126:0:A.3;7.532338;51.383882;584
9;2127;Hagen Gemarkenweg;Hagen;GEMA;de:05914:2127;1;Ri Halden;de:05914:2127:1;3;1;de:05914:2127:0:A.1;7.530712;51.384858;584
9;2127;Hagen Gemarkenweg;Hagen;GEMA;de:05914:2127;2;Ri Hohenlimburg;de:05914:2127:2;4;2;de:05914:2127:0:A.2;7.529086;51.385485;584
9;2128;Hagen Gosmann;Hagen;GOSM;de:05914:2128;0;;;1;3;de:05914:2128:0:3;7.526975;51.386623;584
9;2128;Hagen Gosmann;Hagen;GOSM;de:05914:2128;0;;;2;5;de:05914:2128:0:5;7.526777;51.386724;584
9;2128;Hagen Gosmann;Hagen;GOSM;de:05914:2128;0;;;3;6;de:05914:2128:0:6;7.527235;51.386472;584
9;2128;Hagen Gosmann;Hagen;GOSM;de:05914:2128;0;;;6;1;de:05914:2128:0:A.1;7.525250;51.387257;584
9;2128;Hagen Gosmann;Hagen;GOSM;de:05914:2128;0;;;7;2;de:05914:2128:0:A.2;7.527110;51.386506;584
9;2129;Hagen Kahlenberg;Hagen;KAHL;de:05914:2129;1;Ri Garenfeld;de:05914:2129:1;1;1;de:05914:2129:0:1;7.524855;51.392218;582
9;2129;Hagen Kahlenberg;Hagen;KAHL;de:05914:2129;2;Ri Halden;de:05914:2129:2;2;2;de:05914:2129:0:2;7.524370;51.391725;582
9;2130;Hagen Steinberg;Hagen;STEI;de:05914:2130;0;;;1;1;de:05914:2130:0:1;7.525528;51.395413;582
9;2130;Hagen Steinberg;Hagen;STEI;de:05914:2130;0;;;2;2;de:05914:2130:0:2;7.525618;51.395267;582
9;2131;Hagen Grüll;Hagen;GRÜL;de:05914:2131;0;;;1;1;de:05914:2131:0:1;7.520363;51.397156;582
9;2131;Hagen Grüll;Hagen;GRÜL;de:05914:2131;0;;;2;2;de:05914:2131:0:2;7.520408;51.397072;582
9;2132;Hagen Zur Feldlage;Hagen;ZUFE;de:05914:2132;0;;;1;1;de:05914:2132:0:1;7.516096;51.399684;582
9;2132;Hagen Zur Feldlage;Hagen;ZUFE;de:05914:2132;0;;;2;2;de:05914:2132:0:2;7.515836;51.399813;582
9;2133;Hagen Garenfeld;Hagen;GARE;de:05914:2133;0;;;1;1;de:05914:2133:0:1;7.514785;51.402021;582
9;2133;Hagen Garenfeld;Hagen;GARE;de:05914:2133;0;;;2;2;de:05914:2133:0:2;7.514883;51.402049;582
9;2134;Hagen Zur Heimke;Hagen;ZUHE;de:05914:2134;1;Ri Garenfeld;de:05914:2134:1;1;1;de:05914:2134:0:1;7.514228;51.409311;582
9;2134;Hagen Zur Heimke;Hagen;ZUHE;de:05914:2134;2;Ri Westhofen;de:05914:2134:2;2;2;de:05914:2134:0:2;7.514138;51.410146;582
9;2135;Hagen Ruhrbrücke;Hagen;RBRÜ;de:05914:2135;1;Ri Westhofen;de:05914:2135:1;1;1;de:05914:2135:0:1;7.512018;51.412001;582
9;2135;Hagen Ruhrbrücke;Hagen;RBRÜ;de:05914:2135;2;Ri Hagen;de:05914:2135:2;2;2;de:05914:2135:0:2;7.512584;51.412118;582
9;2136;Hagen Brauckwiesen;Hagen;BAWI;de:05914:2136;0;;;1;1;de:05914:2136:0:1;7.507643;51.412079;582
9;2136;Hagen Brauckwiesen;Hagen;BAWI;de:05914:2136;0;;;2;2;de:05914:2136:0:2;7.507544;51.412191;582
9;2137;Hagen Lennhof;Hagen;LEHO;de:05914:2137;1;Ri Westhofen;de:05914:2137:1;1;1;de:05914:2137:0:1;7.498453;51.411877;582
9;2137;Hagen Lennhof;Hagen;LEHO;de:05914:2137;2;Ri Hagen;de:05914:2137:2;2;2;de:05914:2137:0:2;7.497546;51.411743;582
9;2138;Hagen Buschmühle;Hagen;BUMÜ;de:05914:2138;0;;;1;1;de:05914:2138:0:1;7.496504;51.407199;582
9;2138;Hagen Buschmühle;Hagen;BUMÜ;de:05914:2138;0;;;2;2;de:05914:2138:0:2;7.496315;51.407456;582
9;2141;Hagen Osthofstr.;Hagen;OSTH;de:05914:2141;0;;;1;1;de:05914:2141:0:1;7.477307;51.394880;582
9;2141;Hagen Osthofstr.;Hagen;OSTH;de:05914:2141;0;;;2;2;de:05914:2141:0:2;7.477172;51.394959;582
9;2142;Hagen Fröbelstr.;Hagen;FRÖB;de:05914:2142;1;Ri Loxbaum;de:05914:2142:1;1;1;de:05914:2142:0:1;7.480505;51.393020;582
9;2142;Hagen Fröbelstr.;Hagen;FRÖB;de:05914:2142;2;Ri Helfe;de:05914:2142:2;2;2;de:05914:2142:0:2;7.480747;51.393227;582
9;2143;Hagen Auf dem Kuhl;Hagen;ADKU;de:05914:2143;1;Ri City;de:05914:2143:1;1;1;de:05914:2143:0:1;7.479750;51.389533;582
9;2143;Hagen Auf dem Kuhl;Hagen;ADKU;de:05914:2143;2;Ri Helfe;de:05914:2143:2;2;2;de:05914:2143:0:2;7.479777;51.389056;582
9;2144;Hagen Gellertweg;Hagen;GELL;de:05914:2144;1;Ri Boelerheide;de:05914:2144:1;1;1;de:05914:2144:0:1;7.474271;51.386696;582
9;2144;Hagen Gellertweg;Hagen;GELL;de:05914:2144;2;Ri  Boele;de:05914:2144:2;2;2;de:05914:2144:0:2;7.473983;51.386528;582
9;2145;Hagen Birkenstr.;Hagen;BIRK;de:05914:2145;0;;;1;1;de:05914:2145:0:1;7.468683;51.385233;582
9;2145;Hagen Birkenstr.;Hagen;BIRK;de:05914:2145;0;;;2;2;de:05914:2145:0:2;7.468638;51.385155;582
9;2146;Hagen Lönsweg;Hagen;LÖNS;de:05914:2146;1;Ri City;de:05914:2146:1;1;1;de:05914:2146:0:1;7.466276;51.384190;582
9;2146;Hagen Lönsweg;Hagen;LÖNS;de:05914:2146;2;Ri Boele;de:05914:2146:2;2;2;de:05914:2146:0:2;7.466446;51.383949;582
9;2147;Hagen Boelerheide;Hagen;BOEL;de:05914:2147;1;Ri City;de:05914:2147:1;1;1;de:05914:2147:0:1;7.466680;51.381062;580
9;2147;Hagen Boelerheide;Hagen;BOEL;de:05914:2147;2;Ri Boele;de:05914:2147:2;2;2;de:05914:2147:0:2;7.466455;51.381998;580
9;2147;Hagen Boelerheide;Hagen;BOEL;de:05914:2147;3;Ri Loxbaum;de:05914:2147:3;3;3;de:05914:2147:0:3;7.466967;51.381555;580
9;2147;Hagen Boelerheide;Hagen;BOEL;de:05914:2147;4;Ri Eck;de:05914:2147:4;4;4;de:05914:2147:0:4;7.466931;51.381819;580
9;2148;Hagen Vereinsstr.;Hagen;VERE;de:05914:2148;0;;;1;1;de:05914:2148:0:1;7.463230;51.382228;580
9;2148;Hagen Vereinsstr.;Hagen;VERE;de:05914:2148;0;;;2;2;de:05914:2148:0:2;7.463248;51.382172;580
9;2149;Hagen Grimmestr.;Hagen;GRIM;de:05914:2149;1;Ri City;de:05914:2149:1;1;1;de:05914:2149:0:1;7.460661;51.381909;580
9;2149;Hagen Grimmestr.;Hagen;GRIM;de:05914:2149;2;Ri Boelerheide;de:05914:2149:2;2;2;de:05914:2149:0:2;7.460688;51.381477;580
9;2150;Hagen Hameckestr.;Hagen;HAME;de:05914:2150;0;;;1;1;de:05914:2150:0:1;7.460490;51.379498;580
9;2150;Hagen Hameckestr.;Hagen;HAME;de:05914:2150;0;;;2;2;de:05914:2150:0:2;7.460598;51.379430;580
9;2151;Hagen Pettenkoferstr.;Hagen;PETT;de:05914:2151;1;Ri Boeler Str.;de:05914:2151:1;1;1;de:05914:2151:0:1;7.466527;51.377670;580
9;2151;Hagen Pettenkoferstr.;Hagen;PETT;de:05914:2151;2;Ri Eckesey;de:05914:2151:2;2;2;de:05914:2151:0:2;7.465683;51.377709;580
9;2152;Hagen Houbenstr.;Hagen;HOUB;de:05914:2152;1;RiCity;de:05914:2152:1;1;1;de:05914:2152:0:1;7.471899;51.374384;580
9;2152;Hagen Houbenstr.;Hagen;HOUB;de:05914:2152;2;RiBoele;de:05914:2152:2;2;2;de:05914:2152:0:2;7.472079;51.373963;580
9;2153;Hagen Sportpark Ischeland;Hagen;SPOI;de:05914:2153;0;;;1;1;de:05914:2153:0:1;7.473821;51.370262;580
9;2153;Hagen Sportpark Ischeland;Hagen;SPOI;de:05914:2153;0;;;2;2;de:05914:2153:0:2;7.473893;51.370290;580
9;2154;Hagen Höing;Hagen;HÖIN;de:05914:2154;0;;;1;1;de:05914:2154:0:1;7.475897;51.366897;580
9;2154;Hagen Höing;Hagen;HÖIN;de:05914:2154;0;;;2;2;de:05914:2154:0:2;7.475933;51.366953;580
9;2155;Hagen Hildegardis-Schule;Hagen;HILD;de:05914:2155;1;Ri City;de:05914:2155:1;1;1;de:05914:2155:0:1;7.475663;51.363431;580
9;2155;Hagen Hildegardis-Schule;Hagen;HILD;de:05914:2155;2;Ri Höing;de:05914:2155:2;2;2;de:05914:2155:0:2;7.476031;51.363448;580
9;2157;Hagen Allg. Krankenhaus;Hagen;AKH;de:05914:2157;0;;;1;1;de:05914:2157:0:1;7.464021;51.355017;580
9;2157;Hagen Allg. Krankenhaus;Hagen;AKH;de:05914:2157;0;;;2;2;de:05914:2157:0:2;7.464560;51.355174;580
9;2158;Hagen Bachstr.;Hagen;BACH;de:05914:2158;0;;;1;1;de:05914:2158:0:1;7.460257;51.353222;580
9;2158;Hagen Bachstr.;Hagen;BACH;de:05914:2158;0;;;2;2;de:05914:2158:0:2;7.460023;51.353053;580
9;2159;Hagen Gutenbergstr.;Hagen;GUTE;de:05914:2159;0;;;1;1;de:05914:2159:0:1;7.456376;51.350495;580
9;2159;Hagen Gutenbergstr.;Hagen;GUTE;de:05914:2159;0;;;2;2;de:05914:2159:0:2;7.457050;51.350686;580
9;2160;Hagen Eugen-Richter-Str.;Hagen;EUGE;de:05914:2160;1;Richtung Stadtmitte;de:05914:2160:1;1;2;de:05914:2160:0:2;7.453771;51.349575;580
9;2160;Hagen Eugen-Richter-Str.;Hagen;EUGE;de:05914:2160;2;Richtung Haspe;de:05914:2160:2;2;1;de:05914:2160:0:1;7.452424;51.349373;580
9;2161;Hagen Rehstr.;Hagen;REHS;de:05914:2161;0;;;1;1;de:05914:2161:0:1;7.450088;51.349811;580
9;2161;Hagen Rehstr.;Hagen;REHS;de:05914:2161;0;;;2;2;de:05914:2161:0:2;7.450492;51.349844;580
9;2162;Hagen Hördenstr.;Hagen;HÖRD;de:05914:2162;1;Hestert;de:05914:2162:1;1;1;de:05914:2162:0:1;7.438931;51.346624;587
9;2162;Hagen Hördenstr.;Hagen;HÖRD;de:05914:2162;1;Hestert;de:05914:2162:1;2;2;de:05914:2162:0:2;7.439057;51.346612;587
9;2162;Hagen Hördenstr.;Hagen;HÖRD;de:05914:2162;1;Hestert;de:05914:2162:1;3;4;de:05914:2162:0:4;7.439030;51.346798;587
9;2162;Hagen Hördenstr.;Hagen;HÖRD;de:05914:2162;1;Hestert;de:05914:2162:1;4;5;de:05914:2162:0:5;7.439030;51.346798;587
9;2162;Hagen Hördenstr.;Hagen;HÖRD;de:05914:2162;1;Hestert;de:05914:2162:1;5;6;de:05914:2162:0:6;7.439030;51.346798;587
9;2162;Hagen Hördenstr.;Hagen;HÖRD;de:05914:2162;2;Schleife;de:05914:2162:2;6;3;de:05914:2162:0:3;7.439102;51.346960;587
9;2163;Hagen Sachsenstr.;Hagen;SACH;de:05914:2163;0;;;1;1;de:05914:2163:0:1;7.439003;51.344834;587
9;2163;Hagen Sachsenstr.;Hagen;SACH;de:05914:2163;0;;;2;2;de:05914:2163:0:2;7.439650;51.344834;587
9;2163;Hagen Sachsenstr.;Hagen;SACH;de:05914:2163;0;;;3;3;de:05914:2163:0:3;7.439326;51.344851;587
9;2163;Hagen Sachsenstr.;Hagen;SACH;de:05914:2163;0;;;4;4;de:05914:2163:0:4;7.439326;51.344851;587
9;2164;Hagen Hestertstr.;Hagen;HESR;de:05914:2164;0;;;1;1;de:05914:2164:0:1;7.434826;51.343633;587
9;2164;Hagen Hestertstr.;Hagen;HESR;de:05914:2164;0;;;2;2;de:05914:2164:0:2;7.434502;51.343829;587
9;2165;Hagen Schützenstr.;Hagen;SCHÜ;de:05914:2165;0;;;1;1;de:05914:2165:0:1;7.429732;51.344907;587
9;2165;Hagen Schützenstr.;Hagen;SCHÜ;de:05914:2165;0;;;2;2;de:05914:2165:0:2;7.429723;51.344823;587
9;2166;Hagen Ev. Krankenhaus;Hagen;EKRA;de:05914:2166;0;;;1;1;de:05914:2166:0:1;7.414057;51.349244;587
9;2166;Hagen Ev. Krankenhaus;Hagen;EKRA;de:05914:2166;0;;;2;2;de:05914:2166:0:2;7.414084;51.349362;587
9;2168;Hagen Dammstr.;Hagen;DAMM;de:05914:2168;1;Voerder Str.;de:05914:2168:1;1;1;de:05914:2168:0:1;7.426858;51.343352;587
9;2168;Hagen Dammstr.;Hagen;DAMM;de:05914:2168;1;Voerder Str.;de:05914:2168:1;2;2;de:05914:2168:0:2;7.426947;51.343420;587
9;2168;Hagen Dammstr.;Hagen;DAMM;de:05914:2168;2;Dammstr.;de:05914:2168:2;3;3;de:05914:2168:0:3;7.424800;51.343773;587
9;2168;Hagen Dammstr.;Hagen;DAMM;de:05914:2168;2;Dammstr.;de:05914:2168:2;4;4;de:05914:2168:0:4;7.425016;51.343790;587
9;2172;Hagen Bauhaus;Hagen;BAUH;de:05914:2172;1;RiCity;de:05914:2172:1;1;1;de:05914:2172:0:1;7.455622;51.375107;580
9;2172;Hagen Bauhaus;Hagen;BAUH;de:05914:2172;2;RiEck;de:05914:2172:2;2;2;de:05914:2172:0:2;7.456241;51.374423;580
9;2173;Hagen Wasserturm;Hagen;WASS;de:05914:2173;1;Ri City;de:05914:2173:1;1;1;de:05914:2173:0:1;7.495507;51.351612;580
9;2173;Hagen Wasserturm;Hagen;WASS;de:05914:2173;2;Ri Emsterfeld;de:05914:2173:2;2;2;de:05914:2173:0:2;7.495147;51.351690;580
9;2173;Hagen Wasserturm;Hagen;WASS;de:05914:2173;3;Felsental;de:05914:2173:3;3;3;de:05914:2173:3:3;7.495264;51.351555;580
9;2173;Hagen Wasserturm;Hagen;WASS;de:05914:2173;3;Felsental;de:05914:2173:3;4;4;de:05914:2173:3:4;7.495408;51.351365;580
9;2175;Hagen Willdestr.;Hagen;WILL;de:05914:2175;0;;;1;1;de:05914:2175:0:1;7.496953;51.355213;580
9;2176;Hagen Walddorfstr.;Hagen;WAST;de:05914:2176;0;;;1;1;de:05914:2176:0:1;7.494752;51.355449;580
9;2177;Hagen Wasserloses Tal;Hagen;WTAL;de:05914:2177;0;;;1;1;de:05914:2177:0:1;7.491051;51.354809;580
9;2177;Hagen Wasserloses Tal;Hagen;WTAL;de:05914:2177;0;;;2;2;de:05914:2177:0:2;7.491024;51.354899;580
9;2178;Hagen Stadthalle;Hagen;HALL;de:05914:2178;0;;;1;1;de:05914:2178:0:1;7.484574;51.353839;580
9;2178;Hagen Stadthalle;Hagen;HALL;de:05914:2178;0;;;2;2;de:05914:2178:0:2;7.484538;51.353895;580
9;2178;Hagen Stadthalle;Hagen;HALL;de:05914:2178;0;;;3;3;de:05914:2178:0:3;7.486218;51.354271;580
9;2179;Hagen Heinrichstr.;Hagen;HEIN;de:05914:2179;0;;;1;1;de:05914:2179:0:1;7.450097;51.359286;580
9;2179;Hagen Heinrichstr.;Hagen;HEIN;de:05914:2179;0;;;2;2;de:05914:2179:0:2;7.450259;51.359404;580
9;2180;Hagen Albrechtstr.;Hagen;ABRE;de:05914:2180;1;RiCity;de:05914:2180:1;1;1;de:05914:2180:0:1;7.447393;51.358848;580
9;2180;Hagen Albrechtstr.;Hagen;ABRE;de:05914:2180;1;RiCity;de:05914:2180:1;2;3;de:05914:2180:0:3;7.447627;51.358697;580
9;2180;Hagen Albrechtstr.;Hagen;ABRE;de:05914:2180;1;RiCity;de:05914:2180:1;3;4;de:05914:2180:0:4;7.447627;51.358697;580
9;2180;Hagen Albrechtstr.;Hagen;ABRE;de:05914:2180;2;RiKuKa;de:05914:2180:2;4;2;de:05914:2180:0:2;7.448246;51.358904;580
9;2181;Hagen Georgstr.;Hagen;GEOR;de:05914:2181;1;RiCity;de:05914:2181:1;1;1;de:05914:2181:0:1;7.446432;51.360425;580
9;2181;Hagen Georgstr.;Hagen;GEOR;de:05914:2181;2;517KuKa;de:05914:2181:2;2;2;de:05914:2181:0:2;7.447052;51.360671;580
9;2181;Hagen Georgstr.;Hagen;GEOR;de:05914:2181;3;Albrechtstr;de:05914:2181:3;3;3;de:05914:2181:0:3;7.446746;51.360189;580
9;2181;Hagen Georgstr.;Hagen;GEOR;de:05914:2181;3;Albrechtstr;de:05914:2181:3;4;4;de:05914:2181:0:4;7.446782;51.360380;580
9;2182;Hagen Rudolfstr.;Hagen;RUDO;de:05914:2182;0;;;1;1;de:05914:2182:0:1;7.445030;51.359768;580
9;2182;Hagen Rudolfstr.;Hagen;RUDO;de:05914:2182;0;;;2;2;de:05914:2182:0:2;7.444977;51.359819;580
9;2183;Hagen Kuhlerkamp;Hagen;KUHL;de:05914:2183;0;;;1;1;de:05914:2183:0:1;7.441913;51.362517;580
9;2183;Hagen Kuhlerkamp;Hagen;KUHL;de:05914:2183;0;;;2;2;de:05914:2183:0:2;7.441976;51.362455;580
9;2183;Hagen Kuhlerkamp;Hagen;KUHL;de:05914:2183;0;;;3;3;de:05914:2183:0:3;7.441958;51.362489;580
9;2185;Hagen Fley Mitte;Hagen;FLMI;de:05914:2185;1;RiCity;de:05914:2185:1;1;1;de:05914:2185:0:1;7.499235;51.389802;582
9;2185;Hagen Fley Mitte;Hagen;FLMI;de:05914:2185;2;RiKabel;de:05914:2185:2;2;2;de:05914:2185:0:2;7.500708;51.389690;582
9;2186;Hagen Heigarenweg;Hagen;HEIG;de:05914:2186;0;;;1;1;de:05914:2186:0:1;7.497321;51.387285;582
9;2186;Hagen Heigarenweg;Hagen;HEIG;de:05914:2186;0;;;2;2;de:05914:2186:0:2;7.497384;51.387240;582
9;2186;Hagen Heigarenweg;Hagen;HEIG;de:05914:2186;0;;;3;3;de:05914:2186:0:3;7.497366;51.387274;582
9;2186;Hagen Heigarenweg;Hagen;HEIG;de:05914:2186;0;;;4;4;de:05914:2186:0:4;7.497366;51.387274;582
9;2187;Hagen Weidekampstr.;Hagen;WKAM;de:05914:2187;0;;;1;1;de:05914:2187:0:1;7.490413;51.386433;582
9;2187;Hagen Weidekampstr.;Hagen;WKAM;de:05914:2187;0;;;2;2;de:05914:2187:0:2;7.490234;51.386438;582
9;2188;Hagen Buschstr.;Hagen;BUST;de:05914:2188;0;;;1;1;de:05914:2188:0:1;7.488958;51.391854;582
9;2188;Hagen Buschstr.;Hagen;BUST;de:05914:2188;0;;;2;2;de:05914:2188:0:2;7.489201;51.391809;582
9;2189;Hagen Stegerwaldstr.;Hagen;STEG;de:05914:2189;0;;;1;1;de:05914:2189:0:1;7.485338;51.393120;582
9;2189;Hagen Stegerwaldstr.;Hagen;STEG;de:05914:2189;0;;;2;2;de:05914:2189:0:2;7.485131;51.393148;582
9;2190;Hagen Cuno-Berufskolleg;Hagen;CUBE;de:05914:2190;0;;;1;1;de:05914:2190:0:1;7.469402;51.357440;580
9;2190;Hagen Cuno-Berufskolleg;Hagen;CUBE;de:05914:2190;0;;;2;2;de:05914:2190:0:2;7.469447;51.357508;580
9;2190;Hagen Cuno-Berufskolleg;Hagen;CUBE;de:05914:2190;0;;;3;3;de:05914:2190:0:3;7.469447;51.357468;580
9;2192;Hagen Buschmühlenstr.;Hagen;BuMuh;de:05914:2192;0;;;2;1;de:05914:2192:0:1;7.493539;51.404722;582
9;2192;Hagen Buschmühlenstr.;Hagen;BuMuh;de:05914:2192;0;;;3;2;de:05914:2192:0:2;7.493566;51.404615;582
9;2193;Hagen Intzestr.;Hagen;INTZ;de:05914:2193;0;;;1;1;de:05914:2193:0:1;7.420183;51.342191;587
9;2193;Hagen Intzestr.;Hagen;INTZ;de:05914:2193;0;;;2;2;de:05914:2193:0:2;7.420480;51.342236;587
9;2194;Hagen Hasper Torhaus;Hagen;HAKR;de:05914:2194;1;Hinten;de:05914:2194:1;1;1;de:05914:2194:0:1;7.422887;51.347409;587
9;2194;Hagen Hasper Torhaus;Hagen;HAKR;de:05914:2194;1;Hinten;de:05914:2194:1;2;3;de:05914:2194:0:3;7.423022;51.347353;587
9;2194;Hagen Hasper Torhaus;Hagen;HAKR;de:05914:2194;2;Vorne;de:05914:2194:2;3;2;de:05914:2194:0:2;7.423363;51.347241;587
9;2195;Hagen Dickenbruchstr.;Hagen;DICK;de:05914:2195;1;RiCity;de:05914:2195:1;1;2;de:05914:2195:0:2;7.410230;51.338510;587
9;2195;Hagen Dickenbruchstr.;Hagen;DICK;de:05914:2195;2;RiWester;de:05914:2195:2;2;1;de:05914:2195:0:1;7.409322;51.338291;587
9;2196;Hagen Stolzestr.;Hagen;STOL;de:05914:2196;0;;;1;1;de:05914:2196:0:1;7.406888;51.337387;587
9;2196;Hagen Stolzestr.;Hagen;STOL;de:05914:2196;0;;;2;2;de:05914:2196:0:2;7.407131;51.337438;587
9;2197;Hagen Gabelsberger Str.;Hagen;GABE;de:05914:2197;0;;;1;1;de:05914:2197:0:1;7.405370;51.337584;587
9;2197;Hagen Gabelsberger Str.;Hagen;GABE;de:05914:2197;0;;;2;2;de:05914:2197:0:2;7.405460;51.337612;587
9;2198;Hagen Kipperstr.;Hagen;KIPP;de:05914:2198;0;;;1;1;de:05914:2198:0:1;7.403798;51.336343;587
9;2198;Hagen Kipperstr.;Hagen;KIPP;de:05914:2198;0;;;2;2;de:05914:2198:0:2;7.403834;51.336349;587
9;2199;Hagen Bathey;Hagen;BATH;de:05914:2199;0;;;1;1;de:05914:2199:0:1;7.476597;51.411099;582
9;2199;Hagen Bathey;Hagen;BATH;de:05914:2199;0;;;2;2;de:05914:2199:0:2;7.477073;51.411082;582
9;2200;Hagen Bonsmannstr.;Hagen;BONS;de:05914:2200;0;;;1;1;de:05914:2200:0:1;7.480002;51.410650;582
9;2201;Hagen Batheyer Str.;Hagen;BAST;de:05914:2201;1;Auf dem Graskamp;de:05914:2201:1;1;1;de:05914:2201:0:1;7.475519;51.409642;582
9;2201;Hagen Batheyer Str.;Hagen;BAST;de:05914:2201;1;Auf dem Graskamp;de:05914:2201:1;2;2;de:05914:2201:0:2;7.475825;51.409182;582
9;2201;Hagen Batheyer Str.;Hagen;BAST;de:05914:2201;2;Kabeler;de:05914:2201:2;3;3;de:05914:2201:0:3;7.476427;51.408756;582
9;2202;Hagen Kabeler Str.;Hagen;KAST;de:05914:2202;1;Ri Dortmund;de:05914:2202:1;1;1;de:05914:2202:0:1;7.474118;51.410051;582
9;2202;Hagen Kabeler Str.;Hagen;KAST;de:05914:2202;2;Ri Hagen;de:05914:2202:2;2;2;de:05914:2202:0:2;7.473866;51.409490;582
9;2204;Hagen Schieferstr.;Hagen;SHIF;de:05914:2204;1;Ri Helfe;de:05914:2204:1;1;1;de:05914:2204:0:1;7.482050;51.400519;582
9;2204;Hagen Schieferstr.;Hagen;SHIF;de:05914:2204;2;Ri Kabel;de:05914:2204:2;2;2;de:05914:2204:0:2;7.482796;51.399633;582
9;2205;Hagen Pieperstr.;Hagen;PIEP;de:05914:2205;0;;;1;1;de:05914:2205:0:1;7.481700;51.397178;582
9;2205;Hagen Pieperstr.;Hagen;PIEP;de:05914:2205;0;;;2;2;de:05914:2205:0:2;7.481933;51.397302;582
9;2205;Hagen Pieperstr.;Hagen;PIEP;de:05914:2205;0;;;3;3;de:05914:2205:0:3;7.482562;51.397504;582
9;2206;Hagen Helfe Mitte;Hagen;HELM;de:05914:2206;1;Ri Fley;de:05914:2206:1;1;1;de:05914:2206:0:1;7.482032;51.393804;582
9;2206;Hagen Helfe Mitte;Hagen;HELM;de:05914:2206;2;Ri Kabel;de:05914:2206:2;2;2;de:05914:2206:0:2;7.481610;51.394443;582
9;2206;Hagen Helfe Mitte;Hagen;HELM;de:05914:2206;3;Ri Boele;de:05914:2206:3;3;3;de:05914:2206:0:3;7.480424;51.394393;582
9;2207;Hagen SeniorenzentrumBuschstr.;Hagen;SEBU;de:05914:2207;0;;;1;1;de:05914:2207:0:1;7.486892;51.389269;582
9;2207;Hagen SeniorenzentrumBuschstr.;Hagen;SEBU;de:05914:2207;0;;;2;2;de:05914:2207:0:2;7.486748;51.389113;582
9;2208;Hagen Baurothstr.;Hagen;BAUR;de:05914:2208;0;;;1;1;de:05914:2208:0:1;7.482832;51.387296;582
9;2208;Hagen Baurothstr.;Hagen;BAUR;de:05914:2208;0;;;2;2;de:05914:2208:0:2;7.482598;51.387150;582
9;2209;Hagen Gewerbepark Kückelhausen;Hagen;GEKÜ;de:05914:2209;1;Richtung Stadtmitte;de:05914:2209:1;1;2;de:05914:2209:0:2;7.442318;51.348621;580
9;2209;Hagen Gewerbepark Kückelhausen;Hagen;GEKÜ;de:05914:2209;2;Haspe von Buschey;de:05914:2209:2;2;3;de:05914:2209:0:3;7.443063;51.348705;580
9;2209;Hagen Gewerbepark Kückelhausen;Hagen;GEKÜ;de:05914:2209;3;Haspe von Lange Str.;de:05914:2209:3;3;1;de:05914:2209:0:1;7.442955;51.349036;580
9;2210;Hagen Hoheleye;Hagen;HOHE;de:05914:2210;1;RiCity;de:05914:2210:1;1;1;de:05914:2210:0:1;7.487134;51.378438;580
9;2210;Hagen Hoheleye;Hagen;HOHE;de:05914:2210;1;RiCity;de:05914:2210:1;2;3;de:05914:2210:0:3;7.487027;51.378090;580
9;2210;Hagen Hoheleye;Hagen;HOHE;de:05914:2210;2;RiLoxbaum;de:05914:2210:2;3;2;de:05914:2210:0:2;7.486982;51.377748;580
9;2211;Hagen Steubenstr.;Hagen;STEU;de:05914:2211;1;RiCity;de:05914:2211:1;1;1;de:05914:2211:0:1;7.485625;51.373644;580
9;2211;Hagen Steubenstr.;Hagen;STEU;de:05914:2211;2;RiHohe;de:05914:2211:2;2;2;de:05914:2211:0:2;7.485850;51.373941;580
9;2212;Hagen Fahrenbecke;Hagen;FAHR;de:05914:2212;0;;;1;1;de:05914:2212:0:1;7.484520;51.371709;580
9;2212;Hagen Fahrenbecke;Hagen;FAHR;de:05914:2212;0;;;2;2;de:05914:2212:0:2;7.484673;51.371776;580
9;2213;Hagen Goebenstr./Wohnungsv HA.;Hagen;GOEB;de:05914:2213;1;RiCity;de:05914:2213:1;1;1;de:05914:2213:0:1;7.482706;51.369427;580
9;2213;Hagen Goebenstr./Wohnungsv HA.;Hagen;GOEB;de:05914:2213;2;RiHoheleye;de:05914:2213:2;2;2;de:05914:2213:0:2;7.483424;51.370144;580
9;2214;Hagen Aschenbergstr.;Hagen;ASCH;de:05914:2214;1;RiCity;de:05914:2214:1;1;1;de:05914:2214:0:1;7.479616;51.366106;580
9;2214;Hagen Aschenbergstr.;Hagen;ASCH;de:05914:2214;2;RiHoheleye;de:05914:2214:2;2;2;de:05914:2214:0:2;7.480909;51.367178;580
9;2215;Hagen Ruhrstr.;Hagen;RUHR;de:05914:2215;0;;;1;1;de:05914:2215:0:1;7.476768;51.362528;580
9;2216;Hagen Feuerwache;Hagen;FEUE;de:05914:2216;0;;;1;1;de:05914:2216:0:1;7.461892;51.356806;580
9;2216;Hagen Feuerwache;Hagen;FEUE;de:05914:2216;0;;;2;2;de:05914:2216:0:2;7.462027;51.356790;580
9;2217;Hagen Wilhelmsplatz;Hagen;WILH;de:05914:2217;0;;;1;1;de:05914:2217:0:1;7.459637;51.355017;580
9;2217;Hagen Wilhelmsplatz;Hagen;WILH;de:05914:2217;0;;;2;2;de:05914:2217:0:2;7.459853;51.355062;580
9;2218;Hagen Pelmkestr.;Hagen;PELM;de:05914:2218;0;;;1;1;de:05914:2218:0:1;7.456825;51.353502;580
9;2218;Hagen Pelmkestr.;Hagen;PELM;de:05914:2218;0;;;2;2;de:05914:2218:0:2;7.456691;51.353519;580
9;2219;Hagen Franklinstr.;Hagen;FRAN;de:05914:2219;0;;;1;1;de:05914:2219:0:1;7.453888;51.350927;580
9;2219;Hagen Franklinstr.;Hagen;FRAN;de:05914:2219;0;;;2;2;de:05914:2219:0:2;7.454463;51.351123;580
9;2221;Hagen Elsey Ehrenmal;Hagen;ELEH;de:05914:2221;0;;;1;1;de:05914:2221:0:1;7.563967;51.357867;584
9;2221;Hagen Elsey Ehrenmal;Hagen;ELEH;de:05914:2221;0;;;2;2;de:05914:2221:0:2;7.563806;51.358102;584
9;2222;Hagen Elsey Kirche;Hagen;ELKI;de:05914:2222;0;;;1;1;de:05914:2222:0:1;7.563330;51.359774;584
9;2222;Hagen Elsey Kirche;Hagen;ELKI;de:05914:2222;0;;;2;2;de:05914:2222:0:2;7.563384;51.359886;584
9;2223;Hagen Henkhauser Str.;Hagen;HAUS;de:05914:2223;0;;;1;1;de:05914:2223:0:1;7.560284;51.360974;584
9;2223;Hagen Henkhauser Str.;Hagen;HAUS;de:05914:2223;0;;;2;2;de:05914:2223:0:2;7.560123;51.361120;584
9;2224;Hagen Gotenweg;Hagen;GOTE;de:05914:2224;0;;;1;1;de:05914:2224:0:1;7.560446;51.363605;584
9;2224;Hagen Gotenweg;Hagen;GOTE;de:05914:2224;0;;;2;2;de:05914:2224:0:2;7.560311;51.363639;584
9;2228;Hagen Wannebachstr.;Hagen;WANN;de:05914:2228;1;Ri Hohenlimburg;de:05914:2228:1;1;1;de:05914:2228:0:1;7.536398;51.381449;584
9;2228;Hagen Wannebachstr.;Hagen;WANN;de:05914:2228;2;Ri Halden;de:05914:2228:2;2;2;de:05914:2228:0:2;7.537422;51.381174;584
9;2229;Hagen Industriestr.;Hagen;INDU;de:05914:2229;1;Industriestr.;de:05914:2229:1;7;3;de:05914:2229:0:A.3;7.520974;51.384207;584
9;2229;Hagen Industriestr.;Hagen;INDU;de:05914:2229;1;Industriestr.;de:05914:2229:1;8;4;de:05914:2229:0:A.4;7.520740;51.383921;584
9;2229;Hagen Industriestr.;Hagen;INDU;de:05914:2229;2;RiBuschmühl;de:05914:2229:2;9;5;de:05914:2229:0:A.5;7.520911;51.385648;584
9;2229;Hagen Industriestr.;Hagen;INDU;de:05914:2229;2;RiBuschmühl;de:05914:2229:2;10;6;de:05914:2229:0:A.6;7.520399;51.385984;584
9;2229;Hagen Industriestr.;Hagen;INDU;de:05914:2229;3;Dolomit;de:05914:2229:3;11;1;de:05914:2229:0:A.1;7.522304;51.383876;584
9;2229;Hagen Industriestr.;Hagen;INDU;de:05914:2229;3;Dolomit;de:05914:2229:3;12;2;de:05914:2229:0:A.2;7.522124;51.383871;584
9;2230;Hagen Dolomitstr.;Hagen;DOLO;de:05914:2230;0;;;1;1;de:05914:2230:0:1;7.524990;51.377115;584
9;2230;Hagen Dolomitstr.;Hagen;DOLO;de:05914:2230;0;;;2;2;de:05914:2230:0:2;7.524981;51.377199;584
9;2232;Hagen Sauerlandstr.;Hagen;SAUE;de:05914:2232;1;Sauerland;de:05914:2232:1;1;3;de:05914:2232:0:3;7.516456;51.377888;584
9;2232;Hagen Sauerlandstr.;Hagen;SAUE;de:05914:2232;1;Sauerland;de:05914:2232:1;2;4;de:05914:2232:0:4;7.516285;51.378040;584
9;2232;Hagen Sauerlandstr.;Hagen;SAUE;de:05914:2232;1;Sauerland;de:05914:2232:1;3;5;de:05914:2232:0:5;7.516851;51.377844;584
9;2232;Hagen Sauerlandstr.;Hagen;SAUE;de:05914:2232;2;Berchumer;de:05914:2232:2;4;1;de:05914:2232:0:1;7.517201;51.377933;584
9;2232;Hagen Sauerlandstr.;Hagen;SAUE;de:05914:2232;2;Berchumer;de:05914:2232:2;5;2;de:05914:2232:0:2;7.517219;51.378034;584
9;2233;Hagen Dümpelstr.;Hagen;DÜMP;de:05914:2233;0;;;1;1;de:05914:2233:0:1;7.514318;51.375960;584
9;2233;Hagen Dümpelstr.;Hagen;DÜMP;de:05914:2233;0;;;2;2;de:05914:2233:0:2;7.514048;51.375932;584
9;2233;Hagen Dümpelstr.;Hagen;DÜMP;de:05914:2233;0;;;3;3;de:05914:2233:0:3;7.514183;51.375943;584
9;2234;Hagen Spessartstr.;Hagen;SPES;de:05914:2234;0;;;1;1;de:05914:2234:0:1;7.508496;51.372875;584
9;2234;Hagen Spessartstr.;Hagen;SPES;de:05914:2234;0;;;2;2;de:05914:2234:0:2;7.508308;51.372859;584
9;2234;Hagen Spessartstr.;Hagen;SPES;de:05914:2234;0;;;3;3;de:05914:2234:0:3;7.508577;51.372887;584
9;2234;Hagen Spessartstr.;Hagen;SPES;de:05914:2234;0;;;4;4;de:05914:2234:0:4;7.508667;51.372887;584
9;2235;Hagen Sonderburgstr.;Hagen;SOND;de:05914:2235;0;;;1;1;de:05914:2235:0:1;7.502298;51.370133;584
9;2235;Hagen Sonderburgstr.;Hagen;SOND;de:05914:2235;0;;;2;2;de:05914:2235:0:2;7.501741;51.370049;584
9;2236;Hagen Rohrstr.;Hagen;ROHR;de:05914:2236;1;Industrie;de:05914:2236:1;1;1;de:05914:2236:0:1;7.513958;51.380608;584
9;2236;Hagen Rohrstr.;Hagen;ROHR;de:05914:2236;1;Industrie;de:05914:2236:1;2;2;de:05914:2236:0:2;7.513581;51.380563;584
9;2236;Hagen Rohrstr.;Hagen;ROHR;de:05914:2236;2;Bandstahlstr.;de:05914:2236:2;3;3;de:05914:2236:0:3;7.513994;51.380944;584
9;2236;Hagen Rohrstr.;Hagen;ROHR;de:05914:2236;2;Bandstahlstr.;de:05914:2236:2;4;4;de:05914:2236:0:4;7.513608;51.381157;584
9;2238;Hagen Röhrenspring;Hagen;RÖHR;de:05914:2238;0;;;1;1;de:05914:2238:0:1;7.504229;51.383848;584
9;2238;Hagen Röhrenspring;Hagen;RÖHR;de:05914:2238;0;;;2;2;de:05914:2238:0:2;7.504301;51.383876;584
9;2239;Hagen Federnstr.;Hagen;FEDE;de:05914:2239;1;Federnstr.;de:05914:2239:1;1;1;de:05914:2239:0:1;7.502684;51.389286;584
9;2239;Hagen Federnstr.;Hagen;FEDE;de:05914:2239;1;Federnstr.;de:05914:2239:1;2;2;de:05914:2239:0:2;7.502801;51.389236;584
9;2239;Hagen Federnstr.;Hagen;FEDE;de:05914:2239;2;Feldm;de:05914:2239:2;3;3;de:05914:2239:0:3;7.502136;51.389326;584
9;2240;Hagen Oeger Str.;Hagen;OEGER;de:05914:2240;1;Ri. Hohenlimburg Bf.;de:05914:2240:1;1;1;de:05914:2240:0:1;7.591555;51.345675;584
9;2240;Hagen Oeger Str.;Hagen;OEGER;de:05914:2240;2;Ri Wiblingwerde;de:05914:2240:2;2;2;de:05914:2240:0:2;7.591321;51.345692;584
9;2241;Hagen Haus Busch;Hagen;HABU;de:05914:2241;1;Ri Halden;de:05914:2241:1;1;1;de:05914:2241:0:1;7.492758;51.395267;582
9;2241;Hagen Haus Busch;Hagen;HABU;de:05914:2241;2;Ri Kabel;de:05914:2241:2;2;2;de:05914:2241:0:2;7.492390;51.395581;582
9;2242;Hagen Kampmannshof;Hagen;KAMP;de:05914:2242;0;;;1;1;de:05914:2242:0:1;7.490440;51.397857;582
9;2242;Hagen Kampmannshof;Hagen;KAMP;de:05914:2242;0;;;2;2;de:05914:2242:0:2;7.490539;51.397890;582
9;2243;Hagen Wortherbruchstr.;Hagen;WORT;de:05914:2243;0;;;3;1;de:05914:2243:0:A.1;7.428600;51.385048;588
9;2243;Hagen Wortherbruchstr.;Hagen;WORT;de:05914:2243;0;;;4;2;de:05914:2243:0:A.3;7.428501;51.384986;588
9;2244;Hagen J-G-Fichte-Str.;Hagen;JGFS;de:05914:2244;2;Vorhalle Bf;de:05914:2244:2;3;3;de:05914:2244:0:3;7.427558;51.386915;588
9;2244;Hagen J-G-Fichte-Str.;Hagen;JGFS;de:05914:2244;2;Vorhalle Bf;de:05914:2244:2;4;4;de:05914:2244:0:4;7.427603;51.386853;588
9;2244;Hagen J-G-Fichte-Str.;Hagen;JGFS;de:05914:2244;1;Brockhausen;de:05914:2244:1;5;1;de:05914:2244:0:A.1;7.427046;51.386893;588
9;2244;Hagen J-G-Fichte-Str.;Hagen;JGFS;de:05914:2244;1;Brockhausen;de:05914:2244:1;6;2;de:05914:2244:0:A.2;7.426822;51.387167;588
9;2245;Hagen Brockhausen;Hagen;BROC;de:05914:2245;1;Steig;de:05914:2245:1;1;1;de:05914:2245:0:1;7.423471;51.387492;588
9;2245;Hagen Brockhausen;Hagen;BROC;de:05914:2245;1;Steig;de:05914:2245:1;2;2;de:05914:2245:0:2;7.423462;51.387453;588
9;2245;Hagen Brockhausen;Hagen;BROC;de:05914:2245;2;Schleife;de:05914:2245:2;3;3;de:05914:2245:0:3;7.422357;51.387728;588
9;2252;Herdecke Hengsteyseestr.;Herdecke;HSEE;de:05954:2252;1;RiHagen;de:05954:2252:1;1;1;de:05954:2252:0:1;7.432256;51.397145;474,588
9;2252;Herdecke Hengsteyseestr.;Herdecke;HSEE;de:05954:2252;2;RiHerdMitte;de:05954:2252:2;2;2;de:05954:2252:0:2;7.432113;51.397246;474,588
9;2253;Herdecke Mitte;Herdecke;HEMI;de:05954:2253;1;RiHagen;de:05954:2253:1;1;1;de:05954:2253:0:1;7.430415;51.398518;474
9;2253;Herdecke Mitte;Herdecke;HEMI;de:05954:2253;1;RiHagen;de:05954:2253:1;2;3;de:05954:2253:0:3;7.430469;51.398602;474
9;2253;Herdecke Mitte;Herdecke;HEMI;de:05954:2253;2;RiHerdBf;de:05954:2253:2;3;2;de:05954:2253:0:2;7.430505;51.398692;474
9;2254;Herdecke Kirche;Herdecke;HEKI;de:05954:2254;1;Linie519;de:05954:2254:1;1;1;de:05954:2254:0:1;7.428717;51.399678;474
9;2254;Herdecke Kirche;Herdecke;HEKI;de:05954:2254;1;Linie519;de:05954:2254:1;2;2;de:05954:2254:0:2;7.428483;51.399768;474
9;2254;Herdecke Kirche;Herdecke;HEKI;de:05954:2254;2;Linie553-555;de:05954:2254:2;3;3;de:05954:2254:0:3;7.427477;51.400098;474
9;2254;Herdecke Kirche;Herdecke;HEKI;de:05954:2254;2;Linie553-555;de:05954:2254:2;4;4;de:05954:2254:0:4;7.427540;51.400160;474
9;2258;Hagen Kurfürstenstr. Diabetolo;Hagen;KURF;de:05914:2258;0;;;1;1;de:05914:2258:0:1;7.491159;51.347527;580
9;2258;Hagen Kurfürstenstr. Diabetolo;Hagen;KURF;de:05914:2258;0;;;2;2;de:05914:2258:0:2;7.490602;51.347583;580
9;2259;Hagen Hünenpforte;Hagen;HÜNE;de:05914:2259;0;;;1;1;de:05914:2259:0:1;7.553385;51.357710;584
9;2259;Hagen Hünenpforte;Hagen;HÜNE;de:05914:2259;0;;;2;2;de:05914:2259:0:2;7.553484;51.357760;584
9;2260;Hagen Holthausen;Hagen;HOLT;de:05914:2260;1;Ri Hohenlimburg;de:05914:2260:1;1;1;de:05914:2260:0:1;7.546863;51.355931;584
9;2260;Hagen Holthausen;Hagen;HOLT;de:05914:2260;2;Ri City;de:05914:2260:2;2;2;de:05914:2260:0:2;7.547070;51.354899;584
9;2261;Hagen Alte Dorfschule;Hagen;ALDO;de:05914:2261;1;Ri Hohenlimburg;de:05914:2261:1;1;1;de:05914:2261:0:1;7.545139;51.353614;584
9;2261;Hagen Alte Dorfschule;Hagen;ALDO;de:05914:2261;1;Ri Hohenlimburg;de:05914:2261:1;2;3;de:05914:2261:0:3;7.545067;51.353642;584
9;2261;Hagen Alte Dorfschule;Hagen;ALDO;de:05914:2261;2;Ri City;de:05914:2261:2;3;2;de:05914:2261:0:2;7.544941;51.351842;584
9;2262;Hagen Staplack / Enervie Zentr;Hagen;STAP;de:05914:2262;0;;;1;1;de:05914:2262:0:1;7.531071;51.348958;584
9;2262;Hagen Staplack / Enervie Zentr;Hagen;STAP;de:05914:2262;0;;;2;2;de:05914:2262:0:2;7.530927;51.348969;584
9;2263;Hagen Haßley;Hagen;HAßL;de:05914:2263;1;Ri Hohenlimburg;de:05914:2263:1;1;1;de:05914:2263:0:1;7.525627;51.353530;584
9;2263;Hagen Haßley;Hagen;HAßL;de:05914:2263;2;Ri City;de:05914:2263:2;2;2;de:05914:2263:0:2;7.525187;51.354018;584
9;2264;Hagen Emsterfeld;Hagen;EMST;de:05914:2264;1;Ri Hohenlimburg;de:05914:2264:1;1;1;de:05914:2264:0:1;7.512413;51.356004;580
9;2264;Hagen Emsterfeld;Hagen;EMST;de:05914:2264;2;Ri Emst;de:05914:2264:2;2;2;de:05914:2264:0:2;7.512404;51.356066;580
9;2264;Hagen Emsterfeld;Hagen;EMST;de:05914:2264;3;Pausenplatz;de:05914:2264:3;3;3;de:05914:2264:0:3;7.512287;51.355752;580
9;2265;Hagen Am Großen Feld;Hagen;AMGF;de:05914:2265;0;;;1;1;de:05914:2265:0:1;7.509458;51.355858;580
9;2265;Hagen Am Großen Feld;Hagen;AMGF;de:05914:2265;0;;;2;2;de:05914:2265:0:2;7.509413;51.355909;580
9;2266;Hagen Steltenbergstr.;Hagen;STEL;de:05914:2266;1;Ri Letmathe;de:05914:2266:1;1;1;de:05914:2266:0:1;7.585347;51.363324;584
9;2266;Hagen Steltenbergstr.;Hagen;STEL;de:05914:2266;2;Ri Hohenlimburg;de:05914:2266:2;2;2;de:05914:2266:0:2;7.584485;51.363240;584
9;2268;Herdecke Rathaus;Herdecke;HERT;de:05954:2268;1;RiHagen;de:05954:2268:1;1;1;de:05954:2268:0:1;7.431619;51.400580;474
9;2268;Herdecke Rathaus;Herdecke;HERT;de:05954:2268;1;RiHagen;de:05954:2268:1;2;3;de:05954:2268:0:3;7.432454;51.400799;474
9;2268;Herdecke Rathaus;Herdecke;HERT;de:05954:2268;2;RiSchanze;de:05954:2268:2;3;2;de:05954:2268:0:2;7.433110;51.400922;474
9;2269;Herdecke Bf;Herdecke;HEBF;de:05954:2269;50;Westseite;de:05954:2269:50;1;5;de:05954:2269:50:5;7.432562;51.405041;474
9;2269;Herdecke Bf;Herdecke;HEBF;de:05954:2269;90;DB;de:05954:2269:90;2;1;de:05954:2269:90:1;7.432706;51.404845;474
9;2269;Herdecke Bf;Herdecke;HEBF;de:05954:2269;90;DB;de:05954:2269:90;3;2;de:05954:2269:90:2;7.432580;51.404868;474
9;2269;Herdecke Bf;Herdecke;HEBF;de:05954:2269;91;Ostseite;de:05954:2269:91;4;1;de:05954:2269:50:1;7.432903;51.404621;474
9;2269;Herdecke Bf;Herdecke;HEBF;de:05954:2269;91;Ostseite;de:05954:2269:91;5;2;de:05954:2269:50:2;7.433110;51.404795;474
9;2270;Herdecke Mozartweg;Herdecke;HEMO;de:05954:2270;1;RiHerdecke;de:05954:2270:1;1;1;de:05954:2270:0:1;7.431897;51.410202;474
9;2270;Herdecke Mozartweg;Herdecke;HEMO;de:05954:2270;2;RiSchanze;de:05954:2270:2;2;2;de:05954:2270:0:2;7.431583;51.410802;474
9;2271;Herdecke Herdecker Bach;Herdecke;HEBA;de:05954:2271;1;RiHerd;de:05954:2271:1;1;1;de:05954:2271:0:1;7.432571;51.416079;474
9;2271;Herdecke Herdecker Bach;Herdecke;HEBA;de:05954:2271;2;Schanze;de:05954:2271:2;2;2;de:05954:2271:0:2;7.432418;51.415626;474
9;2272;Herdecke Gahlenfeldstr.;Herdecke;HEGA;de:05954:2272;1;RiCity;de:05954:2272:1;1;1;de:05954:2272:0:1;7.434673;51.418225;474
9;2272;Herdecke Gahlenfeldstr.;Herdecke;HEGA;de:05954:2272;2;RiSchanze;de:05954:2272:2;2;2;de:05954:2272:0:2;7.435329;51.418718;474
9;2273;Herdecke Am Schlagbaum;Herdecke;HAMS;de:05954:2273;0;;;1;1;de:05954:2273:0:1;7.430163;51.423401;474
9;2273;Herdecke Am Schlagbaum;Herdecke;HAMS;de:05954:2273;0;;;2;2;de:05954:2273:0:2;7.430262;51.423356;474
9;2274;Herdecke Nierfeldstr.;Herdecke;HENI;de:05954:2274;0;;;1;1;de:05954:2274:0:1;7.432831;51.424662;474
9;2274;Herdecke Nierfeldstr.;Herdecke;HENI;de:05954:2274;0;;;2;2;de:05954:2274:0:2;7.433496;51.424690;474
9;2275;Herdecke Sperlingsweg;Herdecke;HESP;de:05954:2275;0;;;1;1;de:05954:2275:0:1;7.438904;51.424163;474
9;2275;Herdecke Sperlingsweg;Herdecke;HESP;de:05954:2275;0;;;2;2;de:05954:2275:0:2;7.438886;51.424090;474
9;2276;Herdecke Am Hegede;Herdecke;HEAH;de:05954:2276;0;;;1;1;de:05954:2276:0:1;7.442542;51.427204;474
9;2276;Herdecke Am Hegede;Herdecke;HEAH;de:05954:2276;0;;;2;2;de:05954:2276:0:2;7.442353;51.426969;474
9;2277;Herdecke Walkenhorst;Herdecke;HWAL;de:05954:2277;1;RiCity;de:05954:2277:1;1;1;de:05954:2277:0:1;7.444878;51.428986;474
9;2277;Herdecke Walkenhorst;Herdecke;HWAL;de:05954:2277;2;RiSchanze;de:05954:2277:2;2;2;de:05954:2277:0:2;7.445992;51.429820;474
9;2278;Herdecke Schanze;Herdecke;HSCH;de:05954:2278;1;Endstelle;de:05954:2278:1;1;1;de:05954:2278:0:1;7.446306;51.434250;474,372
9;2278;Herdecke Schanze;Herdecke;HSCH;de:05954:2278;1;Endstelle;de:05954:2278:1;2;2;de:05954:2278:0:2;7.446153;51.434261;474,372
9;2278;Herdecke Schanze;Herdecke;HSCH;de:05954:2278;2;RiDortmund;de:05954:2278:2;3;4;de:05954:2278:0:4;7.446881;51.434726;474,372
9;2278;Herdecke Schanze;Herdecke;HSCH;de:05954:2278;3;RiHagen;de:05954:2278:3;4;3;de:05954:2278:0:3;7.446629;51.433780;474,372
9;2279;Hagen FernUniversität;Hagen;FUNI;de:05914:2279;1;RiLox;de:05914:2279:1;1;1;de:05914:2279:0:1;7.493126;51.375713;580
9;2279;Hagen FernUniversität;Hagen;FUNI;de:05914:2279;2;RiTond;de:05914:2279:2;2;2;de:05914:2279:0:2;7.493315;51.374799;580
9;2280;Hagen Tondernstr.;Hagen;TOND;de:05914:2280;1;RiCity;de:05914:2280:1;1;1;de:05914:2280:0:1;7.497241;51.368204;580
9;2280;Hagen Tondernstr.;Hagen;TOND;de:05914:2280;2;RiHalden;de:05914:2280:2;2;2;de:05914:2280:0:2;7.497214;51.367946;580
9;2280;Hagen Tondernstr.;Hagen;TOND;de:05914:2280;3;RiHoh;de:05914:2280:3;3;3;de:05914:2280:0:3;7.496720;51.368142;580
9;2281;Herdecke Attenbergstr./Bahnhof;Herdecke;ATBF;de:05954:2281;1;RiCity;de:05954:2281:1;1;1;de:05954:2281:1:1;7.433433;51.406353;474
9;2281;Herdecke Attenbergstr./Bahnhof;Herdecke;ATBF;de:05954:2281;2;RiSchanze;de:05954:2281:2;2;2;de:05954:2281:1:2;7.433649;51.405719;474
9;2282;Hagen Stirnband;Hagen;STIR;de:05914:2282;0;;;1;1;de:05914:2282:0:1;7.509835;51.358983;580
9;2282;Hagen Stirnband;Hagen;STIR;de:05914:2282;0;;;2;2;de:05914:2282:0:2;7.509808;51.358792;580
9;2283;Hagen Zeppelinweg;Hagen;ZEPP;de:05914:2283;0;;;1;1;de:05914:2283:0:1;7.509628;51.354579;580
9;2283;Hagen Zeppelinweg;Hagen;ZEPP;de:05914:2283;0;;;2;2;de:05914:2283:0:2;7.509754;51.354680;580
9;2284;Herdecke Goethestr.;Herdecke;HEGO;de:05954:2284;0;;;1;1;de:05954:2284:0:1;7.429822;51.402021;474
9;2284;Herdecke Goethestr.;Herdecke;HEGO;de:05954:2284;0;;;2;2;de:05954:2284:0:2;7.429894;51.401959;474
9;2285;Herdecke Breddestr.;Herdecke;HEBR;de:05954:2285;1;RiHerdecke;de:05954:2285:1;1;1;de:05954:2285:0:1;7.429723;51.403338;474
9;2285;Herdecke Breddestr.;Herdecke;HEBR;de:05954:2285;2;RiNacken;de:05954:2285:2;2;2;de:05954:2285:0:2;7.429768;51.403797;474
9;2286;Herdecke Rosenstr.;Herdecke;HERO;de:05954:2286;0;;;1;1;de:05954:2286:0:1;7.427477;51.405478;474
9;2286;Herdecke Rosenstr.;Herdecke;HERO;de:05954:2286;0;;;2;2;de:05954:2286:0:2;7.427513;51.405422;474
9;2287;Herdecke Berliner Str.;Herdecke;HEBE;de:05954:2287;0;;;1;1;de:05954:2287:0:1;7.430918;51.406633;474
9;2287;Herdecke Berliner Str.;Herdecke;HEBE;de:05954:2287;0;;;2;2;de:05954:2287:0:2;7.431008;51.406605;474
9;2288;Herdecke Nacken;Herdecke;HENA;de:05954:2288;0;;;1;1;de:05954:2288:0:1;7.427585;51.408039;474
9;2289;Hagen Niedernhofstr.;Hagen;NIED;de:05914:2289;1;Schwerter Str. Ri Bo;de:05914:2289:1;1;1;de:05914:2289:0:1;7.455846;51.386898;582
9;2289;Hagen Niedernhofstr.;Hagen;NIED;de:05914:2289;2;Schwerter Str. Ri Ec;de:05914:2289:2;2;2;de:05914:2289:0:2;7.455792;51.386965;582
9;2289;Hagen Niedernhofstr.;Hagen;NIED;de:05914:2289;3;NiedRiHeng;de:05914:2289:3;3;3;de:05914:2289:0:3;7.455011;51.387072;582
9;2289;Hagen Niedernhofstr.;Hagen;NIED;de:05914:2289;4;Nied Ri Eck;de:05914:2289:4;4;4;de:05914:2289:0:4;7.454885;51.386876;582
9;2290;Hagen Turmstr.;Hagen;TURM;de:05914:2290;1;Ri Boele;de:05914:2290:1;1;1;de:05914:2290:0:1;7.456529;51.390912;582
9;2290;Hagen Turmstr.;Hagen;TURM;de:05914:2290;2;Ri Eck;de:05914:2290:2;3;2;de:05914:2290:0:2;7.455801;51.390542;582
9;2291;Hagen Grundschule Eilpe;Hagen;GDEI;de:05914:2291;0;;;1;1;de:05914:2291:0:1;7.490225;51.344340;580
9;2291;Hagen Grundschule Eilpe;Hagen;GDEI;de:05914:2291;0;;;2;2;de:05914:2291:0:2;7.490647;51.344492;580
9;2293;Hagen Pillauer Str.;Hagen;PILL;de:05914:2293;1;Ri Boele;de:05914:2293:1;1;1;de:05914:2293:0:1;7.466159;51.399123;582
9;2293;Hagen Pillauer Str.;Hagen;PILL;de:05914:2293;2;Ri Heng;de:05914:2293:2;2;2;de:05914:2293:0:2;7.465835;51.399454;582
9;2294;Hagen Dortmunder Str.;Hagen;DMUN;de:05914:2294;1;Hengstey;de:05914:2294:1;1;1;de:05914:2294:0:1;7.468423;51.397717;582
9;2294;Hagen Dortmunder Str.;Hagen;DMUN;de:05914:2294;1;Hengstey;de:05914:2294:1;2;2;de:05914:2294:0:2;7.468234;51.397901;582
9;2294;Hagen Dortmunder Str.;Hagen;DMUN;de:05914:2294;2;Bathey;de:05914:2294:2;3;3;de:05914:2294:0:3;7.469051;51.397845;582
9;2294;Hagen Dortmunder Str.;Hagen;DMUN;de:05914:2294;2;Bathey;de:05914:2294:2;4;4;de:05914:2294:0:4;7.469222;51.398014;582
9;2295;Hagen Posener Str.;Hagen;POSE;de:05914:2295;1;Ri Boele;de:05914:2295:1;1;1;de:05914:2295:0:1;7.470480;51.400541;582
9;2295;Hagen Posener Str.;Hagen;POSE;de:05914:2295;2;Ri Bathey;de:05914:2295:2;2;2;de:05914:2295:0:2;7.470884;51.401018;582
9;2296;Hagen Hengsteysee;Hagen;YSEE;de:05914:2296;0;;;1;1;de:05914:2296:0:1;7.477936;51.414746;582
9;2296;Hagen Hengsteysee;Hagen;YSEE;de:05914:2296;0;;;2;2;de:05914:2296:0:2;7.477819;51.414684;582
9;2296;Hagen Hengsteysee;Hagen;YSEE;de:05914:2296;0;;;3;3;de:05914:2296:0:3;7.477891;51.414684;582
9;2296;Hagen Hengsteysee;Hagen;YSEE;de:05914:2296;0;;;4;4;de:05914:2296:0:4;7.477891;51.414684;582
9;2296;Hagen Hengsteysee;Hagen;YSEE;de:05914:2296;0;;;5;5;de:05914:2296:0:5;7.477891;51.414684;582
9;2298;Hagen Rummenohl Bf;Hagen;RUBF;de:05914:2298;50;HST;de:05914:2298:50;1;1;de:05914:2298:50:1;7.528062;51.278001;586
9;2298;Hagen Rummenohl Bf;Hagen;RUBF;de:05914:2298;90;Bereich DB;de:05914:2298:90;2;1;de:05914:2298:90:1;7.528574;51.277911;586
9;2298;Hagen Rummenohl Bf;Hagen;RUBF;de:05914:2298;90;Bereich DB;de:05914:2298:90;3;2;de:05914:2298:90:2;7.528466;51.277984;586
9;2298;Hagen Rummenohl Bf;Hagen;RUBF;de:05914:2298;98;DB;de:05914:2298:98;4;;de:05914:2298:98;7.528232;51.277962;586
9;2298;Hagen Rummenohl Bf;Hagen;RUBF;de:05914:2298;99;RiCity;de:05914:2298:99;5;2;de:05914:2298:50:2;7.528493;51.278136;586
9;2299;Hagen Roland;Hagen;ROLA;de:05914:2299;1;RiRum;de:05914:2299:1;1;1;de:05914:2299:0:1;7.530370;51.283142;586
9;2299;Hagen Roland;Hagen;ROLA;de:05914:2299;1;RiRum;de:05914:2299:1;2;3;de:05914:2299:0:3;7.530101;51.283356;586
9;2299;Hagen Roland;Hagen;ROLA;de:05914:2299;1;RiRum;de:05914:2299:1;3;4;de:05914:2299:0:4;7.530101;51.283356;586
9;2299;Hagen Roland;Hagen;ROLA;de:05914:2299;2;RiCity;de:05914:2299:2;4;2;de:05914:2299:0:2;7.529724;51.283592;586
9;2300;Hagen Dahl Bf;Hagen;DABF;de:05914:2300;1;HST;de:05914:2300:1;1;1;de:05914:2300:1:1;7.527487;51.303596;586
9;2300;Hagen Dahl Bf;Hagen;DABF;de:05914:2300;1;HST;de:05914:2300:1;2;2;de:05914:2300:1:2;7.527568;51.303545;586
9;2300;Hagen Dahl Bf;Hagen;DABF;de:05914:2300;2;DB;de:05914:2300:2;3;3;de:05914:2300:2:3;7.527855;51.303309;586
9;2301;Hagen Dahl;Hagen;DAHL;de:05914:2301;0;;;1;1;de:05914:2301:0:1;7.530909;51.304202;586
9;2301;Hagen Dahl;Hagen;DAHL;de:05914:2301;0;;;2;2;de:05914:2301:0:2;7.531269;51.304112;586
9;2302;Hagen Hoffnungstal;Hagen;HOFF;de:05914:2302;1;RiRum;de:05914:2302:1;1;1;de:05914:2302:0:1;7.526337;51.311357;586
9;2302;Hagen Hoffnungstal;Hagen;HOFF;de:05914:2302;2;RiCity;de:05914:2302:2;2;2;de:05914:2302:0:2;7.528286;51.310913;586
9;2303;Hagen Finking;Hagen;FINK;de:05914:2303;0;;;1;1;de:05914:2303:0:1;7.523202;51.315394;586
9;2303;Hagen Finking;Hagen;FINK;de:05914:2303;0;;;2;2;de:05914:2303:0:2;7.523759;51.315141;586
9;2304;Hagen Ambrock;Hagen;AMBR;de:05914:2304;0;;;1;A.1;de:05914:2304:0:A.1;7.517659;51.322024;586
9;2304;Hagen Ambrock;Hagen;AMBR;de:05914:2304;0;;;2;A.2;de:05914:2304:0:A.2;7.517507;51.322226;586
9;2304;Hagen Ambrock;Hagen;AMBR;de:05914:2304;0;;;3;A.3;de:05914:2304:0:A.3;7.517569;51.322075;586
9;2304;Hagen Ambrock;Hagen;AMBR;de:05914:2304;0;;;4;A.4;de:05914:2304:0:A.4;7.517668;51.321979;586
9;2304;Hagen Ambrock;Hagen;AMBR;de:05914:2304;0;;;5;A.5;de:05914:2304:0:A.5;7.517327;51.322019;586
9;2305;Hagen Hunsdieker Weg/Marienhof;Hagen;HUWE;de:05914:2305;1;RiRum;de:05914:2305:1;1;1;de:05914:2305:0:1;7.519654;51.330439;580
9;2305;Hagen Hunsdieker Weg/Marienhof;Hagen;HUWE;de:05914:2305;2;RiCity;de:05914:2305:2;2;2;de:05914:2305:0:2;7.520363;51.331056;580
9;2306;Hagen Oberdelstern;Hagen;OBDE;de:05914:2306;0;;;1;1;de:05914:2306:0:1;7.519204;51.336113;580
9;2306;Hagen Oberdelstern;Hagen;OBDE;de:05914:2306;0;;;2;2;de:05914:2306:0:2;7.519447;51.335866;580
9;2307;Hagen Kuhweide;Hagen;KUH;de:05914:2307;1;RiRum;de:05914:2307:1;1;1;de:05914:2307:0:1;7.514578;51.338577;580
9;2307;Hagen Kuhweide;Hagen;KUH;de:05914:2307;2;RiCity;de:05914:2307:2;2;2;de:05914:2307:0:2;7.513958;51.339088;580
9;2308;Hagen Volmeburg;Hagen;VOLM;de:05914:2308;0;;;1;1;de:05914:2308:0:1;7.510760;51.341186;580
9;2308;Hagen Volmeburg;Hagen;VOLM;de:05914:2308;0;;;2;2;de:05914:2308:0:2;7.511012;51.341153;580
9;2309;Hagen Delstern;Hagen;DEL;de:05914:2309;1;RiRum;de:05914:2309:1;1;1;de:05914:2309:0:1;7.506475;51.343650;580
9;2309;Hagen Delstern;Hagen;DEL;de:05914:2309;2;RiCity;de:05914:2309:2;2;2;de:05914:2309:0:2;7.508299;51.343021;580
9;2309;Hagen Delstern;Hagen;DEL;de:05914:2309;3;VonEmst;de:05914:2309:3;3;3;de:05914:2309:0:3;7.507598;51.343712;580
9;2310;Hagen Delsterner Brücke;Hagen;DEBR;de:05914:2310;1;RiCity;de:05914:2310:1;1;2;de:05914:2310:0:2;7.499873;51.345619;580
9;2310;Hagen Delsterner Brücke;Hagen;DEBR;de:05914:2310;2;Rummenohl;de:05914:2310:2;2;1;de:05914:2310:0:1;7.501445;51.345277;580
9;2311;Hagen Vorhaller Str.;Hagen;VOST;de:05914:2311;1;RiCity;de:05914:2311:1;1;1;de:05914:2311:0:1;7.425887;51.381269;588
9;2311;Hagen Vorhaller Str.;Hagen;VOST;de:05914:2311;2;RiWetter;de:05914:2311:2;2;2;de:05914:2311:0:2;7.424199;51.381286;588
9;2312;Hagen Vorhalle West;Hagen;VOWE;de:05914:2312;1;RiCity;de:05914:2312:1;1;1;de:05914:2312:0:1;7.419716;51.380664;588
9;2312;Hagen Vorhalle West;Hagen;VOWE;de:05914:2312;2;RiWetter;de:05914:2312:2;2;2;de:05914:2312:0:2;7.419105;51.380726;588
9;2312;Hagen Vorhalle West;Hagen;VOWE;de:05914:2312;3;Volmar-Wet;de:05914:2312:3;3;3;de:05914:2312:0:3;7.418638;51.379997;588
9;2313;Hagen Harkortbrücke;Hagen;HABR;de:05914:2313;1;RiCity;de:05914:2313:1;1;1;de:05914:2313:0:1;7.408128;51.382402;588
9;2313;Hagen Harkortbrücke;Hagen;HABR;de:05914:2313;2;RiWetter;de:05914:2313:2;2;2;de:05914:2313:0:2;7.407211;51.382923;588
9;2316;Hagen Fachhochschule Südwestf.;Hagen;FHSW;de:05914:2316;0;;;1;1;de:05914:2316:0:1;7.496729;51.366275;580
9;2316;Hagen Fachhochschule Südwestf.;Hagen;FHSW;de:05914:2316;0;;;2;2;de:05914:2316:0:2;7.496854;51.366432;580
9;2317;Hagen Bettermannshof;Hagen;BETT;de:05914:2317;0;;;1;1;de:05914:2317:0:1;7.492057;51.364979;580
9;2317;Hagen Bettermannshof;Hagen;BETT;de:05914:2317;0;;;2;2;de:05914:2317:0:2;7.492147;51.365086;580
9;2318;Hagen Bülowstr.;Hagen;BÜLO;de:05914:2318;1;Bülow;de:05914:2318:1;1;1;de:05914:2318:0:1;7.486164;51.362977;580
9;2318;Hagen Bülowstr.;Hagen;BÜLO;de:05914:2318;2;Hald;de:05914:2318:2;2;2;de:05914:2318:0:2;7.487736;51.363330;580
9;2321;Hagen Nordstr.;Hagen;NORD;de:05914:2321;1;RiCity;de:05914:2321:1;1;1;de:05914:2321:0:1;7.398372;51.339873;587
9;2321;Hagen Nordstr.;Hagen;NORD;de:05914:2321;1;RiCity;de:05914:2321:1;2;5;de:05914:2321:1:5;7.397114;51.339677;587
9;2321;Hagen Nordstr.;Hagen;NORD;de:05914:2321;2;RiGev;de:05914:2321:2;3;2;de:05914:2321:0:2;7.397824;51.339901;587
9;2321;Hagen Nordstr.;Hagen;NORD;de:05914:2321;3;RiQuam;de:05914:2321:3;4;3;de:05914:2321:0:3;7.396809;51.340103;587
9;2321;Hagen Nordstr.;Hagen;NORD;de:05914:2321;4;RiBauk;de:05914:2321:4;5;4;de:05914:2321:0:4;7.396548;51.339626;587
9;2321;Hagen Nordstr.;Hagen;NORD;de:05914:2321;4;RiBauk;de:05914:2321:4;6;6;de:05914:2321:4:6;7.397204;51.339677;587
9;2322;Hagen Ischeland;Hagen;ISCH;de:05914:2322;0;;;1;1;de:05914:2322:0:1;7.469132;51.364603;580
9;2323;Hagen Blumenstr.;Hagen;BLUM;de:05914:2323;0;;;1;1;de:05914:2323:0:1;7.468782;51.365899;580
9;2323;Hagen Blumenstr.;Hagen;BLUM;de:05914:2323;0;;;2;2;de:05914:2323:0:2;7.468674;51.365944;580
9;2324;Hagen Hermannstr.;Hagen;HERM;de:05914:2324;1;RiAltenhagen;de:05914:2324:1;1;1;de:05914:2324:0:1;7.470318;51.368535;580
9;2324;Hagen Hermannstr.;Hagen;HERM;de:05914:2324;2;RiIscheland;de:05914:2324:2;2;2;de:05914:2324:0:2;7.470372;51.368210;580
9;2325;Hagen Lahnstr.;Hagen;LAHN;de:05914:2325;0;;;1;1;de:05914:2325:0:1;7.467434;51.370015;580
9;2325;Hagen Lahnstr.;Hagen;LAHN;de:05914:2325;0;;;2;2;de:05914:2325:0:2;7.467390;51.369959;580
9;2326;Hagen Ennepeufer;Hagen;ENNE;de:05914:2326;0;;;1;1;de:05914:2326:0:1;7.422950;51.350809;587
9;2326;Hagen Ennepeufer;Hagen;ENNE;de:05914:2326;0;;;2;2;de:05914:2326:0:2;7.422878;51.351157;587
9;2327;Hagen Am Baukloh;Hagen;AKLO;de:05914:2327;1;von-nach-Baukloh;de:05914:2327:1;1;1;de:05914:2327:0:1;7.382651;51.342140;587
9;2327;Hagen Am Baukloh;Hagen;AKLO;de:05914:2327;1;von-nach-Baukloh;de:05914:2327:1;2;2;de:05914:2327:0:2;7.383083;51.342129;587
9;2327;Hagen Am Baukloh;Hagen;AKLO;de:05914:2327;2;von-nach-Wetter;de:05914:2327:2;3;3;de:05914:2327:0:3;7.382032;51.341770;587
9;2327;Hagen Am Baukloh;Hagen;AKLO;de:05914:2327;2;von-nach-Wetter;de:05914:2327:2;4;4;de:05914:2327:0:4;7.381807;51.341983;587
9;2328;Hagen Im Lindental;Hagen;IMLI;de:05914:2328;0;;;1;1;de:05914:2328:0:1;7.428475;51.354058;587
9;2328;Hagen Im Lindental;Hagen;IMLI;de:05914:2328;0;;;2;2;de:05914:2328:0:2;7.428331;51.354232;587
9;2329;Hagen Eisenwerk;Hagen;EISE;de:05914:2329;0;;;1;1;de:05914:2329:0:1;7.425807;51.356627;587
9;2329;Hagen Eisenwerk;Hagen;EISE;de:05914:2329;0;;;2;2;de:05914:2329:0:2;7.425708;51.356554;587
9;2330;Hagen Höxterstr.;Hagen;HÖXT;de:05914:2330;0;;;1;1;de:05914:2330:0:1;7.436784;51.355499;587
9;2330;Hagen Höxterstr.;Hagen;HÖXT;de:05914:2330;0;;;2;2;de:05914:2330:0:2;7.436928;51.355825;587
9;2331;Hagen Geweke;Hagen;GEWE;de:05914:2331;0;;;1;1;de:05914:2331:0:1;7.422582;51.359045;587
9;2333;Hagen Am Berge;Hagen;AMBE;de:05914:2333;0;;;1;1;de:05914:2333:0:1;7.568980;51.365332;584
9;2333;Hagen Am Berge;Hagen;AMBE;de:05914:2333;0;;;2;2;de:05914:2333:0:2;7.569249;51.365198;584
9;2334;Hagen Im Ölm;Hagen;IÖLM;de:05914:2334;0;;;1;1;de:05914:2334:0:1;7.569402;51.369320;584
9;2334;Hagen Im Ölm;Hagen;IÖLM;de:05914:2334;0;;;2;2;de:05914:2334:0:2;7.569267;51.369241;584
9;2335;Hagen Berliner Allee;Hagen;BEAL;de:05914:2335;0;;;1;1;de:05914:2335:0:1;7.574828;51.366897;584
9;2335;Hagen Berliner Allee;Hagen;BEAL;de:05914:2335;0;;;2;2;de:05914:2335:0:2;7.574559;51.366650;584
9;2336;Hagen Kirchenbergstadion;Hagen;KIBS;de:05914:2336;0;;;1;1;de:05914:2336:0:1;7.577766;51.368092;584
9;2336;Hagen Kirchenbergstadion;Hagen;KIBS;de:05914:2336;0;;;2;2;de:05914:2336:0:2;7.577972;51.368064;584
9;2339;Hagen Im Sibb;Hagen;SIBB;de:05914:2339;0;;;1;1;de:05914:2339:0:1;7.581260;51.358102;584
9;2340;Hagen Krahenbrink;Hagen;KRAH;de:05914:2340;0;;;1;1;de:05914:2340:0:1;7.579329;51.359566;584
9;2340;Hagen Krahenbrink;Hagen;KRAH;de:05914:2340;0;;;2;2;de:05914:2340:0:2;7.579284;51.359634;584
9;2341;Hagen Auf dem Dreische;Hagen;ADDR;de:05914:2341;0;;;1;1;de:05914:2341:0:1;7.573310;51.358596;584
9;2341;Hagen Auf dem Dreische;Hagen;ADDR;de:05914:2341;0;;;2;2;de:05914:2341:0:2;7.572906;51.358646;584
9;2342;Hagen Heidestr.;Hagen;HEID;de:05914:2342;0;;;1;1;de:05914:2342:0:1;7.571450;51.358046;584
9;2342;Hagen Heidestr.;Hagen;HEID;de:05914:2342;0;;;2;2;de:05914:2342:0:2;7.571387;51.358085;584
9;2343;Hagen Burgweg;Hagen;BURG;de:05914:2343;0;;;1;1;de:05914:2343:0:1;7.568369;51.356560;584
9;2343;Hagen Burgweg;Hagen;BURG;de:05914:2343;0;;;2;2;de:05914:2343:0:2;7.568495;51.356604;584
9;2344;Hagen Hammacher;Hagen;HAMM;de:05914:2344;0;;;1;1;de:05914:2344:0:1;7.549630;51.362354;584
9;2344;Hagen Hammacher;Hagen;HAMM;de:05914:2344;0;;;2;2;de:05914:2344:0:2;7.549531;51.362500;584
9;2345;Hagen Wiehagen;Hagen;WIE;de:05914:2345;0;;;1;1;de:05914:2345:0:1;7.542588;51.364300;584
9;2345;Hagen Wiehagen;Hagen;WIE;de:05914:2345;0;;;2;2;de:05914:2345:0:2;7.542363;51.364435;584
9;2347;Hagen Heidnocken;Hagen;NOCK;de:05914:2347;1;Hohenlimburg;de:05914:2347:1;1;1;de:05914:2347:0:1;7.528457;51.365231;584
9;2347;Hagen Heidnocken;Hagen;NOCK;de:05914:2347;2;City;de:05914:2347:2;2;2;de:05914:2347:0:2;7.527460;51.365187;584
9;2348;Hagen Herbecker Weg;Hagen;HWEG;de:05914:2348;1;Hohenlim;de:05914:2348:1;1;1;de:05914:2348:0:1;7.521971;51.364104;584
9;2348;Hagen Herbecker Weg;Hagen;HWEG;de:05914:2348;1;Hohenlim;de:05914:2348:1;2;2;de:05914:2348:0:2;7.521585;51.364065;584
9;2348;Hagen Herbecker Weg;Hagen;HWEG;de:05914:2348;2;Herbecker;de:05914:2348:2;3;3;de:05914:2348:0:3;7.523040;51.365355;584
9;2348;Hagen Herbecker Weg;Hagen;HWEG;de:05914:2348;2;Herbecker;de:05914:2348:2;4;4;de:05914:2348:2:4;7.522807;51.365355;584
9;2349;Hagen Donnerkuhle;Hagen;DKUH;de:05914:2349;1;RiHoh;de:05914:2349:1;1;1;de:05914:2349:0:1;7.516024;51.362853;584
9;2349;Hagen Donnerkuhle;Hagen;DKUH;de:05914:2349;2;RiCity;de:05914:2349:2;2;2;de:05914:2349:0:2;7.514785;51.362960;584
9;2350;Hagen Lortzingstr.;Hagen;LORT;de:05914:2350;1;Lützow;de:05914:2350:1;1;1;de:05914:2350:0:1;7.493072;51.366650;580
9;2350;Hagen Lortzingstr.;Hagen;LORT;de:05914:2350;1;Lützow;de:05914:2350:1;2;2;de:05914:2350:0:2;7.492902;51.366673;580
9;2350;Hagen Lortzingstr.;Hagen;LORT;de:05914:2350;2;Lortzing;de:05914:2350:2;3;3;de:05914:2350:0:3;7.492848;51.367570;580
9;2350;Hagen Lortzingstr.;Hagen;LORT;de:05914:2350;2;Lortzing;de:05914:2350:2;4;4;de:05914:2350:0:4;7.493117;51.367542;580
9;2351;Hagen Hardenbergstr.;Hagen;HARD;de:05914:2351;0;;;1;1;de:05914:2351:0:1;7.490189;51.369819;580
9;2351;Hagen Hardenbergstr.;Hagen;HARD;de:05914:2351;0;;;2;2;de:05914:2351:0:2;7.490315;51.369757;580
9;2352;Hagen Klosterstr.;Hagen;KLOS;de:05914:2352;1;Ri Tondernstr;de:05914:2352:1;1;1;de:05914:2352:0:1;7.486587;51.367991;580
9;2352;Hagen Klosterstr.;Hagen;KLOS;de:05914:2352;2;Ri City;de:05914:2352:2;2;2;de:05914:2352:0:2;7.487009;51.368389;580
9;2353;Hagen Gneisenaustr.;Hagen;GNEI;de:05914:2353;0;;;1;1;de:05914:2353:0:1;7.484574;51.366303;580
9;2353;Hagen Gneisenaustr.;Hagen;GNEI;de:05914:2353;0;;;2;2;de:05914:2353:0:2;7.484475;51.366325;580
9;2354;Hagen Gerichtsstr.;Hagen;GERI;de:05914:2354;0;;;1;1;de:05914:2354:0:1;7.483110;51.364446;580
9;2355;Hagen Röntgenstr.;Hagen;RÖNT;de:05914:2355;1;RiCity;de:05914:2355:1;1;1;de:05914:2355:0:1;7.461658;51.373234;580
9;2355;Hagen Röntgenstr.;Hagen;RÖNT;de:05914:2355;2;RiBoelerheide;de:05914:2355:2;2;2;de:05914:2355:0:2;7.461362;51.374300;580
9;2356;Hagen Alexanderstr.;Hagen;ALEX;de:05914:2356;0;;;1;1;de:05914:2356:0:1;7.460383;51.377232;580
9;2356;Hagen Alexanderstr.;Hagen;ALEX;de:05914:2356;0;;;2;2;de:05914:2356:0:2;7.460464;51.377003;580
9;2356;Hagen Alexanderstr.;Hagen;ALEX;de:05914:2356;0;;;3;3;de:05914:2356:0:3;7.460464;51.377137;580
9;2356;Hagen Alexanderstr.;Hagen;ALEX;de:05914:2356;0;;;4;4;de:05914:2356:0:4;7.460464;51.377137;580
9;2357;Hagen Cafe Möller;Hagen;CAFE;de:05914:2357;0;;;1;1;de:05914:2357:0:1;7.563114;51.350187;584
9;2358;Hagen Jahnstr.;Hagen;JAHN;de:05914:2358;0;;;1;1;de:05914:2358:0:1;7.566016;51.349238;584
9;2359;Hagen Alter Schloßweg;Hagen;ALTS;de:05914:2359;0;;;1;1;de:05914:2359:0:1;7.566743;51.345855;584
9;2359;Hagen Alter Schloßweg;Hagen;ALTS;de:05914:2359;0;;;2;2;de:05914:2359:0:2;7.566680;51.345810;584
9;2360;Hagen Am Schloßberg;Hagen;AMSB;de:05914:2360;0;;;1;1;de:05914:2360:0:1;7.563267;51.343223;584
9;2360;Hagen Am Schloßberg;Hagen;AMSB;de:05914:2360;0;;;2;2;de:05914:2360:0:2;7.563249;51.343178;584
9;2361;Hagen Wesselbachstr.;Hagen;WESS;de:05914:2361;0;;;1;1;de:05914:2361:0:1;7.566258;51.346624;584
9;2362;Hagen Langenkamp;Hagen;LANG;de:05914:2362;1;Ri Nahmer;de:05914:2362:1;1;1;de:05914:2362:0:1;7.572960;51.348212;584
9;2362;Hagen Langenkamp;Hagen;LANG;de:05914:2362;2;Ri Hohenlimburg;de:05914:2362:2;2;2;de:05914:2362:0:2;7.572699;51.348341;584
9;2363;Hagen Lenneufer;Hagen;UFER;de:05914:2363;0;;;1;1;de:05914:2363:0:1;7.577730;51.346439;584
9;2363;Hagen Lenneufer;Hagen;UFER;de:05914:2363;0;;;2;2;de:05914:2363:0:2;7.577936;51.346349;584
9;2364;Hagen Kronenburgplatz;Hagen;KRON;de:05914:2364;1;Lenneuferstr.;de:05914:2364:1;1;1;de:05914:2364:0:1;7.577640;51.345451;584
9;2364;Hagen Kronenburgplatz;Hagen;KRON;de:05914:2364;2;Unternahmerstr.;de:05914:2364:2;2;2;de:05914:2364:0:2;7.578322;51.344957;584
9;2364;Hagen Kronenburgplatz;Hagen;KRON;de:05914:2364;2;Unternahmerstr.;de:05914:2364:2;3;3;de:05914:2364:2:3;7.578763;51.345030;584
9;2365;Hagen Unternahmer;Hagen;UNTE;de:05914:2365;0;;;1;1;de:05914:2365:0:1;7.578269;51.344525;584
9;2366;Hagen Benekestr.;Hagen;BENE;de:05914:2366;0;;;1;1;de:05914:2366:0:1;7.579284;51.342999;584
9;2366;Hagen Benekestr.;Hagen;BENE;de:05914:2366;0;;;2;2;de:05914:2366:0:2;7.579778;51.343021;584
9;2367;Hagen Stadeweg;Hagen;STWE;de:05914:2367;0;;;1;1;de:05914:2367:0:1;7.574577;51.341287;584
9;2367;Hagen Stadeweg;Hagen;STWE;de:05914:2367;0;;;2;2;de:05914:2367:0:2;7.574954;51.341495;584
9;2368;Hagen Volkenborn;Hagen;BORN;de:05914:2368;0;;;1;1;de:05914:2368:0:1;7.575008;51.338987;584
9;2368;Hagen Volkenborn;Hagen;BORN;de:05914:2368;0;;;2;2;de:05914:2368:0:2;7.575107;51.339037;584
9;2369;Hagen Krupp;Hagen;KRUP;de:05914:2369;0;;;1;1;de:05914:2369:0:1;7.574603;51.334817;584
9;2369;Hagen Krupp;Hagen;KRUP;de:05914:2369;0;;;2;2;de:05914:2369:0:2;7.574729;51.334806;584
9;2370;Hagen Haardtstr.;Hagen;HAAR;de:05914:2370;0;;;1;1;de:05914:2370:0:1;7.573319;51.331640;584
9;2370;Hagen Haardtstr.;Hagen;HAAR;de:05914:2370;0;;;2;2;de:05914:2370:0:2;7.573463;51.331590;584
9;2371;Hagen Giebel;Hagen;GIEB;de:05914:2371;0;;;1;1;de:05914:2371:0:1;7.572025;51.329580;584
9;2371;Hagen Giebel;Hagen;GIEB;de:05914:2371;0;;;2;2;de:05914:2371:0:2;7.572160;51.329591;584
9;2372;Hagen Nimmertal;Hagen;NIMM;de:05914:2372;0;;;1;1;de:05914:2372:0:1;7.573723;51.326706;584
9;2372;Hagen Nimmertal;Hagen;NIMM;de:05914:2372;0;;;2;2;de:05914:2372:0:2;7.573867;51.326684;584
9;2373;Hagen Nahmerbach;Hagen;NAHM;de:05914:2373;0;;;1;1;de:05914:2373:0:1;7.575565;51.324680;584
9;2373;Hagen Nahmerbach;Hagen;NAHM;de:05914:2373;0;;;2;2;de:05914:2373:0:2;7.576041;51.324348;584
9;2374;Hagen Lahmen Hasen;Hagen;LAHM;de:05914:2374;0;;;1;1;de:05914:2374:0:1;7.578107;51.320565;584
9;2374;Hagen Lahmen Hasen;Hagen;LAHM;de:05914:2374;0;;;2;2;de:05914:2374:0:2;7.578161;51.320273;584
9;2375;Hagen Obernahmer Land;Hagen;OBLA;de:05914:2375;0;;;1;1;de:05914:2375:0:1;7.578358;51.317943;584
9;2375;Hagen Obernahmer Land;Hagen;OBLA;de:05914:2375;0;;;2;2;de:05914:2375:0:2;7.578385;51.318078;584
9;2377;Hagen Wilhelmstr.;Hagen;WIST;de:05914:2377;0;;;1;1;de:05914:2377:0:1;7.580622;51.343274;584
9;2377;Hagen Wilhelmstr.;Hagen;WIST;de:05914:2377;0;;;2;2;de:05914:2377:0:2;7.581260;51.343223;584
9;2378;Hagen Regenbogenschule;Hagen;REGE;de:05914:2378;0;;;1;1;de:05914:2378:0:1;7.583128;51.342073;584
9;2378;Hagen Regenbogenschule;Hagen;REGE;de:05914:2378;0;;;2;2;de:05914:2378:0:2;7.583146;51.342168;584
9;2379;Hagen Obernahmer;Hagen;OBNA;de:05914:2379;0;;;1;1;de:05914:2379:0:1;7.579715;51.315686;584
9;2383;Hagen Im Sonnenwinkel;Hagen;IMSO;de:05914:2383;0;;;1;1;de:05914:2383:0:1;7.569537;51.367037;584
9;2383;Hagen Im Sonnenwinkel;Hagen;IMSO;de:05914:2383;0;;;2;2;de:05914:2383:0:2;7.569402;51.366735;584
9;2384;Hagen Sommerhagener Weg;Hagen;SOMM;de:05914:2384;0;;;1;1;de:05914:2384:0:1;7.533263;51.295760;586
9;2384;Hagen Sommerhagener Weg;Hagen;SOMM;de:05914:2384;0;;;2;2;de:05914:2384:0:2;7.533353;51.295738;586
9;2386;Herdecke Brüninghausstr.;Herdecke;HEBÜ;de:05954:2386;0;;;1;1;de:05954:2386:0:1;7.434700;51.392022;588
9;2386;Herdecke Brüninghausstr.;Herdecke;HEBÜ;de:05954:2386;0;;;2;2;de:05954:2386:0:2;7.434628;51.392111;588
9;2387;Hagen Boele Friedhof;Hagen;BOFD;de:05914:2387;0;;;1;1;de:05914:2387:0:1;7.462934;51.392745;582
9;2387;Hagen Boele Friedhof;Hagen;BOFD;de:05914:2387;0;;;2;2;de:05914:2387:0:2;7.462862;51.392779;582
9;2388;Hagen Mühlenbergstr.;Hagen;MÜHL;de:05914:2388;0;;;1;1;de:05914:2388:0:1;7.568297;51.352324;584
9;2390;Hagen Obervogelsang;Hagen;OBVO;de:05914:2390;0;;;1;1;de:05914:2390:0:1;7.384215;51.339677;587
9;2390;Hagen Obervogelsang;Hagen;OBVO;de:05914:2390;0;;;2;2;de:05914:2390:0:2;7.384430;51.339520;587
9;2393;Hagen Schneewittchenweg;Hagen;SNEE;de:05914:2393;0;;;1;1;de:05914:2393:0:1;7.383442;51.342780;587
9;2395;Hagen Rotkäppchenweg;Hagen;ROT;de:05914:2395;0;;;1;1;de:05914:2395:0:1;7.385212;51.343442;587
9;2398;Hagen Viktor-v.-Scheffel-Str.;Hagen;VVSS;de:05914:2398;0;;;1;1;de:05914:2398:0:1;7.470471;51.381662;580
9;2398;Hagen Viktor-v.-Scheffel-Str.;Hagen;VVSS;de:05914:2398;0;;;2;2;de:05914:2398:0:2;7.470246;51.381600;580
9;2399;Hagen Wilhelm-Leuschner-Str.;Hagen;WILS;de:05914:2399;0;;;1;1;de:05914:2399:0:1;7.475043;51.382716;580
9;2399;Hagen Wilhelm-Leuschner-Str.;Hagen;WILS;de:05914:2399;0;;;2;2;de:05914:2399:0:2;7.475376;51.382778;580
9;2400;Hagen Baukloh;Hagen;KLOH;de:05914:2400;0;;;1;1;de:05914:2400:0:1;7.382849;51.344379;587
9;2403;Hagen Feldstr.;Hagen;FELD;de:05914:2403;1;Feldstr.;de:05914:2403:1;1;1;de:05914:2403:0:1;7.586300;51.347662;584
9;2403;Hagen Feldstr.;Hagen;FELD;de:05914:2403;2;Oststr.;de:05914:2403:2;2;2;de:05914:2403:0:2;7.587234;51.347235;584
9;2403;Hagen Feldstr.;Hagen;FELD;de:05914:2403;2;Oststr.;de:05914:2403:2;3;3;de:05914:2403:0:3;7.587656;51.347263;584
9;2404;Hagen Hoesch Siedlung;Hagen;HESI;de:05914:2404;1;Ri Hohenlimburg;de:05914:2404:1;1;1;de:05914:2404:0:1;7.592112;51.346618;584
9;2404;Hagen Hoesch Siedlung;Hagen;HESI;de:05914:2404;2;Ri Letmathe;de:05914:2404:2;2;2;de:05914:2404:0:2;7.591303;51.346584;584
9;2407;Hagen Roter Hirsch;Hagen;ROTE;de:05914:2407;0;;;1;1;de:05914:2407:0:1;7.462467;51.324203;580
9;2407;Hagen Roter Hirsch;Hagen;ROTE;de:05914:2407;0;;;2;2;de:05914:2407:0:2;7.462116;51.324034;580
9;2408;Hagen Am Damm;Hagen;AMDA;de:05914:2408;0;;;1;1;de:05914:2408:0:1;7.453771;51.319066;580
9;2408;Hagen Am Damm;Hagen;AMDA;de:05914:2408;0;;;2;2;de:05914:2408:0:2;7.453870;51.318993;580
9;2409;Hagen Innsbrucker Str.;Hagen;INN;de:05914:2409;1;RiHaspe;de:05914:2409:1;1;A.1;de:05914:2409:0:A.1;7.411865;51.350675;587
9;2409;Hagen Innsbrucker Str.;Hagen;INN;de:05914:2409;2;RiQuam;de:05914:2409:2;2;A.2;de:05914:2409:0:A.2;7.410957;51.350389;587
9;2410;Hagen Rathaus an der Volme;Hagen;RATS;de:05914:2410;1;Ri Markt;de:05914:2410:1;1;1;de:05914:2410:0:1;7.475807;51.359011;580
9;2410;Hagen Rathaus an der Volme;Hagen;RATS;de:05914:2410;1;Ri Markt;de:05914:2410:1;2;3;de:05914:2410:0:3;7.475924;51.358815;580
9;2410;Hagen Rathaus an der Volme;Hagen;RATS;de:05914:2410;2;Ri City;de:05914:2410:2;3;2;de:05914:2410:0:2;7.475968;51.358921;580
9;2410;Hagen Rathaus an der Volme;Hagen;RATS;de:05914:2410;2;Ri City;de:05914:2410:2;4;4;de:05914:2410:0:4;7.475789;51.359151;580
9;2411;Hagen Silscheder Str.;Hagen;SILS;de:05914:2411;0;;;1;1;;7.384080;51.338891;587
9;2411;Hagen Silscheder Str.;Hagen;SILS;de:05914:2411;0;;;2;2;;7.384008;51.338925;587
9;2412;Hagen Werkzeugstr.;Hagen;PFEF;de:05914:2412;0;;;1;1;de:05914:2412:0:1;7.511281;51.382021;584
9;2412;Hagen Werkzeugstr.;Hagen;PFEF;de:05914:2412;0;;;2;2;de:05914:2412:0:2;7.511344;51.382094;584
9;2414;Hagen Erlhagen;Hagen;ERLH;de:05914:2414;1;Ri Helfe;de:05914:2414:1;1;1;de:05914:2414:0:1;7.492965;51.390021;582
9;2414;Hagen Erlhagen;Hagen;ERLH;de:05914:2414;2;Ri Loxbaum;de:05914:2414:2;2;2;de:05914:2414:0:2;7.492713;51.389611;582
9;2417;Hagen Sonntagstr.;Hagen;SONN;de:05914:2417;1;Ri City;de:05914:2417:1;1;1;de:05914:2417:0:1;7.460706;51.383377;582
9;2417;Hagen Sonntagstr.;Hagen;SONN;de:05914:2417;2;Ri Eckesey;de:05914:2417:2;2;2;de:05914:2417:0:2;7.460284;51.383652;582
9;2422;Hagen Herbeck Denkmal;Hagen;DENK;de:05914:2422;0;;;1;1;de:05914:2422:0:1;7.531242;51.370414;584
9;2422;Hagen Herbeck Denkmal;Hagen;DENK;de:05914:2422;0;;;2;2;de:05914:2422:0:2;7.531403;51.370414;584
9;2423;Hagen Konrad-Adenauer-Ring;Hagen;KARI;de:05914:2423;1;Richtung Stadtmitte;de:05914:2423:1;1;2;de:05914:2423:0:2;7.448085;51.350501;580
9;2423;Hagen Konrad-Adenauer-Ring;Hagen;KARI;de:05914:2423;2;Richtung Haspe;de:05914:2423:2;2;1;de:05914:2423:0:1;7.448732;51.350445;580
9;2424;Wiblingwerde Über dem Dorfe;Wiblingwerde;UDD;de:05962:3338;0;;;1;1;de:05962:3338:0:1;7.615998;51.307229;584
9;2425;Wiblingwerde Harpkestr.;Wiblingwerde;HARP;de:05962:3347;0;;;1;1;de:05962:3347:0:1;7.614075;51.312412;584
9;2425;Wiblingwerde Harpkestr.;Wiblingwerde;HARP;de:05962:3347;0;;;2;2;de:05962:3347:0:1;7.613941;51.312384;584
9;2426;Wiblingwerde Veserde;Wiblingwerde;VESE;de:05962:3317;0;;;1;1;de:05962:3317:0:1;7.598220;51.325920;584
9;2426;Wiblingwerde Veserde;Wiblingwerde;VESE;de:05962:3317;0;;;2;2;de:05962:3317:0:2;7.599002;51.325757;584
9;2427;Wiblingwerde Vogelhenne;Wiblingwerde;VHEN;de:05962:3318;0;;;1;1;de:05962:3318:0:1;7.602245;51.320211;584
9;2427;Wiblingwerde Vogelhenne;Wiblingwerde;VHEN;de:05962:3318;0;;;2;2;de:05962:3318:0:2;7.602137;51.320177;584
9;2428;Wiblingwerde;Wiblingwerde;WIB;de:05962:3320;0;;;1;1;de:05962:3320:0:1;7.616654;51.309088;584
9;2429;Wiblingwerde Wörden;Wiblingwerde;WÖRD;de:05962:3319;0;;;1;1;de:05962:3319:0:1;7.607230;51.313496;584
9;2429;Wiblingwerde Wörden;Wiblingwerde;WÖRD;de:05962:3319;0;;;2;2;de:05962:3319:0:2;7.607069;51.313518;584
9;2430;Hagen Im Erlenbusch;Hagen;IMER;de:05914:2430;0;;;1;1;de:05914:2430:0:1;7.500241;51.351477;580
9;2430;Hagen Im Erlenbusch;Hagen;IMER;de:05914:2430;0;;;2;2;de:05914:2430:0:2;7.500250;51.351404;580
9;2431;Hagen Grueber;Hagen;GRUE;de:05914:2431;0;;;1;1;de:05914:2431:0:1;7.503313;51.395822;582
9;2431;Hagen Grueber;Hagen;GRUE;de:05914:2431;0;;;2;2;de:05914:2431:0:2;7.502927;51.395979;582
9;2432;Hagen Heubing Bf;Hagen;HEUB;de:05914:2432;50;HST;de:05914:2432:50;1;1;de:05914:2432:50:1;7.422007;51.351612;587
9;2432;Hagen Heubing Bf;Hagen;HEUB;de:05914:2432;50;HST;de:05914:2432:50;2;2;de:05914:2432:50:2;7.421638;51.351634;587
9;2432;Hagen Heubing Bf;Hagen;HEUB;de:05914:2432;50;HST;de:05914:2432:50;3;3;de:05914:2432:50:3;7.423354;51.352072;587
9;2432;Hagen Heubing Bf;Hagen;HEUB;de:05914:2432;50;HST;de:05914:2432:50;4;4;de:05914:2432:50:4;7.423363;51.351864;587
9;2432;Hagen Heubing Bf;Hagen;HEUB;de:05914:2432;50;HST;de:05914:2432:50;5;5;de:05914:2432:50:5;7.424450;51.352285;587
9;2432;Hagen Heubing Bf;Hagen;HEUB;de:05914:2432;90;DB;de:05914:2432:90;6;;de:05914:2432:90;7.422725;51.352139;587
9;2432;Hagen Heubing Bf;Hagen;HEUB;de:05914:2432;98;DB;de:05914:2432:98;7;;de:05914:2432:98;7.422725;51.352139;587
9;2433;Hagen Westerbauer Bf;Hagen;ESTE;de:05914:2433;50;HST;de:05914:2433:50;1;6;de:05914:2433:50:6;7.396369;51.341843;587
9;2433;Hagen Westerbauer Bf;Hagen;ESTE;de:05914:2433;90;Bereich DB;de:05914:2433:90;2;;de:05914:2433:90;7.396369;51.341843;587
9;2433;Hagen Westerbauer Bf;Hagen;ESTE;de:05914:2433;95;Endschleife;de:05914:2433:95;3;3;de:05914:2433:50:3;7.396710;51.342943;587
9;2433;Hagen Westerbauer Bf;Hagen;ESTE;de:05914:2433;96;Bushaltestelle;de:05914:2433:96;4;1;de:05914:2433:50:1;7.396405;51.341888;587
9;2433;Hagen Westerbauer Bf;Hagen;ESTE;de:05914:2433;96;Bushaltestelle;de:05914:2433:96;5;2;de:05914:2433:50:2;7.396279;51.341815;587
9;2433;Hagen Westerbauer Bf;Hagen;ESTE;de:05914:2433;97;Bahnsteig 2 nach MG;de:05914:2433:97;6;2;de:05914:2433:98:2;7.397815;51.341770;587
9;2433;Hagen Westerbauer Bf;Hagen;ESTE;de:05914:2433;98;DB;de:05914:2433:98;7;;de:05914:2433:98;7.396369;51.341843;587
9;2433;Hagen Westerbauer Bf;Hagen;ESTE;de:05914:2433;99;Bahnsteig 1;de:05914:2433:99;8;1;de:05914:2433:98:1;7.397806;51.341731;587
9;2435;Hagen Vorhalle Bf;Hagen;VOBF;de:05914:2435;50;HST;de:05914:2435:50;1;1;de:05914:2435:50:1;7.433074;51.388255;588
9;2435;Hagen Vorhalle Bf;Hagen;VOBF;de:05914:2435;50;HST;de:05914:2435:50;2;2;de:05914:2435:50:2;7.433002;51.388462;588
9;2435;Hagen Vorhalle Bf;Hagen;VOBF;de:05914:2435;90;DB;de:05914:2435:90;3;1;de:05914:2435:90:1;7.433577;51.388221;588
9;2435;Hagen Vorhalle Bf;Hagen;VOBF;de:05914:2435;90;DB;de:05914:2435:90;4;2;de:05914:2435:90:2;7.433622;51.388143;588
9;2437;Hagen Sterbecketal;Hagen;STAL;de:05914:2437;0;;;1;1;de:05914:2437:0:1;7.534107;51.276827;586
9;2438;Hagen Sterbecke;Hagen;STER;de:05914:2438;0;;;1;1;de:05914:2438:0:1;7.535221;51.276237;586
9;2439;Hagen Thorn-Prikker-Str.;Hagen;THPS;de:05914:2439;0;;;1;1;de:05914:2439:0:1;7.510024;51.362130;584
9;2439;Hagen Thorn-Prikker-Str.;Hagen;THPS;de:05914:2439;0;;;2;2;de:05914:2439:0:2;7.510095;51.362225;584
9;2440;Hagen Eckeseyer Str.;Hagen;ECKE;de:05914:2440;0;;;1;1;de:05914:2440:0:1;7.452127;51.385115;588,582
9;2440;Hagen Eckeseyer Str.;Hagen;ECKE;de:05914:2440;0;;;2;2;de:05914:2440:0:2;7.452046;51.385166;588,582
9;2441;Hagen Zieglerstr.;Hagen;ZIEG;de:05914:2441;0;;;1;1;de:05914:2441:0:1;7.444914;51.385581;588
9;2441;Hagen Zieglerstr.;Hagen;ZIEG;de:05914:2441;0;;;2;2;de:05914:2441:0:2;7.444860;51.385654;588
9;2442;Hagen Im Niederfeld;Hagen;IMNI;de:05914:2442;0;;;1;1;de:05914:2442:0:1;7.560949;51.365074;584
9;2442;Hagen Im Niederfeld;Hagen;IMNI;de:05914:2442;0;;;2;2;de:05914:2442:0:2;7.561012;51.364968;584
9;2444;Hagen Ziegelei;Hagen;ZIGE;de:05914:2444;0;;;1;1;de:05914:2444:0:1;7.443171;51.383826;588
9;2444;Hagen Ziegelei;Hagen;ZIGE;de:05914:2444;0;;;2;2;de:05914:2444:0:2;7.443333;51.384146;588
9;2445;Hagen Breitenbruch;Hagen;BEIT;de:05914:2445;0;;;1;1;de:05914:2445:0:1;7.572969;51.363139;584
9;2445;Hagen Breitenbruch;Hagen;BEIT;de:05914:2445;0;;;2;2;de:05914:2445:0:2;7.572510;51.363352;584
9;2446;Hagen Wolfskuhler Weg;Hagen;WOLF;de:05914:2446;0;;;1;1;de:05914:2446:0:1;7.436532;51.381079;588
9;2446;Hagen Wolfskuhler Weg;Hagen;WOLF;de:05914:2446;0;;;2;2;de:05914:2446:0:2;7.436523;51.381219;588
9;2447;Hagen Seestr.;Hagen;SEE;de:05914:2447;0;;;1;1;de:05914:2447:0:1;7.456520;51.400115;582
9;2447;Hagen Seestr.;Hagen;SEE;de:05914:2447;0;;;2;2;de:05914:2447:0:2;7.456601;51.400110;582
9;2448;Hagen Büdding Friedhof;Hagen;BÜFD;de:05914:2448;0;;;1;1;de:05914:2448:0:1;7.416958;51.348913;587
9;2448;Hagen Büdding Friedhof;Hagen;BÜFD;de:05914:2448;0;;;2;2;de:05914:2448:0:2;7.416320;51.348694;587
9;2449;Hagen Berchum Schule;Hagen;BESC;de:05914:2449;0;;;1;1;de:05914:2449:0:1;7.539470;51.385861;584
9;2450;Hagen Dreischengarten;Hagen;DREI;de:05914:2450;0;;;1;1;de:05914:2450:0:1;7.537773;51.387162;584
9;2450;Hagen Dreischengarten;Hagen;DREI;de:05914:2450;0;;;2;2;de:05914:2450:0:2;7.537826;51.387061;584
9;2451;Hagen Auf der Steinhard;Hagen;ADS;de:05914:2451;0;;;1;1;de:05914:2451:0:1;7.540297;51.390592;584
9;2451;Hagen Auf der Steinhard;Hagen;ADS;de:05914:2451;0;;;2;2;de:05914:2451:0:2;7.540441;51.390570;584
9;2452;Hagen Ottostr.;Hagen;OTTO;de:05914:2452;0;;;1;1;de:05914:2452:0:1;7.443935;51.359970;580
9;2452;Hagen Ottostr.;Hagen;OTTO;de:05914:2452;0;;;2;2;de:05914:2452:0:2;7.443997;51.360054;580
9;2453;Hagen Am Kellerhofe;Hagen;AMKE;de:05914:2453;0;;;1;1;de:05914:2453:0:1;7.539830;51.387621;584
9;2453;Hagen Am Kellerhofe;Hagen;AMKE;de:05914:2453;0;;;2;2;de:05914:2453:0:2;7.539911;51.387588;584
9;2454;Hagen Hasper Hammer;Hagen;HAHA;de:05914:2454;0;;;1;1;de:05914:2454:0:1;7.430244;51.353188;587
9;2454;Hagen Hasper Hammer;Hagen;HAHA;de:05914:2454;0;;;2;2;de:05914:2454:0:2;7.430343;51.353233;587
9;2455;Hagen Spannstiftstr.;Hagen;SPAN;de:05914:2455;1;Ri Hohenlimburg;de:05914:2455:1;1;1;de:05914:2455:0:1;7.541887;51.376885;584
9;2455;Hagen Spannstiftstr.;Hagen;SPAN;de:05914:2455;2;Ri Halden;de:05914:2455:2;2;2;de:05914:2455:0:2;7.540997;51.378017;584
9;2456;Hagen Höhwaldstr.;Hagen;HÖH;de:05914:2456;1;Ri Breckerfeld;de:05914:2456:1;1;1;de:05914:2456:0:1;7.467920;51.331724;580
9;2456;Hagen Höhwaldstr.;Hagen;HÖH;de:05914:2456;2;Ri City;de:05914:2456:2;2;2;de:05914:2456:0:2;7.469276;51.332650;580
9;2458;Hagen Am Schellbrink;Hagen;ABRI;de:05914:2458;0;;;1;1;de:05914:2458:0:1;7.567228;51.368720;584
9;2458;Hagen Am Schellbrink;Hagen;ABRI;de:05914:2458;0;;;2;2;de:05914:2458:0:2;7.567417;51.368675;584
9;2461;Hagen Einhausstr.;Hagen;EIN;de:05914:2461;0;;;1;1;de:05914:2461:0:1;7.457760;51.401404;582
9;2461;Hagen Einhausstr.;Hagen;EIN;de:05914:2461;0;;;2;2;de:05914:2461:0:2;7.457787;51.401449;582
9;2462;Hagen Hoesch;Hagen;HOES;de:05914:2462;1;Ri Kabel;de:05914:2462:1;1;1;de:05914:2462:0:1;7.494411;51.402447;582
9;2462;Hagen Hoesch;Hagen;HOES;de:05914:2462;2;Ri Halden;de:05914:2462:2;2;2;de:05914:2462:0:2;7.493827;51.403007;582
9;2463;Hagen Uhde;Hagen;UHDE;de:05914:2463;0;;;1;1;de:05914:2463:0:1;7.499900;51.397711;582
9;2463;Hagen Uhde;Hagen;UHDE;de:05914:2463;0;;;2;2;de:05914:2463:0:2;7.499630;51.397711;582
9;2464;Hagen Profilstr.;Hagen;PROF;de:05914:2464;1;Buschmühlenstr.;de:05914:2464:1;1;1;de:05914:2464:0:1;7.515458;51.389981;582
9;2464;Hagen Profilstr.;Hagen;PROF;de:05914:2464;1;Buschmühlenstr.;de:05914:2464:1;2;2;de:05914:2464:0:2;7.515360;51.389948;582
9;2464;Hagen Profilstr.;Hagen;PROF;de:05914:2464;1;Buschmühlenstr.;de:05914:2464:1;3;3;de:05914:2464:0:3;7.514901;51.390172;582
9;2464;Hagen Profilstr.;Hagen;PROF;de:05914:2464;2;Profilstr.;de:05914:2464:2;4;4;de:05914:2464:0:4;7.514039;51.389836;582
9;2464;Hagen Profilstr.;Hagen;PROF;de:05914:2464;2;Profilstr.;de:05914:2464:2;5;5;de:05914:2464:0:5;7.514156;51.389780;582
9;2466;Hagen Im Löhken;Hagen;IMLÖ;de:05914:2466;1;Ri Kabel;de:05914:2466:1;1;1;de:05914:2466:0:1;7.486488;51.400003;582
9;2466;Hagen Im Löhken;Hagen;IMLÖ;de:05914:2466;2;Ri Helfe;de:05914:2466:2;2;2;de:05914:2466:0:2;7.486092;51.399863;582
9;2467;Hagen Im Gersegge;Hagen;IMGE;de:05914:2467;0;;;1;1;de:05914:2467:0:1;7.584027;51.364289;584
9;2467;Hagen Im Gersegge;Hagen;IMGE;de:05914:2467;0;;;2;2;de:05914:2467:0:2;7.583766;51.364306;584
9;2468;Hagen Wiesenstr.;Hagen;WIES;de:05914:2468;0;;;1;1;de:05914:2468:0:1;7.579427;51.363308;584
9;2468;Hagen Wiesenstr.;Hagen;WIES;de:05914:2468;0;;;2;2;de:05914:2468:0:2;7.579158;51.363330;584
9;2469;Hagen Im Alten Holz;Hagen;IMAH;de:05914:2469;0;;;1;1;de:05914:2469:0:1;7.512898;51.378971;584
9;2469;Hagen Im Alten Holz;Hagen;IMAH;de:05914:2469;0;;;2;2;de:05914:2469:0:2;7.513024;51.378892;584
9;2470;Hagen Garenfeld Mitte;Hagen;GAMI;de:05914:2470;0;;;1;1;de:05914:2470:0:1;7.518306;51.399964;582
9;2471;Hagen Brauhausstr.;Hagen;BRAH;de:05914:2471;0;;;1;1;de:05914:2471:0:1;7.567390;51.360851;584
9;2471;Hagen Brauhausstr.;Hagen;BRAH;de:05914:2471;0;;;2;2;de:05914:2471:0:2;7.567453;51.360890;584
9;2472;Hagen Klöckner;Hagen;KLÖC;de:05914:2472;0;;;1;1;de:05914:2472:0:1;7.479643;51.411748;582
9;2472;Hagen Klöckner;Hagen;KLÖC;de:05914:2472;0;;;2;2;de:05914:2472:0:2;7.479553;51.411900;582
9;2473;Hagen Druckhaus;Hagen;DRUC;de:05914:2473;0;;;1;1;de:05914:2473:0:1;7.488994;51.412757;582
9;2473;Hagen Druckhaus;Hagen;DRUC;de:05914:2473;0;;;2;2;de:05914:2473:0:2;7.488940;51.412869;582
9;2474;Hagen Heizkraftwerk Kabel;Hagen;HZKW;de:05914:2474;0;;;1;1;de:05914:2474:0:1;7.492228;51.411149;582
9;2474;Hagen Heizkraftwerk Kabel;Hagen;HZKW;de:05914:2474;0;;;2;2;de:05914:2474:0:2;7.492300;51.411211;582
9;2475;Hagen Feldmühle;Hagen;FMÜH;de:05914:2475;0;;;1;1;de:05914:2475:0:1;7.492650;51.405590;582
9;2475;Hagen Feldmühle;Hagen;FMÜH;de:05914:2475;0;;;2;2;de:05914:2475:0:2;7.492740;51.405770;582
9;2476;Hagen Auf dem Graskamp;Hagen;ADGR;de:05914:2476;0;;;1;1;de:05914:2476:0:1;7.479687;51.408336;582
9;2478;Hagen Rehdeicke;Hagen;REHD;de:05914:2478;0;;;1;1;de:05914:2478:0:1;7.421027;51.380507;588
9;2478;Hagen Rehdeicke;Hagen;REHD;de:05914:2478;0;;;2;2;de:05914:2478:0:2;7.421018;51.380389;588
9;2479;Hagen Vossacker;Hagen;VOSS;de:05914:2479;0;;;1;1;de:05914:2479:0:1;7.423309;51.377900;588
9;2480;Hagen Profilstr. Schleife;Hagen;PRSC;de:05914:2480;0;;;1;1;de:05914:2480:0:PRSC;7.510509;51.387918;582
9;2480;Hagen Profilstr. Schleife;Hagen;PRSC;de:05914:2480;0;;;2;2;de:05914:2480:0:2;7.511757;51.388479;582
9;2481;Hagen Weißensteinstr.;Hagen;WSTR;de:05914:2481;0;;;1;1;de:05914:2481:0:1;7.549001;51.356576;584
9;2482;Hagen Leopoldstr.;Hagen;LEO;de:05914:2482;0;;;1;1;de:05914:2482:0:1;7.448884;51.360425;580
9;2482;Hagen Leopoldstr.;Hagen;LEO;de:05914:2482;0;;;2;2;de:05914:2482:0:2;7.448938;51.360385;580
9;2482;Hagen Leopoldstr.;Hagen;LEO;de:05914:2482;0;;;3;3;de:05914:2482:0:3;7.448911;51.360453;580
9;2484;Hagen Obere Rehstr.;Hagen;OREH;de:05914:2484;0;;;1;1;de:05914:2484:0:1;7.448839;51.348666;580
9;2484;Hagen Obere Rehstr.;Hagen;OREH;de:05914:2484;0;;;2;2;de:05914:2484:0:2;7.448857;51.348621;580
9;2484;Hagen Obere Rehstr.;Hagen;OREH;de:05914:2484;0;;;3;3;de:05914:2484:0:3;7.448875;51.348644;580
9;2485;Hagen Lolochstr.;Hagen;LOH;de:05914:2485;0;;;1;1;de:05914:2485:0:1;7.563267;51.344991;584
9;2488;Hagen Wesselbach;Hagen;WES;de:05914:2488;0;;;1;1;de:05914:2488:0:1;7.561623;51.342303;584
9;2489;Hagen Möllerstr.;Hagen;MÖLL;de:05914:2489;0;;;1;1;de:05914:2489:0:1;7.571450;51.361462;584
9;2489;Hagen Möllerstr.;Hagen;MÖLL;de:05914:2489;0;;;2;2;de:05914:2489:0:2;7.569537;51.361636;584
9;2490;Hagen Trappenweg;Hagen;TRAP;de:05914:2490;0;;;1;1;de:05914:2490:0:1;7.575439;51.363201;584
9;2490;Hagen Trappenweg;Hagen;TRAP;de:05914:2490;0;;;2;2;de:05914:2490:0:2;7.575843;51.363369;584
9;2491;Hagen Tückinger Höhe;Hagen;TÜHÖ;de:05914:2491;0;;;1;1;de:05914:2491:0:1;7.438266;51.362651;580
9;2491;Hagen Tückinger Höhe;Hagen;TÜHÖ;de:05914:2491;0;;;2;2;de:05914:2491:0:2;7.438787;51.362769;580
9;2492;Hagen Tückingschulstr.;Hagen;TÜUL;de:05914:2492;0;;;1;1;de:05914:2492:0:1;7.434781;51.363902;580
9;2492;Hagen Tückingschulstr.;Hagen;TÜUL;de:05914:2492;0;;;2;2;de:05914:2492:0:2;7.434817;51.363964;580
9;2492;Hagen Tückingschulstr.;Hagen;TÜUL;de:05914:2492;0;;;3;3;de:05914:2492:0:3;7.433712;51.364497;580
9;2493;Hagen Schaumburger Str.;Hagen;SAUM;de:05914:2493;0;;;1;1;de:05914:2493:0:1;7.435526;51.359695;587
9;2493;Hagen Schaumburger Str.;Hagen;SAUM;de:05914:2493;0;;;2;2;de:05914:2493:0:2;7.435607;51.359735;587
9;2494;Hagen Detmolder Str.;Hagen;DET;de:05914:2494;0;;;1;1;de:05914:2494:0:1;7.436586;51.356997;587
9;2494;Hagen Detmolder Str.;Hagen;DET;de:05914:2494;0;;;2;2;de:05914:2494:0:2;7.436829;51.356689;587
9;2495;Hagen Rodersiepen;Hagen;ROD;de:05914:2495;0;;;1;;de:05914:2495;7.433766;51.355814;587
9;2495;Hagen Rodersiepen;Hagen;ROD;de:05914:2495;1;Ri KuKa;de:05914:2495:1;2;2;de:05914:2495:0:2;7.433550;51.355567;587
9;2495;Hagen Rodersiepen;Hagen;ROD;de:05914:2495;2;Ri Haspe;de:05914:2495:2;3;1;de:05914:2495:0:1;7.434008;51.355959;587
9;2497;Hagen Pennacker;Hagen;PENN;de:05914:2497;0;;;1;1;de:05914:2497:0:1;7.434628;51.355275;587
9;2497;Hagen Pennacker;Hagen;PENN;de:05914:2497;0;;;2;2;de:05914:2497:0:2;7.434475;51.355258;587
9;2498;Hagen Heilig-Geist-Str.;Hagen;HGS;de:05914:2498;1;RiCity;de:05914:2498:1;1;1;de:05914:2498:0:1;7.428232;51.348520;587
9;2498;Hagen Heilig-Geist-Str.;Hagen;HGS;de:05914:2498;2;RiHaspe;de:05914:2498:2;2;2;de:05914:2498:0:2;7.426920;51.348464;587
9;2499;Hagen Waldstr.;Hagen;WALD;de:05914:2499;1;RiCity;de:05914:2499:1;1;2;de:05914:2499:0:2;7.415718;51.340339;587
9;2499;Hagen Waldstr.;Hagen;WALD;de:05914:2499;2;RiWester;de:05914:2499:2;2;1;de:05914:2499:0:1;7.414865;51.340053;587
9;2500;Hagen Herbeck;Hagen;HERB;de:05914:2500;0;;;1;1;de:05914:2500:0:1;7.527110;51.367828;584
9;2500;Hagen Herbeck;Hagen;HERB;de:05914:2500;0;;;2;2;de:05914:2500:0:2;7.526849;51.367811;584
9;2500;Hagen Herbeck;Hagen;HERB;de:05914:2500;0;;;3;3;de:05914:2500:0:3;7.526696;51.367795;584
9;2501;Hagen Lütkenheider Str.;Hagen;LÜTK;de:05914:2501;0;;;1;1;de:05914:2501:0:1;7.465593;51.391276;582
9;2501;Hagen Lütkenheider Str.;Hagen;LÜTK;de:05914:2501;0;;;2;2;de:05914:2501:0:2;7.465656;51.391484;582
9;2502;Hagen Gut Herbeck;Hagen;GUT;de:05914:2502;1;Ri Hohenl;de:05914:2502:1;1;1;de:05914:2502:0:1;7.532616;51.372404;584
9;2502;Hagen Gut Herbeck;Hagen;GUT;de:05914:2502;2;Ri Halden;de:05914:2502:2;2;2;de:05914:2502:0:2;7.531314;51.373425;584
9;2503;Hagen Dolomitwerke;Hagen;DOL;de:05914:2503;0;;;1;1;de:05914:2503:0:1;7.529364;51.374586;584
9;2503;Hagen Dolomitwerke;Hagen;DOL;de:05914:2503;0;;;2;2;de:05914:2503:0:2;7.529427;51.374647;584
9;2506;Hagen Märkischer Ring;Hagen;RING;de:05914:2506;1;Ri Emst;de:05914:2506:1;1;1;de:05914:2506:0:1;7.478376;51.358775;580
9;2506;Hagen Märkischer Ring;Hagen;RING;de:05914:2506;2;Ri City;de:05914:2506:2;2;2;de:05914:2506:0:2;7.478520;51.359005;580
9;2507;Hagen Fernheizwerk;Hagen;FERN;de:05914:2507;1;Ri Hohenl;de:05914:2507:1;1;1;de:05914:2507:0:1;7.513231;51.356571;580
9;2507;Hagen Fernheizwerk;Hagen;FERN;de:05914:2507;2;Ri Eppenhausen;de:05914:2507:2;2;2;de:05914:2507:0:2;7.513105;51.356756;580
9;2508;Hagen Elseyer Str.;Hagen;ELSE;de:05914:2508;0;;;1;1;de:05914:2508:0:1;7.558892;51.361608;584
9;2508;Hagen Elseyer Str.;Hagen;ELSE;de:05914:2508;0;;;2;2;de:05914:2508:0:2;7.558757;51.361743;584
9;2509;Hagen Hasselbach;Hagen;HAS;de:05914:2509;0;;;1;1;de:05914:2509:0:1;7.552720;51.370823;584
9;2509;Hagen Hasselbach;Hagen;HAS;de:05914:2509;0;;;2;2;de:05914:2509:0:2;7.552954;51.370716;584
9;2510;Hagen Polizeipräsidium;Hagen;POLI;de:05914:2510;1;RiTondern;de:05914:2510:1;1;1;de:05914:2510:0:1;7.488518;51.378382;580
9;2510;Hagen Polizeipräsidium;Hagen;POLI;de:05914:2510;1;RiTondern;de:05914:2510:1;2;3;de:05914:2510:0:3;7.487665;51.379027;580
9;2510;Hagen Polizeipräsidium;Hagen;POLI;de:05914:2510;2;RiLox;de:05914:2510:2;3;2;de:05914:2510:0:2;7.486838;51.379531;580
9;2511;Hagen Hag. Entsorgungsbetr.;Hagen;HEB;de:05914:2511;1;RiAlexander;de:05914:2511:1;1;1;de:05914:2511:0:1;7.456816;51.377821;580
9;2511;Hagen Hag. Entsorgungsbetr.;Hagen;HEB;de:05914:2511;2;RiFuhrpark;de:05914:2511:2;2;2;de:05914:2511:0:2;7.455406;51.377782;580
9;2515;Hagen Krähnockenstraße;Hagen;KRAE;de:05914:2515;0;;;1;1;de:05914:2515:0:1;7.483829;51.346164;580
9;2515;Hagen Krähnockenstraße;Hagen;KRAE;de:05914:2515;0;;;2;2;de:05914:2515:0:2;7.484107;51.346147;580
9;2516;Hagen Volkshochschule;Hagen;VHS;de:05914:2516;1;Richtung Kuhlerkamp;de:05914:2516:1;1;4;de:05914:2516:0:4;7.456089;51.356941;580
9;2516;Hagen Volkshochschule;Hagen;VHS;de:05914:2516;2;Stamitte von KuKa;de:05914:2516:2;2;3;de:05914:2516:0:3;7.455442;51.356532;580
9;2516;Hagen Volkshochschule;Hagen;VHS;de:05914:2516;3;Richtung Haspe;de:05914:2516:3;3;2;de:05914:2516:0:2;7.455559;51.356386;580
9;2516;Hagen Volkshochschule;Hagen;VHS;de:05914:2516;4;Stadtmitte von Haspe;de:05914:2516:4;4;1;de:05914:2516:0:1;7.455900;51.356532;580
9;2517;Hagen C. D. Wälzholz;Hagen;CDW;de:05914:2517;0;;;1;1;de:05914:2517:0:1;7.498741;51.392313;582
9;2517;Hagen C. D. Wälzholz;Hagen;CDW;de:05914:2517;0;;;2;2;de:05914:2517:0:2;7.499109;51.392179;582
9;2518;Hagen Waldfriedhof;Hagen;WHOF;de:05914:2518;0;;;1;1;de:05914:2518:0:1;7.486829;51.385334;582
9;2518;Hagen Waldfriedhof;Hagen;WHOF;de:05914:2518;0;;;2;2;de:05914:2518:0:2;7.486793;51.385401;582
9;2520;Hagen BasseDruck;Hagen;BASS;de:05914:2520;0;;;1;1;de:05914:2520:0:1;7.434269;51.348823;587
9;2520;Hagen BasseDruck;Hagen;BASS;de:05914:2520;0;;;2;2;de:05914:2520:0:2;7.433954;51.348975;587
9;2520;Hagen BasseDruck;Hagen;BASS;de:05914:2520;0;;;3;3;de:05914:2520:0:3;7.435984;51.350495;587
9;2520;Hagen BasseDruck;Hagen;BASS;de:05914:2520;0;;;4;4;de:05914:2520:0:4;7.434915;51.350467;587
9;2521;Hagen ARCADEON;Hagen;ARC;de:05914:2521;0;;;1;1;de:05914:2521:0:1;7.520040;51.378270;584
9;2521;Hagen ARCADEON;Hagen;ARC;de:05914:2521;0;;;2;2;de:05914:2521:0:2;7.520067;51.378359;584
9;2521;Hagen ARCADEON;Hagen;ARC;de:05914:2521;0;;;3;3;de:05914:2521:0:3;7.519977;51.378337;584
9;2522;Hagen Im Mühlenwert;Hagen;IMMW;de:05914:2522;1;RiCity;de:05914:2522:1;1;1;de:05914:2522:0:1;7.405316;51.341495;587
9;2522;Hagen Im Mühlenwert;Hagen;IMMW;de:05914:2522;2;Gev;de:05914:2522:2;2;2;de:05914:2522:0:2;7.404642;51.341327;587
9;2523;Hagen Mercedes Jürgens;Hagen;JÜRG;de:05914:2523;1;Richtung Stadtmitte;de:05914:2523:1;1;1;de:05914:2523:0:1;7.439317;51.350316;587
9;2523;Hagen Mercedes Jürgens;Hagen;JÜRG;de:05914:2523;2;Richtung Haspe;de:05914:2523:2;2;2;de:05914:2523:0:2;7.440772;51.350731;587
9;2524;Hagen Lange Eck;Hagen;LECK;de:05914:2524;1;Herbeck;de:05914:2524:1;1;1;de:05914:2524:0:1;7.527136;51.375898;584
9;2524;Hagen Lange Eck;Hagen;LECK;de:05914:2524;1;Herbeck;de:05914:2524:1;2;4;de:05914:2524:0:4;7.526849;51.376128;584
9;2524;Hagen Lange Eck;Hagen;LECK;de:05914:2524;2;Halden;de:05914:2524:2;3;2;de:05914:2524:0:2;7.526571;51.376391;584
9;2524;Hagen Lange Eck;Hagen;LECK;de:05914:2524;3;Wende;de:05914:2524:3;4;3;de:05914:2524:0:3;7.526175;51.375836;584
9;2525;Hagen Deutsches Rotes Kreuz;Hagen;DRK;de:05914:2525;1;RiTondern;de:05914:2525:1;1;1;de:05914:2525:0:1;7.500726;51.364356;580
9;2525;Hagen Deutsches Rotes Kreuz;Hagen;DRK;de:05914:2525;2;RiHaßleyer;de:05914:2525:2;2;2;de:05914:2525:0:2;7.501310;51.363695;580
9;2526;Hagen Familienbad Hengstey;Hagen;FAHE;de:05914:2526;0;;;1;1;de:05914:2526:0:1;7.456277;51.404274;582
9;2528;Hagen Friedensplatz;Hagen;FRPL;de:05914:2528;0;;;1;1;de:05914:2528:0:1;7.465081;51.370599;580
9;2528;Hagen Friedensplatz;Hagen;FRPL;de:05914:2528;0;;;2;2;de:05914:2528:0:2;7.465081;51.370548;580
9;2539;Hagen Wienbrauk;Hagen;WIEN;de:05914:2539;0;;;1;1;de:05914:2539:0:1;7.498759;51.385861;584
9;2539;Hagen Wienbrauk;Hagen;WIEN;de:05914:2539;0;;;2;2;de:05914:2539:0:2;7.498840;51.385889;584
9;2540;Hagen Lützowstr.;Hagen;LÜTZ;de:05914:2540;1;RiTond;de:05914:2540:1;1;1;de:05914:2540:0:1;7.490288;51.365360;580
9;2540;Hagen Lützowstr.;Hagen;LÜTZ;de:05914:2540;1;RiTond;de:05914:2540:1;2;4;de:05914:2540:0:4;7.490485;51.365484;580
9;2540;Hagen Lützowstr.;Hagen;LÜTZ;de:05914:2540;2;RiCity;de:05914:2540:2;3;2;de:05914:2540:0:2;7.490701;51.365602;580
9;2542;Hagen Delstern Friedhof;Hagen;DEFR;de:05914:2542;0;;;1;1;de:05914:2542:0:1;7.508829;51.345704;580
9;2542;Hagen Delstern Friedhof;Hagen;DEFR;de:05914:2542;0;;;2;2;de:05914:2542:0:2;7.508874;51.345670;580
9;2543;Hagen Am Waldwege;Hagen;AMWA;de:05914:2543;0;;;1;1;de:05914:2543:0:1;7.480128;51.347454;580
9;2543;Hagen Am Waldwege;Hagen;AMWA;de:05914:2543;0;;;2;2;de:05914:2543:0:2;7.480325;51.347387;580
9;2545;Hagen Am Weitblick;Hagen;AWEB;de:05914:2545;0;;;1;1;de:05914:2545:0:1;7.487117;51.344738;580
9;2545;Hagen Am Weitblick;Hagen;AWEB;de:05914:2545;0;;;2;2;de:05914:2545:0:2;7.486874;51.344710;580
9;2547;Hagen Hubertusstr.;Hagen;HUBE;de:05914:2547;0;;;1;1;de:05914:2547:0:1;7.490081;51.345238;580
9;2547;Hagen Hubertusstr.;Hagen;HUBE;de:05914:2547;0;;;2;2;de:05914:2547:0:2;7.489713;51.345109;580
9;2549;Hagen Feldmühlenstr.;Hagen;FMST;de:05914:2549;0;;;1;1;de:05914:2549:0:1;7.506143;51.385469;584
9;2549;Hagen Feldmühlenstr.;Hagen;FMST;de:05914:2549;0;;;2;2;de:05914:2549:0:2;7.506242;51.385547;584
9;2550;Hagen Rubensstr.;Hagen;RUBE;de:05914:2550;1;RiTond;de:05914:2550:1;1;1;de:05914:2550:0:1;7.486640;51.363756;580
9;2550;Hagen Rubensstr.;Hagen;RUBE;de:05914:2550;2;RiCity;de:05914:2550:2;2;2;de:05914:2550:0:2;7.486048;51.363611;580
9;2551;Hagen Dahlenkampstr.;Hagen;DHKA;de:05914:2551;1;Ri Markt;de:05914:2551:1;1;1;de:05914:2551:0:1;7.477415;51.357059;580
9;2551;Hagen Dahlenkampstr.;Hagen;DHKA;de:05914:2551;2;Ri City;de:05914:2551:2;2;2;de:05914:2551:0:2;7.477298;51.357356;580
9;2557;Hagen Neue Str.;Hagen;NEU;de:05914:2557;0;;;1;1;de:05914:2557:0:1;7.403169;51.339217;587
9;2557;Hagen Neue Str.;Hagen;NEU;de:05914:2557;0;;;2;2;de:05914:2557:0:2;7.403025;51.339194;587
9;2557;Hagen Neue Str.;Hagen;NEU;de:05914:2557;0;;;3;3;de:05914:2557:0:3;7.403223;51.339177;587
9;2558;Hagen Elmarweg;Hagen;ELMAR;de:05914:2558;0;;;1;1;de:05914:2558:0:1;7.483631;51.344766;580
9;2558;Hagen Elmarweg;Hagen;ELMAR;de:05914:2558;0;;;2;2;de:05914:2558:0:2;7.483739;51.344744;580
9;2559;Hagen Realschule Haspe;Hagen;RSHA;de:05914:2559;1;RiHaspe;de:05914:2559:1;1;1;de:05914:2559:0:1;7.427864;51.347751;587
9;2559;Hagen Realschule Haspe;Hagen;RSHA;de:05914:2559;1;RiHaspe;de:05914:2559:1;2;3;de:05914:2559:0:3;7.427873;51.347499;587
9;2559;Hagen Realschule Haspe;Hagen;RSHA;de:05914:2559;1;RiHaspe;de:05914:2559:1;3;4;de:05914:2559:0:4;7.427873;51.347499;587
9;2559;Hagen Realschule Haspe;Hagen;RSHA;de:05914:2559;2;RiCity;de:05914:2559:2;4;2;de:05914:2559:0:2;7.428007;51.347039;587
9;2560;Hagen Martinstr.;Hagen;MART;de:05914:2560;0;;;1;1;de:05914:2560:0:1;7.401651;51.340462;587
9;2560;Hagen Martinstr.;Hagen;MART;de:05914:2560;0;;;2;2;de:05914:2560:0:2;7.401049;51.340446;587
9;2560;Hagen Martinstr.;Hagen;MART;de:05914:2560;0;;;3;3;de:05914:2560:0:3;7.401417;51.340440;587
9;2561;Hagen Westerbauer Schleife;Hagen;WSCH;de:05914:2561;0;;;1;1;de:05914:2561:0:1;7.391509;51.338235;587,679
9;2561;Hagen Westerbauer Schleife;Hagen;WSCH;de:05914:2561;0;;;2;2;de:05914:2561:0:2;7.391015;51.338150;587,679
9;2561;Hagen Westerbauer Schleife;Hagen;WSCH;de:05914:2561;0;;;3;3;de:05914:2561:0:3;7.391320;51.338033;587,679
9;2561;Hagen Westerbauer Schleife;Hagen;WSCH;de:05914:2561;0;;;4;4;de:05914:2561:0:4;7.391203;51.338195;587,679
9;2561;Hagen Westerbauer Schleife;Hagen;WSCH;de:05914:2561;0;;;5;5;de:05914:2561:0:5;7.391114;51.338162;587,679
9;2561;Hagen Westerbauer Schleife;Hagen;WSCH;de:05914:2561;0;;;6;6;de:05914:2561:0:6;7.391608;51.338134;587,679
9;2561;Hagen Westerbauer Schleife;Hagen;WSCH;de:05914:2561;0;;;7;7;de:05914:2561:0:7;7.391608;51.338134;587,679
9;2562;Hagen Fichte-Gymnasium;Hagen;FGYM;de:05914:2562;0;;;1;1;de:05914:2562:0:1;7.470147;51.356302;580
9;2562;Hagen Fichte-Gymnasium;Hagen;FGYM;de:05914:2562;0;;;2;2;de:05914:2562:0:2;7.470318;51.356358;580
9;2563;Wiblingwerde Todtenhelle;Wiblingwerde;TODT;de:05962:3348;0;;;1;1;de:05962:3348:0:1;7.601661;51.321351;584
9;2563;Wiblingwerde Todtenhelle;Wiblingwerde;TODT;de:05962:3348;0;;;2;2;de:05962:3348:0:2;7.601463;51.321345;584
9;2564;Hagen Elmenhorststr.;Hagen;ELMEN;de:05914:2564;0;;;1;1;de:05914:2564:0:1;7.515800;51.349968;580
9;2564;Hagen Elmenhorststr.;Hagen;ELMEN;de:05914:2564;0;;;2;2;de:05914:2564:0:2;7.515719;51.349861;580
9;2565;Hagen Hammerstein;Hagen;HAM;de:05914:2565;0;;;1;1;de:05914:2565:0:1;7.475924;51.400115;582
9;2565;Hagen Hammerstein;Hagen;HAM;de:05914:2565;0;;;2;2;de:05914:2565:0:2;7.476094;51.400121;582
9;2566;Hagen Sportanlage Hoheleye;Hagen;TSV;de:05914:2566;0;;;1;1;de:05914:2566:0:1;7.490602;51.386007;582
9;2566;Hagen Sportanlage Hoheleye;Hagen;TSV;de:05914:2566;0;;;2;2;de:05914:2566:0:2;7.490503;51.385906;582
9;2566;Hagen Sportanlage Hoheleye;Hagen;TSV;de:05914:2566;0;;;3;3;de:05914:2566:0:3;7.490674;51.385928;582
9;2569;Hagen Am Waldesrand;Hagen;WRAND;de:05914:2569;0;;;1;1;de:05914:2569:0:1;7.490009;51.353755;580
9;2569;Hagen Am Waldesrand;Hagen;WRAND;de:05914:2569;0;;;2;2;de:05914:2569:0:2;7.489802;51.353530;580
9;2570;Hagen Felsental;Hagen;FTAL;de:05914:2570;0;;;1;1;de:05914:2570:0:1;7.491967;51.352728;580
9;2570;Hagen Felsental;Hagen;FTAL;de:05914:2570;0;;;2;2;de:05914:2570:0:2;7.491482;51.352947;580
9;2619;Hagen Steinruther Str.;Hagen;STRU;de:05914:2619;1;Ri Bissingheim;de:05914:2619:1;1;1;de:05914:2619:0:1;7.499091;51.359185;580
9;2619;Hagen Steinruther Str.;Hagen;STRU;de:05914:2619;2;Ri City;de:05914:2619:2;2;2;de:05914:2619:0:2;7.499244;51.359572;580
9;2620;Hagen Ambrock Delsterner Str.;Hagen;AMDE;de:05914:2620;0;;;1;1;de:05914:2620:0:1;7.518737;51.319262;586
9;2620;Hagen Ambrock Delsterner Str.;Hagen;AMDE;de:05914:2620;0;;;2;2;de:05914:2620:0:2;7.518998;51.319071;586
9;2740;Hagen Grabweg;Hagen;GRAB;de:05914:2740;0;;;1;1;de:05914:2740:0:1;7.532589;51.298400;586
9;2740;Hagen Grabweg;Hagen;GRAB;de:05914:2740;0;;;2;2;de:05914:2740:0:2;7.532670;51.298440;586
9;2741;Hagen Westfalenbad;Hagen;WEFA;de:05914:2741;1;1/440;de:05914:2741:1;1;1;de:05914:2741:1:1;7.476489;51.372359;580
9;2741;Hagen Westfalenbad;Hagen;WEFA;de:05914:2741;1;1/440;de:05914:2741:1;2;2;de:05914:2741:1:2;7.476624;51.372191;580
9;2741;Hagen Westfalenbad;Hagen;WEFA;de:05914:2741;1;1/440;de:05914:2741:1;3;3;de:05914:2741:1:3;7.476795;51.372012;580
9;2741;Hagen Westfalenbad;Hagen;WEFA;de:05914:2741;2;2/440;de:05914:2741:2;4;;de:05914:2741:2;7.476660;51.372231;580
9;2743;Hagen Hüttenplatz GWG;Hagen;HÜTT;de:05914:2743;0;;;1;1;de:05914:2743:0:1;7.421557;51.345934;587
9;2743;Hagen Hüttenplatz GWG;Hagen;HÜTT;de:05914:2743;0;;;2;2;de:05914:2743:0:2;7.421378;51.346046;587
9;2743;Hagen Hüttenplatz GWG;Hagen;HÜTT;de:05914:2743;0;;;3;3;de:05914:2743:0:3;7.421450;51.345984;587
9;2744;Hagen Vollbrinkstr.;Hagen;VOLL;de:05914:2744;0;;;1;1;de:05914:2744:0:1;7.424962;51.345838;587
9;2744;Hagen Vollbrinkstr.;Hagen;VOLL;de:05914:2744;0;;;2;2;de:05914:2744:0:2;7.424522;51.345821;587
9;2744;Hagen Vollbrinkstr.;Hagen;VOLL;de:05914:2744;0;;;3;3;de:05914:2744:0:3;7.424764;51.345833;587
9;2749;Hagen Kaltwalzwerk;Hagen;KALT;de:05914:2749;0;;;1;1;de:05914:2749:0:1;7.579535;51.348509;584
9;2749;Hagen Kaltwalzwerk;Hagen;KALT;de:05914:2749;0;;;2;2;de:05914:2749:0:2;7.579391;51.348447;584
9;2753;Hagen Reh Schule;Hagen;RSCH;de:05914:2753;1;Ri Reh Schälker;de:05914:2753:1;1;1;de:05914:2753:0:1;7.553700;51.373941;584
9;2753;Hagen Reh Schule;Hagen;RSCH;de:05914:2753;2;Ri Hohenlimburg;de:05914:2753:2;2;2;de:05914:2753:0:2;7.553763;51.374317;584
9;2755;Hagen Reh Schälker Landstr.;Hagen;RSL;de:05914:2755;0;;;1;1;de:05914:2755:0:1;7.555371;51.375006;584
9;2762;Hagen Frachtzentrum;Hagen;FRAC;de:05914:2762;0;;;1;1;de:05914:2762:0:1;7.510482;51.392319;582
9;2762;Hagen Frachtzentrum;Hagen;FRAC;de:05914:2762;0;;;2;2;de:05914:2762:0:2;7.510257;51.392324;582
9;2763;Hagen Jägerstr.;Hagen;JAGE;de:05914:2763;0;;;1;1;de:05914:2763:0:1;7.487808;51.347976;580
9;2763;Hagen Jägerstr.;Hagen;JAGE;de:05914:2763;0;;;2;2;de:05914:2763:0:2;7.487566;51.348161;580
9;2772;Hagen CineStar;Hagen;CINE;de:05914:2772;1;Ri Oberhagen;de:05914:2772:1;1;1;de:05914:2772:0:1;7.478097;51.354271;580
9;2772;Hagen CineStar;Hagen;CINE;de:05914:2772;1;Ri Oberhagen;de:05914:2772:1;2;3;de:05914:2772:0:3;7.478331;51.354198;580
9;2772;Hagen CineStar;Hagen;CINE;de:05914:2772;2;Ri City;de:05914:2772:2;3;2;de:05914:2772:0:2;7.478421;51.354102;580
9;2774;Hagen Düinghauser Weg;Hagen;DÜWE;de:05914:2774;0;;;1;1;de:05914:2774:0:1;7.522277;51.292064;586
9;2774;Hagen Düinghauser Weg;Hagen;DÜWE;de:05914:2774;0;;;2;2;de:05914:2774:0:2;7.522384;51.292025;586
9;2870;Hagen Florianstr.;Hagen;FLOR;de:05914:2870;1;Ri Halden;de:05914:2870:1;1;1;de:05914:2870:0:1;7.543728;51.375180;584
9;2870;Hagen Florianstr.;Hagen;FLOR;de:05914:2870;1;Ri Halden;de:05914:2870:1;2;2;de:05914:2870:0:2;7.544743;51.373969;584
9;2870;Hagen Florianstr.;Hagen;FLOR;de:05914:2870;2;Ri Hohenlimburg;de:05914:2870:2;3;;de:05914:2870:2;7.544645;51.374014;584
9;2871;Hagen Rolandstr.;Hagen;ROST;de:05914:2871;0;;;1;1;de:05914:2871:0:1;7.434763;51.347056;587
9;2871;Hagen Rolandstr.;Hagen;ROST;de:05914:2871;0;;;2;2;de:05914:2871:0:2;7.434826;51.346972;587
9;2879;Hagen Gründelbusch;Hagen;GBUH;de:05914:2879;0;;;1;1;de:05914:2879:0:1;7.523813;51.382430;584
9;2879;Hagen Gründelbusch;Hagen;GBUH;de:05914:2879;0;;;2;2;de:05914:2879:0:2;7.523732;51.382357;584
9;2935;Hagen Goldbergschule;Hagen;GOBS;de:05914:2935;0;;;1;1;de:05914:2935:0:1;7.477316;51.353429;580
9;2935;Hagen Goldbergschule;Hagen;GOBS;de:05914:2935;0;;;2;2;de:05914:2935:0:2;7.477244;51.353564;580
9;2973;Hagen Wasserschloss Werdringen;Hagen;WAWE;de:05914:2973;1;Endstelle;de:05914:2973:1;1;1;de:05914:2973:0:1;7.417192;51.387470;588
9;8025;Gevelsberg Rathaus;Gevelsberg;GERA;de:05954:8025;0;;;1;1;de:05954:8025:0:1;7.341311;51.320379;679
9;8025;Gevelsberg Rathaus;Gevelsberg;GERA;de:05954:8025;0;;;2;2;de:05954:8025:0:2;7.341293;51.320447;679
9;8026;Gevelsberg Commerzbank;Gevelsberg;GECO;de:05954:8026;0;;;1;1;de:05954:8026:0:1;7.338418;51.320430;679
9;8072;Wetter Kaiserstr.;Wetter (Ruhr);WEKA;de:05954:8072;0;;;1;1;de:05954:8072:0:1;7.389515;51.384521;476
9;8080;Wetter Bf.;Wetter (Ruhr);WEBF;de:05954:8080;1;Zugang;de:05954:8080:1;1;;de:05954:8080:1;7.386523;51.386248;476
9;8080;Wetter Bf.;Wetter (Ruhr);WEBF;de:05954:8080;2;Bus;de:05954:8080:2;2;1;de:05954:8080:2:1;7.387260;51.385738;476
9;8080;Wetter Bf.;Wetter (Ruhr);WEBF;de:05954:8080;2;Bus;de:05954:8080:2;3;2;de:05954:8080:2:2;7.387098;51.385855;476
9;8080;Wetter Bf.;Wetter (Ruhr);WEBF;de:05954:8080;2;Bus;de:05954:8080:2;4;3;de:05954:8080:2:3;7.386874;51.386046;476
9;8080;Wetter Bf.;Wetter (Ruhr);WEBF;de:05954:8080;2;Bus;de:05954:8080:2;5;4;de:05954:8080:2:4;7.386649;51.386186;476
9;8080;Wetter Bf.;Wetter (Ruhr);WEBF;de:05954:8080;60;Eingang Nordost;de:05954:8080:60;6;;de:05954:8080:60;7.386406;51.386310;476
9;8080;Wetter Bf.;Wetter (Ruhr);WEBF;de:05954:8080;61;Eingang Südost;de:05954:8080:61;7;;de:05954:8080:61;7.387215;51.385749;476
9;8080;Wetter Bf.;Wetter (Ruhr);WEBF;de:05954:8080;62;Eingang Südwest;de:05954:8080:62;8;;de:05954:8080:62;7.386613;51.385575;476
9;8080;Wetter Bf.;Wetter (Ruhr);WEBF;de:05954:8080;70;Unterführung Nord;de:05954:8080:70;9;;de:05954:8080:70;7.386200;51.386231;476
9;8080;Wetter Bf.;Wetter (Ruhr);WEBF;de:05954:8080;71;Unterführung Süd;de:05954:8080:71;10;;de:05954:8080:71;7.386909;51.385659;476
9;8080;Wetter Bf.;Wetter (Ruhr);WEBF;de:05954:8080;80;Taxi;de:05954:8080:80;11;;de:05954:8080:80;7.386721;51.386130;476
9;8080;Wetter Bf.;Wetter (Ruhr);WEBF;de:05954:8080;81;B+R;de:05954:8080:81;12;;de:05954:8080:81;7.386649;51.386175;476
9;8080;Wetter Bf.;Wetter (Ruhr);WEBF;de:05954:8080;89;Schienenersatzv.;de:05954:8080:89;13;;de:05954:8080:89;7.386784;51.386091;476
9;8080;Wetter Bf.;Wetter (Ruhr);WEBF;de:05954:8080;90;DB;de:05954:8080:90;14;1;de:05954:8080:90:1;7.385634;51.386713;476
9;8080;Wetter Bf.;Wetter (Ruhr);WEBF;de:05954:8080;90;DB;de:05954:8080:90;15;2;de:05954:8080:90:2;7.385490;51.386652;476
9;8080;Wetter Bf.;Wetter (Ruhr);WEBF;de:05954:8080;98;S-Bahn;de:05954:8080:98;16;;de:05954:8080:98;7.385823;51.386467;476
9;8087;Gevelsberg Am Schilken;Gevelsberg;SCHI;de:05954:8087;0;;;1;1;;7.377836;51.339576;679
9;8087;Gevelsberg Am Schilken;Gevelsberg;SCHI;de:05954:8087;0;;;2;2;;7.377854;51.339615;679
9;8088;Gevelsberg-Knapp;Gevelsberg;KNAP;de:05954:8088;1;Zugang Gleis 1;de:05954:8088:1;1;;de:05954:8088:1;7.377989;51.336843;679
9;8088;Gevelsberg-Knapp;Gevelsberg;KNAP;de:05954:8088;2;Bus;de:05954:8088:2;2;1;de:05954:8088:2:1;7.378528;51.337499;679
9;8088;Gevelsberg-Knapp;Gevelsberg;KNAP;de:05954:8088;3;Zugang Gleis 2;de:05954:8088:3;3;;de:05954:8088:3;7.377396;51.337067;679
9;8088;Gevelsberg-Knapp;Gevelsberg;KNAP;de:05954:8088;70;Überführung;de:05954:8088:70;4;;de:05954:8088:70;7.377477;51.336893;679
9;8088;Gevelsberg-Knapp;Gevelsberg;KNAP;de:05954:8088;80;P+R;de:05954:8088:80;5;;de:05954:8088:80;7.378627;51.337337;679
9;8088;Gevelsberg-Knapp;Gevelsberg;KNAP;de:05954:8088;89;Schienenersatzv.;de:05954:8088:89;6;;de:05954:8088:89;7.378295;51.337415;679
9;8088;Gevelsberg-Knapp;Gevelsberg;KNAP;de:05954:8088;97;Gleis 1;de:05954:8088:97;7;1;de:05954:8088:97:1;7.377675;51.336899;679
9;8088;Gevelsberg-Knapp;Gevelsberg;KNAP;de:05954:8088;97;Gleis 1;de:05954:8088:97;8;;de:05954:8088:97;7.377899;51.336899;679
9;8088;Gevelsberg-Knapp;Gevelsberg;KNAP;de:05954:8088;98;Gleis 2;de:05954:8088:98;9;2;de:05954:8088:98:2;7.377657;51.336933;679
9;8088;Gevelsberg-Knapp;Gevelsberg;KNAP;de:05954:8088;98;Gleis 2;de:05954:8088:98;10;;de:05954:8088:98;7.377836;51.337011;679
9;8217;Breckerfeld Busbahnhof;Breckerfeld;BRBF;de:05954:8217;0;;;1;1;de:05954:8217:0:1;7.466653;51.261837;674
9;8217;Breckerfeld Busbahnhof;Breckerfeld;BRBF;de:05954:8217;0;;;2;2;de:05954:8217:0:2;7.466491;51.261848;674
9;8217;Breckerfeld Busbahnhof;Breckerfeld;BRBF;de:05954:8217;0;;;3;3;de:05954:8217:0:3;7.466644;51.261702;674
9;8217;Breckerfeld Busbahnhof;Breckerfeld;BRBF;de:05954:8217;0;;;4;4;de:05954:8217:0:4;7.466069;51.262146;674
9;8218;Breckerfeld Rathaus;Breckerfeld;BRRA;de:05954:8218;0;;;1;1;de:05954:8218:0:1;7.468539;51.258419;674
9;8218;Breckerfeld Rathaus;Breckerfeld;BRRA;de:05954:8218;0;;;2;2;de:05954:8218:0:2;7.469033;51.257390;674
9;8219;Breckerfeld Breckerfeld;Breckerfeld;BRFE;de:05954:8219;0;;;1;1;de:05954:8219:0:1;7.463886;51.262242;674
9;8219;Breckerfeld Breckerfeld;Breckerfeld;BRFE;de:05954:8219;0;;;2;2;de:05954:8219:0:2;7.464021;51.262011;674
9;8220;Breckerfeld Windmühlencenter;Breckerfeld;WIND;de:05954:8220;0;;;1;1;;7.461802;51.263270;674
9;8220;Breckerfeld Windmühlencenter;Breckerfeld;WIND;de:05954:8220;0;;;2;2;;7.461524;51.263568;674
9;8221;Breckerfeld Brauck;Breckerfeld;BRBR;de:05954:8221;0;;;1;1;;7.455828;51.268453;674
9;8221;Breckerfeld Brauck;Breckerfeld;BRBR;de:05954:8221;0;;;2;2;;7.455927;51.268352;674
9;8222;Breckerfeld Königsheide;Breckerfeld;BRKÖ;de:05954:8222;0;;;1;1;de:05954:8222:0:1;7.450923;51.273089;674
9;8222;Breckerfeld Königsheide;Breckerfeld;BRKÖ;de:05954:8222;0;;;2;2;de:05954:8222:0:2;7.450825;51.273000;674
9;8222;Breckerfeld Königsheide;Breckerfeld;BRKÖ;de:05954:8222;0;;;3;3;de:05954:8222:0:3;7.447672;51.273359;674
9;8222;Breckerfeld Königsheide;Breckerfeld;BRKÖ;de:05954:8222;0;;;4;4;de:05954:8222:0:4;7.448139;51.273157;674
9;8282;Gevelsberg Talstr.;Gevelsberg;GETA;de:05954:8282;0;;;1;1;;7.384583;51.336422;679
9;8282;Gevelsberg Talstr.;Gevelsberg;GETA;de:05954:8282;0;;;2;2;;7.384583;51.336388;679
9;8283;Gevelsberg Poeten;Gevelsberg;GEPO;de:05954:8283;0;;;1;1;;7.379193;51.334688;679
9;8283;Gevelsberg Poeten;Gevelsberg;GEPO;de:05954:8283;0;;;2;2;;7.379238;51.334682;679
9;8284;Gevelsberg Kirchwinkelstr.;Gevelsberg;GEKI;de:05954:8284;0;;;1;1;;7.372213;51.331023;679
9;8284;Gevelsberg Kirchwinkelstr.;Gevelsberg;GEKI;de:05954:8284;0;;;2;2;;7.372572;51.331112;679
9;8285;Gevelsberg Hagebölling;Gevelsberg;GEHA;de:05954:8285;0;;;1;1;;7.367542;51.329187;679
9;8285;Gevelsberg Hagebölling;Gevelsberg;GEHA;de:05954:8285;0;;;2;2;;7.367569;51.329176;679
9;8286;Gevelsberg Hundeicken;Gevelsberg;GEHU;de:05954:8286;0;;;1;1;;7.359771;51.327200;679
9;8286;Gevelsberg Hundeicken;Gevelsberg;GEHU;de:05954:8286;0;;;2;2;;7.360149;51.327256;679
9;8287;Gevelsberg Bergstr.;Gevelsberg;GEBE;de:05954:8287;0;;;1;1;;7.354902;51.325915;679
9;8287;Gevelsberg Bergstr.;Gevelsberg;GEBE;de:05954:8287;0;;;2;2;;7.354831;51.325887;679
9;8288;Gevelsberg Haufe;Gevelsberg;GEAU;de:05954:8288;0;;;1;1;;7.349279;51.323866;679
9;8288;Gevelsberg Haufe;Gevelsberg;GEAU;de:05954:8288;0;;;2;2;;7.349225;51.323793;679
9;8289;Gevelsberg Gesundheitszentrum;Gevelsberg;GENI;de:05954:8289;0;;;1;1;;7.345955;51.321777;679
9;8289;Gevelsberg Gesundheitszentrum;Gevelsberg;GENI;de:05954:8289;0;;;2;2;;7.346368;51.322058;679
9;8293;Gevelsberg Am Schultenhof;Gevelsberg;GAMS;de:05954:8293;0;;;1;1;de:05954:8293:0:1;7.381816;51.335754;679
9;8293;Gevelsberg Am Schultenhof;Gevelsberg;GAMS;de:05954:8293;0;;;2;2;de:05954:8293:0:2;7.382103;51.335816;679
9;8294;Breckerfeld Schule;Breckerfeld;BRSH;de:05954:8294;0;;;1;1;de:05954:8294:0:1;7.468602;51.261207;674
9;8294;Breckerfeld Schule;Breckerfeld;BRSH;de:05954:8294;0;;;2;2;de:05954:8294:0:2;7.469159;51.260983;674
9;8294;Breckerfeld Schule;Breckerfeld;BRSH;de:05954:8294;0;;;3;3;de:05954:8294:0:3;7.469186;51.260836;674
9;8295;Wetter Ringstr./Harkortsee;Wetter (Ruhr);WERI;de:05954:8295;0;;;1;1;;7.397033;51.382845;476
9;8295;Wetter Ringstr./Harkortsee;Wetter (Ruhr);WERI;de:05954:8295;0;;;2;2;;7.396845;51.382778;476
9;8296;Wetter Friedrichstr.;Wetter (Ruhr);WFRI;de:05954:8296;0;;;1;1;;7.394087;51.382940;476
9;8296;Wetter Friedrichstr.;Wetter (Ruhr);WFRI;de:05954:8296;0;;;2;2;;7.394033;51.383007;476
9;8299;Breckerfeld Eicken;Breckerfeld;BREI;de:05954:8299;0;;;1;1;;7.457778;51.307948;674
9;8299;Breckerfeld Eicken;Breckerfeld;BREI;de:05954:8299;0;;;2;2;;7.457481;51.307802;674
9;8300;Breckerfeld Grüne;Breckerfeld;BRGR;de:05954:8300;0;;;1;1;;7.458847;51.291665;674
9;8300;Breckerfeld Grüne;Breckerfeld;BRGR;de:05954:8300;0;;;2;2;;7.458847;51.291750;674
9;8301;Breckerfeld Heide;Breckerfeld;BRHE;de:05954:8301;0;;;1;1;;7.459511;51.305168;674
9;8301;Breckerfeld Heide;Breckerfeld;BRHE;de:05954:8301;0;;;2;2;;7.459655;51.305151;674
9;8304;Breckerfeld Neuenloh;Breckerfeld;BRNE;de:05954:8304;0;;;1;1;;7.456430;51.282109;674
9;8304;Breckerfeld Neuenloh;Breckerfeld;BRNE;de:05954:8304;0;;;2;2;;7.456502;51.282406;674
9;8307;Breckerfeld Schaffland;Breckerfeld;BRSC;de:05954:8307;0;;;1;1;;7.456646;51.288396;674
9;8307;Breckerfeld Schaffland;Breckerfeld;BRSC;de:05954:8307;0;;;2;2;;7.456646;51.288126;674
9;8309;Breckerfeld Sonnenschein;Breckerfeld;BRSO;de:05954:8309;0;;;1;1;;7.452199;51.276439;674
9;8309;Breckerfeld Sonnenschein;Breckerfeld;BRSO;de:05954:8309;0;;;2;2;;7.451983;51.276225;674
9;8312;Breckerfeld Zurstraße;Breckerfeld;BRZU;de:05954:8312;0;;;1;1;de:05954:8312:0:1;7.461550;51.300069;674
9;8312;Breckerfeld Zurstraße;Breckerfeld;BRZU;de:05954:8312;0;;;2;2;de:05954:8312:0:2;7.461461;51.299979;674
9;8313;Gevelsberg Hbf.;Gevelsberg;GEBF;de:05954:8313;1;Zugang Haupt;de:05954:8313:1;1;;de:05954:8313:1;7.339200;51.323956;679
9;8313;Gevelsberg Hbf.;Gevelsberg;GEBF;de:05954:8313;2;Bus Steig 2;de:05954:8313:2;2;2;de:05954:8313:2:2;7.339407;51.323877;679
9;8313;Gevelsberg Hbf.;Gevelsberg;GEBF;de:05954:8313;3;Bus Steig 3;de:05954:8313:3;3;3;de:05954:8313:3:3;7.339892;51.324118;679
9;8313;Gevelsberg Hbf.;Gevelsberg;GEBF;de:05954:8313;4;Bus Steig 1;de:05954:8313:4;4;1;de:05954:8313:4:1;7.339173;51.323899;679
9;8313;Gevelsberg Hbf.;Gevelsberg;GEBF;de:05954:8313;5;Zugang Parkplatz;de:05954:8313:5;5;;de:05954:8313:5;7.340161;51.324405;679
9;8313;Gevelsberg Hbf.;Gevelsberg;GEBF;de:05954:8313;6;Pause;de:05954:8313:6;6;4;de:05954:8313:6:4;7.340071;51.323883;679
9;8313;Gevelsberg Hbf.;Gevelsberg;GEBF;de:05954:8313;70;Zwischengeschoss;de:05954:8313:70;7;;de:05954:8313:70;7.339676;51.324343;679
9;8313;Gevelsberg Hbf.;Gevelsberg;GEBF;de:05954:8313;80;P+R;de:05954:8313:80;8;;de:05954:8313:80;7.340314;51.324399;679
9;8313;Gevelsberg Hbf.;Gevelsberg;GEBF;de:05954:8313;89;Schienenersatzv.;de:05954:8313:89;9;;de:05954:8313:89;7.339191;51.323956;679
9;8313;Gevelsberg Hbf.;Gevelsberg;GEBF;de:05954:8313;97;Gleis 1 (S);de:05954:8313:97;10;1;de:05954:8313:97:1;7.340143;51.324573;679
9;8313;Gevelsberg Hbf.;Gevelsberg;GEBF;de:05954:8313;97;Gleis 1 (S);de:05954:8313:97;11;;de:05954:8313:97;7.339901;51.324410;679
9;8313;Gevelsberg Hbf.;Gevelsberg;GEBF;de:05954:8313;98;Gleis 2 (S);de:05954:8313:98;12;2;de:05954:8313:98:2;7.340098;51.324607;679
9;8313;Gevelsberg Hbf.;Gevelsberg;GEBF;de:05954:8313;98;Gleis 2 (S);de:05954:8313:98;13;;de:05954:8313:98;7.339793;51.324494;679
9;8371;Breckerfeld Teichstr.;Breckerfeld;BRCH;de:05954:8371;0;;;1;1;;7.466886;51.255760;674
9;8372;Breckerfeld Erlenbruch;Breckerfeld;BRER;de:05954:8372;0;;;1;1;;7.466788;51.253089;674
9;8373;Breckerf. Wengeberg Penninckw.;Breckerfeld;BRPE;de:05954:8373;0;;;1;1;;7.464344;51.252117;674
9;8374;Breckerfeld Am Kreutz;Breckerfeld;BRAK;de:05954:8374;0;;;1;1;;7.464039;51.254630;674
9;8375;Breckerfeld Jakobusweg;Breckerfeld;BRJA;de:05954:8375;0;;;1;1;;7.466186;51.257525;674
9;8376;Breckerfeld Am Stollen;Breckerfeld;BRAS;de:05954:8376;0;;;1;1;;7.465826;51.250846;674
9;8621;Gevelsberg Lusebrink;Gevelsberg;LUSE;de:05954:8621;0;;;1;1;de:05954:8621:0:1;7.341401;51.319425;679
